"id","name","subdomain","site","phone","addr1","addr2","city","state","zip","notes","discount_code","discount_rate","created_at","updated_at","species","email","contact","facility"
3,"Evergreen Animal Hospital","evergreen","www.evergreenvet.com","303-674-4331","32175 Castle Court","","Evergreen","CO",80439,"",2017,50,"2009-02-27 21:02:51","2009-03-22 19:07:40","pet","rbstep@evergreenvet.com","Bob Stephen",""
4,"Curlew Hills Memory Gardens Pet Cemetery","curlewhillspetcemetery","www.curlewhillspetcemetery.com","727-789-2000","1750 Curlew Road","","Palm Harbor","FL",34683,"",2033,50,"2009-02-27 21:04:25","2009-03-22 19:10:10","pet","info@curlewhillspetcemetery.com","Ann Kilzer",""
5,"Deceased Pet Care","deceasedpetcare","www.deceasedpetcare.com","770-457-7659","4991 Peachtree Rd.","","Chamblee","GA",30341,"website link sent
has been linked
Julianne - Bethel
Cindi - cyndi@dpc-i.net
Barbara
Katie
Jill
Bryan
Lauren
Maryanne",2011,50,"2009-02-27 21:08:02","2009-03-21 15:18:27","pet","info@deceasedpetcare.com","Maudann Shugart",""
6,"Paws, Whiskers, & Wags","pawswhiskersandwags","www.pawswhiskersandwags.com","404-370-6000 ","2800 E. Ponce de Leon Ave.","","Decatur","GA",30030,"",2019,50,"2009-02-27 21:08:53","2009-03-21 15:23:44","pet","christine@pawswhiskersandwags.com","Christine Hunsaker",""
7,"Pet Cremation Services","petcremations","www.petcremationscolsga.com/","706-596-1200","1014B 14th St.","","Columbus","GA",31096,"",2021,50,"2009-02-27 21:09:48","2009-09-24 16:01:25","pet","pet_cremation@bellsouth.net","Trev Fuller",""
8,"Faithful Friends Pet Cremation Center","faithfulfriendspcc","www.faithfulfriendspcc.com","770-385-0222","60 Chamisa Rd.","Bldg 2 Suite 205","Covington","GA",30016,"",2058,50,"2009-02-27 21:10:52","2009-03-22 19:30:31","pet","faithford@att.net","Dennis Ford",""
9,"Dream Land Pet Memorial Center","dreamland","www.dreamlandpetcremation.com","678-594-0041","2950 Moon Station Rd.","","Kennesaw","GA",30144,"Jane Michiels Gen. manager
jane@petdreamsmemorial.com
kevin@dreamland?
website link sent",2012,50,"2009-02-27 21:11:38","2011-06-07 15:20:39","pet","info@dreamlandpetcremation.com","Kevin Marcy -President",""
10,"Highland Pet Supply","highlandpet","www.highlandpet.com","404-892-5900 ","1186 N. Highland","","Atlanta","GA",30306,"",2036,50,"2009-02-27 21:12:23","2009-03-22 01:10:47","pet","toni@highlandpet.com","Toni Barry",""
11,"Atlanta Pet Cremation Services","","","770-533-3332","4986 S. Atlanta Rd. S.E.","","Smyrna","GA",30080,"",2029,50,"2009-02-27 21:13:13","2009-03-22 20:01:33","pet","","Neal Turner",""
12,"Heavenly Paws Pet Cremations","heavenlypaws","www.heavenlypaws.com","859-493-0500 ","130 Mullen Dr.","P.O. Box 236","Walton","KY",41094,"",2022,50,"2009-02-27 21:14:07","2009-03-21 15:27:18","pet","","Adam Karlis",""
13,"Heaven's Pets at Lake Lawn Metairie","heavenspets","www.heavenspets.com","504-482-7387 ","c/o Metairie Small Animal Hospital","101 Metairie Road","Metairie","LA",70005,"Sharon Henry
Volunteer
Bereavement
Counselor

Victoria Segreto
Assistant Manager",2014,50,"2009-02-27 21:15:00","2009-09-21 15:47:02","pet","heavenspets@bellsouth.net","Jennifer Melius ",""
14,"Best Friend Pet Cremations","bestfriend","www.bestfriendpetcremation.com","443-929-0670 ","8525 Water Oak Rd.","","Parkville","MD",21234,"",2032,50,"2009-02-27 21:15:55","2009-03-22 20:31:11","pet","info@bestfriendpetcremation.com","Jane Heckrotte",""
15,"At Home On The Range","athomeontherange","www.athomeontherange.net","406-282-7378","8400 Amsterdam Rd.","","Manhatten","MT",59741,"",2024,50,"2009-02-27 21:16:55","2009-03-21 15:32:45","pet","batesnancy@hotmail.com","Nancy Bates",""
16,"Central Carolina Pet Services Crematory","centralcarolina","www.centralcarolinapetservices.com","336-723-6500 ","2703 W. Mountain St.","","Kernersville","NC",27284,"",2020,50,"2009-02-27 21:18:12","2009-03-21 15:24:50","pet","","Gary Goldsberry",""
17,"Faithful Friends Pet Cremation Service","faithfulfriendspetcremation","www.faithfulfriendspetcremation.com","919-874-0014","4912 #107 Alpinis Dr.","","Raleigh","NC",27616,"Michelle",2013,50,"2009-02-27 21:19:26","2009-04-07 19:55:23","pet","faithfulfriendspet@hotmail.com","Tim McKinnish",""
18,"Beckers Angels Rest Pet Cremation Service","angelsrestcremation","www.angelsrestcremation.com","330-750-1393","26 Sexton St.","","Struthers","OH","44471 ","",2031,50,"2009-02-27 21:20:20","2009-03-22 00:54:18","pet","dan@beckerfuneralhomes.com","Daniel Becker",""
19,"Hillcrest-Flynn Pet Funeral Home & Crematory","hillcrest-flynn","www.hillcrestflynn.com/code/default.asp","724-324-5100","2619 East State St.","","Hermitage","PA",16148,"",2026,50,"2009-02-27 21:21:27","2009-09-24 18:03:16","pet","dogguru@gmail.com","Roberta Knauf",""
21,"Hinsdale Animal Cemetery and Crematory","petcemetery","www.petcemetery.org/","630-323-5120","6400 S. Bentley Ave.","","Willowbrook","IL",60527,"",2018,50,"2009-03-21 14:47:17","2009-09-24 16:16:06","pet","info@petcemetery.org","Bill Remkus",""
22,"Pet Angel Memorial Center","petangelmemorialcenter","www.petangelmemorialcenter.com/","317-569-6000","172 East Carmel Dr.","","Carmel","IN",46032,"",2016,50,"2009-03-21 14:58:52","2009-09-24 16:17:34","pet","coleen_ellis@petangelmemorialcenter.com","Coleen Ellis",""
23,"Pet Cremation Services","petcremationsar","petcremationsar.com/","501-831-4562","329 Adams ","","Drasco","AR",72543,"",2015,50,"2009-03-21 15:05:53","2009-09-24 15:12:10","pet","marianne@petcremationsar.com","Marianne Sinclair",""
24,"Rolling Acres Memorial Gardens for Pets, Inc.","visitrollingacres","www.visitrollingacres.com/","816-891-8888","12200 N. Crooked Rd.","","Kansas City","MO",64152,"",2023,50,"2009-03-21 15:31:16","2009-09-24 16:25:44","pet","nancypiper@visitrollingacres.com","Nancy Piper",""
25,"Paw Print Pet Cemetery & Crematory","","","630-231-1909","27 W. 150 N. Ave.","","West Chicago","IL",60185,"",2025,50,"2009-03-21 15:35:55","2009-03-21 15:35:55","pet","lpet1117@aol.com","Linda Peterson",""
26,"Los Angeles Pet Memorial Park","lapetcemetery","www.lapetcemetery.com","818-591-7037","5068 N. Old Scandia Ln.","","Calabassas","CA",91302,"",2027,50,"2009-03-21 15:40:54","2009-03-21 15:40:54","pet","lapetcem@sbcglobal.net","Margie Stillman",""
29,"Faithful Friends Pet Cremation and Memorials","faithfulfriendspet","faithfulfriendspet.com/","270-842-4086","8141 Nashville Road","","Bowling Green","KY",42101,"",2035,50,"2009-03-22 01:04:30","2009-09-24 16:21:29","pet","kimbird@bellsouth.net","Tommy Jones",""
30,"Faithful Friends Pet Memory Center","faithfulfriendspetmemorycenter","www.faithfulfriendspetmemorycenter.com","859-282-6527","Suite C","5775 Constitution Dr.","Florence","KY",41042,"",2037,50,"2009-03-22 01:15:32","2010-11-28 21:42:57","pet","lorie.clary@faithfulfriendspetmemorycenter.com","Lorie Clary",""
31,"Faithful Friends Pet Memorial Services, LLC","ffpmsnashville","www.ffpmsnashville.com","615-403-8020","72 Buchi Court","","Nashville","TN",37204,"",2038,50,"2009-03-22 01:19:14","2009-09-24 21:41:39","pet","ffpmscrematory@aol.com","Brenda Gifford",""
32,"Greenbrier of Central Florida","greenbrier","www.greenbrier.cc/index.html","407-886-2670","3703 W. Kelly Park Rd.","","Apopka","FL",32712,"",2039,50,"2009-03-22 01:25:35","2009-09-24 15:53:59","pet","","Debbie Mulrine",""
33,"Hamilton Pet Meadow","petmeadow","www.petmeadow.com/","609-586-9660","1500 Klockner Rd.","","Hamilton","NJ",08619,"",2040,50,"2009-03-22 01:28:48","2009-09-24 17:58:31","pet","dbjorling@petmeadow.com","Debra A. Bjorling",""
34,"Love Dogs & Cats Too","lovedogsandcatstoo","www.lovedogsandcatstoo.com/","706-632-8668","777 East Main St.","","Blue Ridge","GA",30513,"",2041,50,"2009-03-22 01:36:13","2009-09-24 16:03:14","pet","rickismart@tds.net","Ricki Smart",""
35,"Memory Gardens Pet Cemetery","","www.memorygardenspets.com/","317-895-9055","9055 Pendleton Pike","","Indianapolis","IN",46236,"",2042,50,"2009-03-22 01:39:44","2009-09-24 16:18:22","pet","","Bernice Schobler",""
37,"Ohio Valley Pet Cemetery","ohiovalleypetcemetery","www.ohiovalleypetcemetery.com/","812-282-3947","2810 Coopers Lane","","Sellersburg","IN",47172,"",2044,50,"2009-03-22 01:47:14","2009-09-24 16:18:38","pet","","David Lee",""
38,"Pet Plantation Funeral Home and Crematory","petplantation","www.petplantationhome.com","478-971-4112","1412 Leverett Rd.","","Warner Robins ","GA",31088,"",2045,50,"2009-03-22 01:49:39","2009-09-24 21:58:54","pet","PGB452@aol.com","Paul Boyer",""
39,"Precious Pets Cemetery","preciouspetscemetery","preciouspetscemetery.com/","405-771-5510","5510 Spencer Rd.","","Spencer ","OK",73084,"",2046,50,"2009-03-22 01:52:30","2009-09-24 18:01:50","pet","","Robert Erdman",""
40,"Rainbow Ridge Pet Cemetery & Crematory","rainbowridgecem","www.rainbowridgecem.com/","845-897-9710","146 Old Route 9","","Fishkill","NY",12524,"",2047,50,"2009-03-22 01:56:04","2009-09-24 17:59:52","pet","info@RainbowRidgeCem.com","Elizabeth Dreeben",""
41,"Sleepy Hollow Pet Cemetery, LLC","sleepyhollowpc","www.sleepyhollowpc.com/","616-538-6050","2755 64th Street SW","","Byron Center","MI",49315,"",2048,50,"2009-03-22 01:58:56","2009-09-24 22:12:07","pet","info@sleepyhollowpc.com","David Fields",""
42,"TenderCare Pet Bereavement Services","","","812-294-4154","209 Ferguson St.","","Henryville","IN",47126,"",2049,50,"2009-03-22 02:02:09","2009-03-22 02:02:09","pet","","Richard D. Pyke",""
43,"Twin Oaks Pet Cemetery & Crematorium","","www.twinoakspetcemetery.com/","863-467-6377","251 NE. 300th St.","","Okeechobee","FL",34972,"",2050,50,"2009-03-22 02:05:01","2009-09-24 15:54:17","pet","","Thomas K. Nicholl",""
44,"All Heavenly Creatures Pet Crematory","allheavenlycreatures","www.allheavenlycreatures.net/","772-878-2315","7664 S Federal Highway 1","","Port St. Lucie","FL","34952-1961 ","",2051,50,"2009-03-22 02:08:11","2009-09-24 15:54:49","pet","","Tammy Nicastro",""
46,"Pet Heaven Memorial Park Inc.","pet-heaven","www.pet-heaven.com/","305-223-6515","10901 West Flagler St.","","Miami","FL",33174,"",2053,50,"2009-03-22 02:15:17","2009-09-24 15:55:08","pet","","Jason Schoendorfer",""
47,"Pet Cremation Services of Richmond, Ltd.","","","804-321-5055","3815 Chamberlayne Ave.","","Richmond","VA",23227,"",2054,50,"2009-03-22 02:17:52","2009-03-22 02:17:52","pet","","Mary L. Pickett",""
48,"Precious Memories Pet Funeral Service, Inc.","preciousmemoriespet","www.preciousmemoriespetfuneralservice.com/","336-886-7387","3903 Hunt Chase Dr.","","Jamestown ","NC",27282,"",2055,50,"2009-03-22 02:21:13","2009-09-24 17:57:03","pet","petfuneralsvc@northstate.net","Jerry Groom",""
49,"Sunset Pet Services, Inc.","sunsetpetservices","www.sunsetpetservices.com/","703-971-4120","5521 Vine St.","","Alexandria","VA",22310,"",2056,50,"2009-03-22 02:25:00","2009-09-24 21:42:39","pet","","Tina Hudson-Corp",""
50,"Pet Heaven Cemetery & Crematory, Inc.","petheavencemetery","petheavencemetery.com/","704-435-8686","3408 Tryon Courthouse Rd.","","Cherryville","NC","28021-0097","",2057,50,"2009-03-22 02:27:20","2009-09-24 17:57:29","pet","phccinc@bellsouth.net","Dawn Mauney",""
51,"Borden Pet Crematory & Memorial Center","bpcmc","www.bpcmc.com/","502-451-1480","4517 Produce Rd.","","Louisville","KY",42018,"",2059,50,"2009-03-22 19:33:33","2009-09-24 16:21:47","pet","","Patty Borden",""
55,"Edward Lawrence Funeral Home","lawrencefh","www.lawrencefuneralhome.com","203-655-6127","2119 Boston Post Road","P.O. Box 3406","Darien","CT",06820,"Edward Lawrence email is Elawrence@lawrencefuneralhome.com",67952,50,"2009-03-30 18:39:31","2010-03-25 20:24:36","human","lawrencefh@sbcglobal.net","Jed ?  or Edward Lawrence",""
56,"IAOPCC / Brenda Drown","iaopcc","www.iaopc.com/pageDisplay.jsp?pageid=12620","800-952-5541","","","","NY","","","","","2009-03-30 18:52:47","2009-09-24 18:00:05","pet","iaopc@aol.com","Brenda Drown",""
57,"Buckleigh Hills","buckleighhills","www.buckleighhills.com/index.htm","919-269-7771","P.O. Box 265","","Zebulon","NC",27597,"Ken Pearce","","","2009-04-02 15:29:41","2009-09-24 17:57:45","pet","info@buckleighhills.com","Erich Dean",""
58,"Carolina Pet Cremations","carolinpet","carolinapetcremation.com/","919-787-4334","2424 Glenwood Ave #102","","Raleigh","NC",27608,"","","","2009-04-02 18:42:15","2009-09-24 17:58:00","pet","","Steve Weaver",""
60,"Eternal Companions Pet Memorial Center ","eternalcompanions","www.eternalcompanions.ca/","866-302-0500","23 ch Henri- Petit","Rigaud, QC JOP IPO","","CA","","","","","2009-04-03 14:17:42","2009-09-24 15:48:15","pet","jocelyne@elternalcompanions.ca","Jocelyne Monette",""
61,"Crevasses Pet Funeral Home","crevassespcs","www.crevassespcs.com/","352-332-5600","6352 N.W. 18th Dr.","","Gainesville","FL",32653,"Christen","","","2009-04-03 16:30:26","2009-09-24 15:55:41","pet","beau@crevassespcs.com","Beau Crevasses",""
62,"Bayview Memorial Pet Care","bayviewmemorial","bayviewmemorial.ca/shop/","519-326-1935","10 Foundry Street","Ontario","Leamington","CA","","","","","2009-04-03 16:55:59","2010-03-03 21:14:09","pet","colleen.hutchins@bayviewmemorial.ca","Colleen Hutchins",""
63,"Heisey Funeral Home","","www.richardheiseyfuneralhome.com/","717 626-2464","216 South Broad Street","","Lititz","PA",17543,"","","","2009-04-05 15:08:06","2009-09-24 18:03:45","human","","Richard Heisey",""
64,"Chase Parkway Memorial","","www.chaseparkwaymemorial.com","203 574-1313","430 Chase Parkway","","Waterbury","CT",06708,"","","","2009-04-05 15:18:08","2009-04-05 15:19:07","human","","Peter P. Albini",""
65,"Kimbrell Stern Funeral Directors","","www.kimbrellstern.com/","229 883-4152","1503 Dawson Road","","Albany","GA",31707,"","","","2009-04-05 15:29:58","2009-09-24 16:03:58","human","","Billy Coleman",""
66,"Curlew Hills Memory Gardens","","www.curlewhills.com/","727 789-2000","1750 Curlew Road","","Palm Harbor","FL",34683,"","","","2009-04-05 15:34:28","2009-09-24 15:55:57","human","","Ann Kilzer",""
67,"McCullough Funeral Home","","www.mcculloughfh.com/","478 953-1478","417 S. Houston Lake Road","","Warner Robins","GA",31088,"","","","2009-04-05 15:43:16","2009-09-24 16:04:18","human","","Mike McCullough",""
68,"Tucker Funeral Home, Inc.","","www.tuckerfuneralhomes.com","270 754-1551","113 North 3rd Street","","Central City","KY",42330,"","","","2009-04-05 15:50:10","2009-04-05 15:50:10","human","ted@tuckerfuneralhomes.com","Ted Tucker",""
69,"Mountcastle Funeral Home, Inc.","","www.mountcastle.net/","703 680-1234","4143 Dale Boulevard","","Dale City","VA",22193,"","","","2009-04-05 15:56:38","2009-09-24 21:42:53","human","","Meg Mountcastle",""
70,"Phillips Funeral Home & Cremation Service","","www.phillipsfuneralhome.com","607 936-9212","17 West Pulteney Street","","Corning","NY",14830,"","","","2009-04-05 16:05:06","2009-04-05 16:05:06","human","dec@phillipsfuneralhome.com","David E. Carpenter",""
73,"A. S. Turner & Sons","","www.asturner.com/index.shtml","404 292-1551","2773 N. Decatur Road","","Decatur","GA",30033,"","","","2009-04-05 16:32:41","2009-09-24 16:05:15","human","","Ernest Mosier",""
74,"Cremation Solutions","","www.cremationsolutions.com","877 365-9474","311 Route 313 West","","Arlington","VT",05250,"08/15/13 Has 2 of our urns showing on his website [ac].","","","2009-04-05 16:37:37","2013-08-15 15:13:17","human","info@cremationsolutions.com","Jeff Staab",""
75,"Caldwell & Cowan Funeral Home","caldwellcowan","www.caldwellandcowan.com/","770 786-7062","1215 Access Road ","","Covington","GA",30014,"Judson Calwell-owner
Jennifer Jarvis-Funeral director
Larry Hubanks-Licensed Funeral Director
Brad Bailey-Funeral Director, Insurance Agent","","","2009-04-05 16:45:29","2010-08-23 20:44:12","human","service@caldwellandcowan.com","Judson Caldwell",""
76,"Morris Nilsen Funeral Chapel","morrisnilsen","http://www.morrisnilsen.com/","612 869-3226","6527 Portland Avenue","","Richfield","MN",55423,"","","","2009-04-05 16:57:03","2010-06-21 16:02:37","human","","Morris Nilsen",""
77,"Forastiere Family Funeral Homes","forastiere","www.forastierefuneralhome.com","413 733-5311","45 Locust Street","","Springfield","MA",01108,"","","","2009-04-05 19:47:48","2010-06-21 15:18:36","human","lforastiere@forastierefuneralhome.com","Loren Forastiere",""
78,"Northside Chapel Funeral Directors and Crematory","northsidechapel","www.northsidechapel.com/","770 645-1414","12050 Crabapple Road","","Roswell","GA",30075,"12/29/11:  Randy Norred passed away due to sudden massive heart attack [ac].  Rex Grizzle called asking for us to familiarize the staff about our product [ac].
02/02/12:  Completed Sales Training presentation [ac].","","","2009-04-05 19:55:14","2012-02-02 20:50:06","human","northsidechapel@bellsouth.net","Rex Grizzle",""
79,"Schrader Funeral Home","schraderfuneral-mo","www.schrader.com","636 227-5511","14960 Manchester Road","","Ballwin","MO",63011,"","","","2009-04-05 20:02:34","2009-04-28 02:46:41","human","bjenkins@schrader.com","Bob Jenkins",""
80,"Pasley Fletcher Funeral Home","","www.pasleyfletcher.com/","706 647-6644","628 North Church Street","P.O. Box 166","Thomaston","GA",30286,"","","","2009-04-05 20:11:36","2009-09-24 16:06:42","human","","Jim Fletcher",""
81,"Vance Brooks Funeral Home","","www.vancebrooksfuneralhome.com/","706 323-8152","4048 Macon Road","P.O. Box 8066","Columbus","GA",31908,"","","","2009-04-05 20:18:05","2009-09-24 16:13:32","human","","Ric Davis",""
82,"Michael A. Mealey & Sons, Inc.","","www.mealeyfuneralhomes.com/","302 652-5913","703 N. Broom Street","P.O. Box 2866","Wilmington","DE",19805,"Folder has email from Robert Andreone at robertandreone47@hotmail.com
","","","2009-04-05 20:30:13","2009-09-24 15:53:09","human","info@mealeyfuneralhomes.com","Lori Mealey",""
85,"Salem Funeral & Cremation Services","salemfuneral","www.salemfh.com","(336) 722-6122","120 South Main Street","","Winston-Salem","NC",27101,"","","","2009-04-05 20:58:38","2012-10-11 02:03:44","human","mvogler@salemfh.com","Mosby Vogler",""
86,"Becker Funeral Home","beckerfamilyfl","www.beckerfamilyfuneral.com","352 394-7121","806 West Minneola Avenue","P.O. Box 120864","Clermont","FL",34712,"","","","2009-04-05 21:15:29","2011-04-05 18:58:11","human","chazgoblue@aol.com","Charles Becker",""
87,"Brewer & Sons Funeral Homes & Cremation Services","brewersons-fl","www.brewerfuneral.com","352 394-8500","1018 West Avenue","","Clermont","FL",34711,"1 full size & 1 keepsake on consignment

Suzi purchased 1 keepsake","","","2009-04-05 21:33:08","2009-04-23 22:33:54","human","info@brewerfuneral.com","Thomas Derryberry",""
90,"Hollomon-Brown Funeral Home & Crematory","hollomonbrownfuneralhameandcrematory","www.hollomon-brown.com/","757 463-0150","3600 Virginia Beach Blvd","","Virginia Beach","VA",23452,"This is the Lynnhaven Chapel & Crematory
Location.  They have multiply FHs

Send info via fax-757-463-8525

Price sheet and updated partner letter sent 10/1","",50,"2009-04-05 22:54:01","2010-10-01 11:21:24","human","info@hollomon-brown.com","Kathy",""
91,"Paws Memorial Service, LLC","pawsmemorial","pawsmemorialservice.com","281 813-8279","601 Pitts Road","","Richmond","TX",77406,"02/11/12: Referral retail online order from Sandra Sakamoto for #6340035 for $480.00 [ac].","","","2009-04-06 19:05:34","2012-02-13 19:30:04","pet","cay-dal@att.net","Catherine Dalrymple",""
92,"Honor Thy Pet Cremation Services","honorthypet","honorthypet.org","813-957-7301","101 American Center Place","","Tampa","FL",33619,"","","","2009-04-07 16:40:21","2009-04-07 16:40:21","pet","honorthypet@tampabay.rr.com","",""
95,"Pets At Peace Pet Funeral Home","petsatpeace","www.fullerpetsatpeace.com","239-417-5400","4424 Tamiami Trail","Building 2","Naples","FL",34112,"","","","2009-04-08 16:13:40","2009-09-24 15:57:12","pet","","Brian E. Laurent ",""
96,"Gateway Pet Memorial","gatewaypet","www.gatewaypetmemorial.com","519-822-8858","170 Southgate Drive ","Guelph,ON N1G 4P5","","CA","","Toronto
1-86 Melford Drive, Toronto ON M1B 2X7

1-800-227-6915","","","2009-04-13 22:28:08","2009-04-13 22:28:08","pet","inquiry@gatewaypetmemorial.com","Scott Hunter",""
97,"Bubbling Well Pet Memorial Park","bubblingwellpet","","707-255-3456","2462 Atlas Peak Rd.","","Napa","CA","","Georgein","","","2009-04-13 23:31:25","2009-04-13 23:31:25","pet","info@bubbling-well.com","Dan Harberts",""
101,"Cal Pet Crematory","calpet-ca","www.calpet.com","","9595 Glenoaks Blvd","P.O. Box 488","Sun Valley","CA",91353,"Pam -
Called 4/15, left message on answering machine
Will call back 4/22 if no one returns the call
No email adddress on web site so nothing sent yet","","","2009-04-15 17:03:14","2009-04-16 19:07:07","pet","","",""
102,"Sea Breeze Pet Cemetery","seabreeze-ca","www.seabreezepetcemetery.com","714 962-7111","19542 Beach Blvd. (Highway 39)","","Huntington Beach","CA",92648,"Pam
Talked to Joyce, email sent to Brenda 4/15 with link; she is on vacation all week
4/23 talked to Brenda, she hasn't had a chance to look at; asked me to call back 4/24 AM","","","2009-04-15 17:36:39","2009-04-23 19:39:24","pet","brenda@seabreezepetcemetery.com","Brenda, owner",""
103,"Only Cremations for Pets","onlycremations-ca","www.onlycremations.com/","949 852-1485","4263 Birch Street Suite B","","Newport Beach","CA",92660,"Pam -
Spoke with Brittany 4/15
Emailed Brett with link
4/22 talked to Brittany again, Brett was busy, she will ask him to call.
I will follow up 4/30 if I don't hear back","","","2009-04-15 17:57:40","2009-09-24 15:49:22","pet","onlycremations@bbvh.com","Brett (owner)",""
104,"Friends Forever Pet Cremation Services","friendsforever-ca","www.friendsforevercremation.com","760 510-1010","120 N. Pacific Street","","San Marcos","CA",92069,"Pam -
Talked to Jacquey 4/15; email with link sent
She replied that she would like a sample urn sent
4/24 - talked to her, explained various options, she will talk to the owner.  She asked that I call in a month
5/29 I will follow up","","","2009-04-15 18:15:28","2009-09-24 15:49:43","pet","friendsforeverpc@sbcglobal.net","Jacquey Stanicek, Manager",""
105,"Peaceful Paws Cremation ","peacefulpawscremation","www.peacefulpawscremation.com","(360) 213-0323","Peaceful Paws Cremation","P.O. Box 61489","Vancouver","WA",98666,"","","","2009-04-15 19:15:16","2012-12-06 14:38:47","pet","info@peacefulpawscremation.com","Vicky Hellen",""
106,"Memorial Gallery Pets","memorialgallerypets-wa","www.memorialgallerypets.com","","2116 N. 122nd Street","","Seattle","WA",98133,"Pam -
Email with link sent 4/16
4/17 - Talked to Arel, Michelle will call me back; Michelle called back and indicated that she already sells our urns.  She does not want our link on her site.","","","2009-04-15 22:36:43","2009-09-24 21:44:30","pet","service@memorialgallerypets.com","",""
107,"Pet Reflections","pet-reflections-ut","www.pet-reflections.com/","801.796.5840","589 West 220 South, Suite 1","","Pleasant Grove","UT",84062,"Pam -
Talked to Scott (different Scott than the owner I think) 4/16; email with link sent
I will follow up on Friday","","","2009-04-15 23:00:33","2009-09-24 21:42:14","pet","info@pet-reflections.com","Scott",""
108,"Family Animal Services","familyanimalservices-or","www.familyanimalservices.org/","503 665-8300","17819 NE Riverside Parkway","","Portland","OR",97230,"Pam -
Talked to Lynn 4/16; email with link sent
Called 4/17, left message for Lynn
I will call back 4/21","","","2009-04-15 23:29:04","2009-09-24 18:02:09","pet","Lynn@familyanimalservices.org","Lynn",""
109,"Memorial Pet Care","memorialpetcare-id","www.memorialpet.com","208 887 7669","654 E. King Street","","Meridian","ID",83642,"Pam -
Talked to Angie 4/16; email with link sent
I will follow up Monday, 4/20","","","2009-04-15 23:45:41","2009-09-24 16:15:19","pet","admin@memorialpet.com","Angie",""
110,"Rest Assured Pet Cremation","restassuredpetcremation-or","www.restassuredpetcremation.com/","541 746-0244","P.O. Box 549","","Springfield","OR",97477,"Pam -
Voice message left 4/16; email with link sent
Left message on 4/20 requesting a call back
I will call on 4/25 if I do not hear back prior to then","","","2009-04-15 23:55:16","2009-09-24 18:02:33","pet","foxglove@epud.net","David & Laura Hagey",""
111,"Pet Haven Cemetery","pethavencemetery","","(206) 878-7292","Pet Haven Cemetery Inc.","23646 Military Road","Kent","WA",98032," Angela Clarke
23646 Military Road South
Kent, WA.98032
917-733-9610
425-204-9919
33 east End Ave. Apartment 1B New York NY.10028



 lclarke_98035@yahoo.com
","","","2009-04-16 01:24:01","2012-12-06 14:36:32","pet","info@pethavencemetery.com","Louis Clark",""
113,"Annie's Healing Hearts","annieshealinghearts-or","www.annieshealinghearts.com","541 408-6925","2675 SW High Desert Drive #2","","Prineville","OR",97754,"Pam -
Talked to Michelle 4/16; email with link sent
I will follow up on Monday, 4/20","","","2009-04-16 18:12:27","2009-09-24 18:02:46","pet","mnelson2294@msn.com","Michelle",""
114,"Delaware Pet Cremations, Inc.","delawarepetcremations","www.theanimalsoul.com","303-656-5737","Delaware Pet Cremations, Inc.","304 Robinson Lane","Manchester","DE",19805,"","","","2009-04-16 18:39:02","2009-04-17 19:31:08","pet","rob@theanimalsoul.com","Rob Mayer",""
116,"Driftwood Pet Memorial Gardens","driftwoodpetmemorialgardens","","941-485-6672","Driftwood Pet Memorial Gardens","800 Laurel Ave.","Laurel","FL",34272,"No wedsite","","","2009-04-16 19:28:25","2009-04-20 20:46:54","pet","driftwoodkennels@aol.com","Fred Figg",""
118,"Our Pals","ourpals-az","www.ourpals.com","602 455-9295","3629 North 40th Avenue","","Phoenix","AZ",85019,"Pam -
4/17 talked to Lisa, she provided Jennifer's name and email address.  Email sent with link
4/21 talked to Jennifer, she liked and will meet with Katherine 4/28 and will call me back
I will follow up on 5/4 if I don't hear back

Katherine Heuerman is the founder and owner","","","2009-04-16 19:39:59","2009-09-24 15:47:23","pet","jennifer@ourpals.com","Jennifer",""
119,"Circle of Life Pet Crematorium","circleoflifepetcrematorium-ca","www.circleoflifepet.com","951 927-8170","43800 Whittier Avenue","","Hemet","CA",92544,"Pam -
4/17 talked to Kelly and sent email with link
4/22 talked to Kelly, she loved them and will talk to owner about stocking.  At her request, I sent email with link instructions to be a non-stocking distributor now
I will call her 4/29 to see about ordering stock","",20,"2009-04-16 19:46:52","2009-09-24 15:50:04","pet","cremations@circleoflifepet.com","Marguerite Johnson",""
121,"Sorrento Valley Pet Cemetery and Crematory","svpc-ca","www.svpc.biz","619 276-3361","10801 Sorrento Valley Road","","San Diego","CA",92121,"Pam -
4/17 Talked to Jennifer, email addresses will not be set up until next Tuesday
4/22 talked to Bett, Manager.  Email nor website up yet, she asked me to snail mail.  I sent brochure, partner program & ltr.
I will follow up 4/30 ","","","2009-04-16 20:00:14","2009-09-24 15:50:21","pet","","Bett",""
123,"San Diego Pet Memorial Park","sandiegopetmemorial-ca","www.sandiegopetmemorialpark.com","858 909-0009","8995 Crestmar Point","","San Diego","CA",92121,"Pam - draft email written, will contact 4/17","","","2009-04-16 20:08:21","2009-09-24 15:50:54","pet","contact@sandiegopetmemorialpark.com","John Sanborn (possibly)",""
124,"Gulf Coast Pet Crematory","gulfcoastpetcrematory","www.gulfcoastpetcrematory.com","850-437-9639","Gulf Coast Pet Crematory","4771 Bayou Blvd, PMB 194","Pensacola","FL",32503,"","","","2009-04-16 20:27:29","2009-04-16 20:35:28","pet","jpgibson@cox.net","Jeffery Gibson",""
125,"Broward Pet Cemetery & Crematory","bowardpetcemeterycrematory","","954-476-0743","Broward Pet Cemetery & Crematory","11455 NW 8th Street","Plantation","FL",33325,"Left 2 V/M trying to get email so we could send info. Gave her our website and asked her to take a look. Sending letter, Partner Program and Flyer","","","2009-04-16 21:01:00","2009-04-22 19:23:03","pet","","Sandy Ketchans",""
126,"Central Florida Pet Cemetary","centralfloridapetcemetary&crematory","www.cfpcc.com","352-307-2256","Central Florida Pet Cemetary & Crematory","10505 SE 36th Avenue","Belleview","FL",34420,"","","","2009-04-20 16:04:32","2009-04-20 16:04:32","pet","camacres@aol.com","Janet Erwin",""
127,"Better Than Best Pet After-Care","betterthanbestpetaftercare","","847-727-1555","Better Than Best After-Care","980 Spyglass Lane","Naples","FL",34102,"","","","2009-04-20 16:31:21","2009-04-20 16:31:21","pet","rhershenhorn@aol.com","Robert Hershenhorn",""
132,"Chestnut Ridge Pet Cemetery","chestnutridgepetcemetery","blairsvillecemetery.com","702-459-7750","Chestnut Ridge Pet Cemetery","609 East Market Streetr","Blairesville","PA",15717,"RD. 04/27/09 Got recording. Left V/M will send std dist. letter and attachments via email.
 ","","","2009-04-27 18:35:17","2009-04-27 18:46:09","pet","mike@blairesvillecemetery.com","Mike Duffy",""
133,"Cloud Nine Pet Services ","cloudninepetservices","www.cloudninepets.com","610-285-2720","Cloud Nine Pet Services","9923 Old Route 22","Breinigsville","PA",18031,"RD 04/27. Will contact Kevin's wife Lisa (Office Mgr) on 04/28 She works Tues & Thurs
4/28-email PP.clark.
05-14 Follow-up called Kevin said Lisa looked at it, but he hasn't, as they were going on vacation. Said he would try to take some time. They do around 500 cremation, and use carved box's  ","","","2009-04-27 19:46:04","2009-05-14 23:26:40","pet","memorialpark@cloudninepets.com","Kevin Zerwick",""
134,"Abbey Glen Pet Memorial Park","abbeyglenpa","www.abbeyglen.com/about.html","215-538-9283","80 Kelly Rd.","","Quakertown","PA",18951,"RD 4-28 Sent Link and partner letter. Resent on 05/04 to Tammy","","","2009-04-28 20:08:52","2009-09-24 18:04:21","pet","painfo@abbeyglen.com","Tammy Bruno",""
135,"Pet Memorial Service","petmemorialservice","petmemorialservices.com/","610-430-7989","126 Turner Lane","","West Chester","PA",19380,"","","","2009-04-28 20:45:38","2009-09-24 18:04:55","pet","margaretepherton@petmemorialservices.com","Margaret Epherton",""
136,"Alabama Heritage Funeral Home","alabamaheritagefuneralhome","","334-215-0180","Alabama Heritage Funeral Home","10505 Atlanta Highway","Montgomery","AL",36117,"RD They don't have a web page. Mr Grant is the funeral director. He took a lot of time W/Me and was very impressed with Clarks Urns. Told him I would follow-up W/Email and partner letter with discounts ect. (Email sent 05/08/09 W/Attachements)","","","2009-05-04 01:25:09","2009-05-08 20:24:10","human","edgar.grant@sci-us.com","Edgar Grant",""
137,"Davis-Smith Funeral Home","davissmith-ar","www.davissmithfuneralhome.com","","","","Hot Springs","AR","","","","","2009-05-04 21:26:50","2011-11-07 16:21:55","human","","",""
140,"Down On The Farm, LLC","downonthefarm","www.downonthefarm-plano.com","630-553-5441","Down On The Farm, LLC","244 Jeter Road","Plano","IL",60454,"(RD) They display urns, but had not moved many. Did not want to add any. Told him he could buy at a lesser discount, and not stock. That appealed to him. Did not want info via email. Made a comment that he didnot always get his emails. They maybe having an internal struggle?
Sending partner letter and brochure. Mailed 05/06/09.

","","","2009-05-06 18:50:18","2009-05-06 20:41:28","pet","","Steve Neely",""
141,"Angle View Pet Cemetary","angelviewpetcemetery","www.angleview.com","508-947-4103","Angel View Pet Cemetery","471 Wareham Street","Middleboro","MA",02346,"RD 05/09 Per Sheila, Mr. Morgan is not available. Said to use email off the web. ","","","2009-05-06 19:38:21","2009-05-06 19:38:21","pet","info@angelview.com","William Morgan",""
142,"Loving Pet Crematory VA.","lovingpetscrematory","lovingpetscrematory.com/","804-262-0156","8621 Sanford Dr.","","Richmond","VA",23228,"John Rushing","","","2009-05-06 20:23:22","2009-05-06 20:25:49","pet","","Paul Faulk",""
143,"Harris Funeral Home","harris-ar","","","","","","AR","","","","","2009-05-08 16:26:52","2009-05-08 16:26:52","human","","",""
147,"Nelson Funeral Service","nelsonfs-ar","www.nelsonfuneral.com","870 423-2170","202 East Madison Avenue","","Berryville","AR",72616,"","",50,"2009-05-11 23:25:58","2009-05-13 16:02:03","human","bobby@nelsonfuneral.com","Bobby Thurman",""
148,"Forest Meadows Funeral Home","forestmeadows-fl","www.forestmeadowsfh.com/","352 378-2528","725 NW 23rd Avenue","","Gainesville","FL",32609,"","","","2009-05-14 15:51:07","2009-09-24 15:59:01","human","drusso@forestmeadowsfh.com","Devin Russo",""
149,"Bluegrass","bluegrasspetcrematorium","","859-258-2052","Bluegrass Pet Crematorium","868 Floyd Drive #102","Lexington","KY",40505,"rd 05/16/09
Sent email 05/18/09 Left 2 V/M","","","2009-05-17 23:09:47","2009-05-18 20:58:52","pet","pjd32663","Harold Black, DVM",""
150,"Valley Pet Cemetery And Cematory","valleypetcemeteryandcematory","www.valleypet.net","800-962-1467","Valley Pet Cemetery And Cematory","127 Britner Ave. ","Williamsport","MD",21795,"RD 05/17/09 Per Tel-Con W/(Ms) Marty 5/18  Sent invitation to Web. Will Call back later this week.  ","","","2009-05-18 00:10:19","2009-05-18 20:37:23","pet","info@valleypet.net","Todd Snook",""
151,"Forget-Me-Not Pet Crematory, Inc.","forgetmenotpetcrematory","www.forget-me-notpetcrematory.com","(508) 393-0133","Forget-Me-Not Pet Crematory, Inc.","80 Lyman Street","Northborough","MA",01532,"RD 05/18 Left V/M, sent invitation","","","2009-05-19 17:36:45","2009-05-19 17:43:21","pet","rg_brennan@yahoo.com","Ralph Brennan",""
152,"Gorman-Scharpf Funeral Home","gorman-scharpf-mo","www.gormanscharpf.com","","","","Springfield","MO",65804,"","","","2009-05-19 17:40:26","2009-05-19 17:40:26","human","","",""
153,"Greenlawn Funeral Home","greenlawnfh-mo","www.greenlawnfuneralhome.com","","","","Springfield","MO",65803,"","","","2009-05-19 17:42:58","2009-05-19 17:42:58","human","","",""
154,"Herman H. Lohmeyer Funeral Home","hhlohmeyerfh-mo","www.hhlohmeyer.com","417 862-4433","500 E.Walnut Street","","Springfield","MO",65806,"5/20 - signed up as a non-stocking distributor","",20,"2009-05-19 17:44:39","2009-05-21 02:05:13","human","HHL@sofnet.com","Paul Wunderlich",""
157,"Walnut Lawn Funeral Home","walnutlawn-mo","www.walnutlawnfuneralhome.com","","","","Springfield","MO",65807,"","","","2009-05-19 18:00:47","2009-05-19 18:00:47","human","","",""
158,"Buddy's Place LLC","buddy'splace","www.buddysplacepetcrematorium.com","(518) 828-4342","Buddy's Place LLC","192 Knitt Road","Hudson","NY",12534,"RD 05/19/09 Said she had dial-up and did not want an email. said to send a fax. Told her I would send her a letter, as our brochure would be much better than a Fax copy. Sent letter and PPL 05/20/09. ","","","2009-05-19 21:01:28","2009-05-19 21:02:24","pet","","Karen Walker",""
159,"Griffith Pet Cremation Services","griffithpetcremationservices","","928-757-7692","Griffith Pet Cremation Services","4125 Irving Street","Kingman","AZ",86401,"RD 05/20/09 Coral said to send link, and she would have her husband look at them.
Sent link 05/20","","","2009-05-20 19:32:04","2009-05-20 20:00:19","pet","griffithpet@npgcable.com","Coral Griffith",""
160,"Eden Memorial Pet Care","edenmemorialpetcare","www.edenmemorialpetcare.com","888-216-6127","Eden Memorial Pet Care","202 Easy Street","Paso Robles","CA",93446,"RD 05/20/09 Left V/M, that we are sending link and PP Letter
Sent 05/20/09","","","2009-05-20 21:08:38","2009-05-20 21:38:12","pet","questions@edenmemorialpetcare.com","Christine Johnson",""
161,"James & Gahr Mortuaries","jamesgahr-mo","","573 458-2262","1601 East State Route 72","","Rolla","MO",65401,"","","","2009-05-21 15:31:01","2009-05-21 15:31:01","human","","",""
162,"Jones Funeral Home","jonesfh-mo","www.jonesfunerals.com","573 265-3278","200 South Meramec Street","","St. James","MO",65559,"","","","2009-05-21 15:32:59","2009-05-21 15:32:59","human","","",""
163,"Null & Son Funeral Home","nullandsonfh-mo","www.nullandsonfuneralhome.com","","1010 Kingshighway Street","","Rolla","MO",65401,"","","","2009-05-21 15:34:40","2009-05-21 15:35:11","human","","",""
164,"Sierra Hills Pet Cemetery","sierrahillspetcemetery","www.eastlawn.com","916-732-2037","Sierra Hills Pet Cemetery","6700 Verner Ave.","Sacramento","CA",95841,"RD 05/21 Left V/M sending landing and PP Letter (Done 05/21)","","","2009-05-21 17:43:37","2009-05-21 19:02:18","pet","williamb@eastlawn.com","William Becker",""
165,"Roselawn Pet Cemetery & Crematory","roselawnpetcemeterycrematory","www.roselawnpueblo.org","719-542-2934","Roselawn Pet Cemetery & Crematory","1706 Roselawn Road","Pueblo","CO",81006,"RD 05/21/09 Per Donna Web site and email are the Same (?)
Sent Invitation & PPL 05/21/09
5/22/09 CM called got email and sent invitation to web site.","","","2009-05-21 21:44:06","2009-05-22 16:44:00","pet","roselawnfuneralhome@comcast.net","Frank Nash",""
166,"Holloman,Brown Funeral Home-Lynnhaven","hollomon-brown","","757-463-0150","3600 Virgina Beach Blvd.","","Virginia Beach","VA",23452,"Open Invioce #45-4/24/07-$474.00","","","2009-05-29 18:08:39","2009-05-29 18:08:39","human","mikenicodemus@cox.net","Mike Nicodemus",""
168,"Pine Rest Pet Cemetery","pinerestpetcemetery","","716-674-9470","Pine Rest Pet Cemetery","757 Seneca Creek Road","West Seneca","NY",14224,"RD 06/01/09 Could not get her last name, as she was in a rush. Sending Link and PPL 06/01","","","2009-06-01 20:00:01","2009-06-01 20:00:01","pet","pinerest@adelphia.net","Josephine",""
169,"Pet Heaven Funeral Home","petheavenfuneralhome","petheavenfuneralhome.com","716-662-5677","Pet Heaven Funeral Home","3614 North Buffalo Road","Orchard Park","NY",14127,"RD 06/01/09 Mona said they would take a look. Sending Link and PPL","","","2009-06-01 20:43:50","2009-06-01 20:43:50","pet","joe@petheavenfuneralhome.com","Mona Wales",""
170,"Final Paws","finalpaws","","970-242-7417","Final Paws","2317 H Road","Grand Junction","CO",81505,"RD 06/03/09 I talked to Teri on 05/29. Her PC was in the shop. Called her 06/03 and she said she still had not gotten her PC back. She asked if we had a brochure that I could mail her. Mailing letter and Pet broch and PPL","","","2009-06-03 18:41:48","2009-06-03 18:41:48","pet","","Teri Branscom",""
171,"Best Friends Pet Cremation Service","bestfriendspetcremationservice","petpassage.com","505-345-5615","Best Friends Pet Cremation Service","924-D Menaul Blvd, NE","Albuquerque","NM",87107,"RD 06/04/09 Talked to Vaughn. Sending Link @ PPL 06/04","","","2009-06-04 21:26:10","2009-06-04 21:29:02","pet","vaughnh@bestfriendspetcremation.com","Vaughn Hendron",""
172,"Pet Rest Cemetery and Cremation Service","petrestcarolina","petrestcarolina.com/","843-797-5735","132 Redbank Rd.","Suite A","Goose Creek","SC",29445,"email/ letter sent 6/5/09 past due invoice 264
sent partner program letter","","","2009-06-05 16:35:00","2009-09-24 21:41:21","pet","petrest09@aol.com","Diane Rozier",""
173,"Bayliff & Son Pet Crematory ","bayliffandsonpetcrematory","www.bayliffandson.com","419-645-6700","Bayliff & Son Pet Crematory","311 West Main Street","Cridersville","OH",45806,"RD 06/09/09 Talked to Valery to get email address. They also are a Human Funeral Home & Crematory. Sending Link and PPL","","","2009-06-09 19:38:15","2009-06-09 19:38:15","pet","bayliff@bright.net","Valery Bayliff",""
176,"Maraman-Billings Funeral Home","maramanbillings-ky","www.maramanbillings.com","502 543-6881","605 S. Preston Hwy","","Shepherdsville","KY",40165,"8-3-09 visit
Purchased one cedar keepsake and one acorn - $190","",50,"2009-08-03 00:41:41","2009-08-25 22:27:20","human","","Dave Billings, Owner",""
184,"Frurip-May Funeral Home","fruripmay-in","","(260) 463-3131","309 W Michigan St","","Lagrange","IN",46761,"Visit 8-6-09
","","","2009-08-06 15:21:27","2013-05-16 17:50:10","human","","",""
187,"Snyder Funeral Home","snyder-oh","","","","","","OH","","Visit 8-12-09","","","2009-08-12 01:05:19","2009-08-12 01:05:19","human","","",""
192,"Johnson's Funeral Home","johnsons-ky","www.johnsonsfuneralhome.com","(502) 863-3550","641 S. Broadway","","Georgetown","KY",40324,"Visit 8-19-09

Purchased 1 full size Ambrozia Maple - 2861200
 2 keepsakes, 1 Curly Maple - 2878060 & 1 Box Elder - 2772050
 2 acorns","",50,"2009-08-19 00:00:10","2009-08-19 19:36:32","human","blackbelt98_99@yahoo.com","Elizabeth Johnson-Jones",""
195,"Kerr Brothers Funeral Home","kerrbrothers","www.kerrbrothersfuneralhome.com","(859) 252-6767","463 East Main","","Lexington","KY",40507,"Visit 8-19-09 [cm]
08/07/13 Added as newest distributor, sent email w-link.  Billy is located at the other facility [ac].

","",50,"2009-08-19 00:11:25","2013-08-22 14:30:38","human","kb@kerrbrothers.com","Billy Shell - Partner / FD",""
196,"Horan & McConaty","horan+mcconaty","horancares.com","303-359-4101","1150 E. Dartmouth Ave.","","Aurora","CO",80014,"Has 6 FH. 09-CANA show","","","2009-08-25 15:31:39","2009-08-25 15:31:39","human","dforbes@horancares.com","Daren Forbes",""
201,"Anderson-McQueen Family Tribute Center","andersonmcqueen","www.andersonmcqueen.com/","727-822-2059","2201-Dr. M.L. King Street North","","St. Petersburg","FL",33704,"","",50,"2009-09-16 20:18:28","2010-04-28 14:08:12","human","bill.mcqueen@andersonmcqueen.com","William McQueen",""
202,"Noah's Pet Cemetery & Pet Crematory, Inc.","noahspetcemetery","www.noahspetcemetery.com","616-949-1390","2727 Orange Ave.","","Grand Rapids","MI",49546,"","",50,"2009-09-26 15:25:29","2009-09-26 15:25:29","pet","noahspc@comcast.net","Robert McGee",""
203,"Pet Cremation Services","petcremationkc","www.petcremationkc.com","816-941-2009","13508 Oak St.","","Kansas City","MO",64145,"Linda Crawford","",50,"2009-09-26 15:45:11","2009-09-26 15:45:11","pet","lcrawford@fcindustries.com","Joe Crawford",""
204,"Bliley's Personalized Funeral & Cremation Services","blileys","www.blileyfuneralhomes.com","804-355-3800","PO.Box 6267 ","","Richmond, VA","PW",23230,"10/02/13: Clark cold called on FH and met Bill Carter.  He recommended that we see James Barnett.  The Distributor Page was already in database with James as the contact; changed State from VA to PW.  Sent thank you email with landing page to Bill Carter for Clark [ac].
10/22/13: Bill Carter & Eric Bliley visited booth at NFDA and were very complimentary on product [ac].","",50,"2009-11-12 16:17:46","2013-10-29 13:03:07","human","jbarnett@blileys.co","James M. Barnett",""
205,"Feeney Funeral Home","feeneyfuneralhome","feeneyfuneralhome.com","201-444-7650","232 Franklin Ave.","","Ridgewood","NJ",07450,"","","","2009-11-12 19:32:43","2009-11-12 19:32:43","human","ginny.sanzo@carriageservices.com","Ginny Sanzo",""
207,"Amicus Pet Funeral Centre Inc.","amicuspetfuneralcentre","www.amicus-pet-cremation.com/","514-353-9999","","","Montreal","CA","","","","","2009-11-27 19:36:52","2010-11-28 21:41:32","pet","info@amicus-pet-cremation.com","Angelica Aiello",""
210,"Ard Funeral Home","ardfh","","404 626-0558","Anywhere Street","","Anytown","GA",30000,"Website set up to show potential customers","","","2010-01-16 22:17:56","2010-01-16 22:17:56","human","pdard2@gmail.com","Dennis Ard",""
211,"My Pampered Pooch","mypamperedpooch","","770-855-9192","","Peachtree City","","GA","","",783,"","2010-01-21 16:07:23","2012-06-26 17:19:55","pet","lori@mypamperedpoochusa.com","Lori Lawrence",""
212,"White Rose Memorial Services","whiterose","whiterosepet.com","802-254-4749","","","","VT","","","","","2010-01-22 20:20:43","2010-01-22 20:20:43","pet","whiteros@sover.net","Steve Hellus",""
213,"Pet Cremation Services","petcremationnevada","www.petcremationnevada.com","775-727-0920","","","","NV","","11/9/11:  We received an email through petcremationnevada, so I called Sheri to inquire about the lead.  Explained who we are and sent a link stating a 20% trade discount.  They are an online only retailer that does not stock anything. [AC]","","","2010-01-22 20:33:47","2013-04-22 20:09:09","pet","sheri@petcremationnevada.com","Sheri Allen",""
214,"Evercare Veterinary Crematory Pa.","evercare","","","","","","PA","","","","","2010-01-22 22:59:48","2010-01-22 22:59:48","pet","jwitthoff@msn.com","Jenny Witthoff",""
215,"Lake Lawn Funeral Home","lakelawn","","504-729-1882","2672 North St","","Atlanta ","GA",30102,"",5642,"","2010-01-25 13:47:32","2010-01-25 13:52:29","human","llandry@steil","Larry Landry",""
216,"Parrott Funeral Home","parrottfuneralhome","www.parrottfuneralhome.com","770-964-4800","8355 Senoia Road Hwy.74","","Fairburn","GA",30213,"Also has a pet crematorium called ""Loyal Companion""
770-969-0866","",50,"2010-01-28 12:52:51","2010-10-06 14:04:10","human","info@parrottfuneralhome.com","Tim Parrott",""
217,"Busch Pet Products +Care","buschpet","","573-335-4076","","","","MO","","","","","2010-02-02 00:47:24","2010-02-02 00:47:24","pet","","Stacy",""
218,"Pet Memorial Stone Ontario","rockyourworld","","","","","Ontario","CA","","","","","2010-02-02 00:59:36","2010-02-02 00:59:36","pet","","Andy Nobbin",""
219,"Best Friends-Jackson MS.","bestfriends","","601-922-5554","100 Shubuta Street","","Jackson","MS","","","","","2010-03-02 14:15:30","2010-03-02 14:16:26","pet","gibson@bestfrnds.com","Gibson",""
220," Lemasters Consulting","lemasters","","","","","","OH","","","","","2010-03-02 15:11:58","2010-03-02 15:11:58","human","","",""
221,"Forever Friends Pet","foreverfriendspets","","920-884-6060","","","","WI","","","","","2010-03-02 16:22:14","2010-03-02 16:22:14","pet","dave@foreverfriendspets.com","",""
222,"Forever Pals ","foreverpalstx","","281-731-6956","747 FM 1489","","Brookshire","TX",77423,"","","","2010-03-02 17:15:12","2010-03-02 17:17:50","pet","abuyer.consolidated.net","Jeff",""
223,"Jacksonville Pet Cemetery & Cremator","jacksonepet","","904-724-5556","","","","FL",32216,"","","","2010-03-02 18:57:42","2010-03-02 18:57:42","pet","","James Hughey",""
226,"Western Farm Pet Crematory &Cemetery","westernfarm","","","12521 Island Rd.","","Grafton","OH",44044,"","","","2010-03-02 20:24:52","2010-03-02 20:24:52","pet","wfpc@westernfarmpc.com","Brian West",""
227,"Paw Prints Pet Services","pawprints","www.pawprintspetcremation.com","434-822-7722","525 Chaeys Store Rd.","","Ringgold ","VA",24586,"","","","2010-03-04 15:43:48","2010-03-04 15:43:48","pet","pawprintspetcremation@yohoo.com","Sherri",""
229,"Angels on Earth Pet Memorial Chapel","angelsonearth","","216-210-5096","726 Riverside Dr.","","Painesville","OH",44077,"Tina & Sutty","","","2010-03-18 21:22:33","2010-03-18 21:22:33","pet","potunia@aol.com","Sutton J. Girod",""
230,"Johnson County Funeral Chapel","johnsoncounty","","913-451-1860","11200 Metcalf Ave.","","Overland Park","KS",66210,"",16311,50,"2010-03-26 12:55:24","2011-05-23 12:57:51","human","mketcham@stei.com","Mandi Meyers - Manager",16311
232,"El Camino Memorial Park","elcaminomemorialp","","800-352-2646","5600 Carrol Canyon","","San Diego ","CA",921221,"","",50,"2010-03-31 16:55:19","2011-11-01 02:30:44","human","","Megan Crouch",05011
233,"Kuehl-Nicolay Funerals & Cremations","kuehl-nicolayfunerals","KuehlNicolayfuneralHome.com","805-238-4383","1703 Spring Street","","Paso Robles","CA",93446,"Stewart Services
Kristin Ball","",50,"2010-04-01 14:25:59","2011-04-04 22:41:31","human","","",05336
234,"Evergreen Cremation Service","evergreencremation","","559-233-3003","920 south Parallel Avenue","","Fresno","CA",93721,"Stewart Services","",50,"2010-04-01 14:28:29","2010-04-01 14:28:29","human","","",05337
235,"Dilday Brothers Funeral Directors","dildaybrothersfuneral","DildayBrothers.com","714-842-7771","17911 Beach Boulevard","","Huntington Beach","CA",92647,"Stewart Services","",50,"2010-04-01 14:38:53","2010-04-01 14:38:53","human","","",05361
236,"Lassila Funeral Chapel","lassilafuneral","LassilaFuneralChapels.com","530-885-6271","551 Grass Valley Highway","","Auburn","CA",95603,"Stewart Services","",50,"2010-04-01 14:41:29","2010-04-01 14:41:29","human","","",05391
237,"Lassila-Lincoln Funeral Chapel","lassilalincolnfuneral","LassilaFuneralChapels.com","916-645-2347","406 H Street","","Lincoln","CA",95648,"Stewart Services","",50,"2010-04-01 14:43:41","2010-04-01 14:43:41","human","","",05392
238,"Davis Memorial Chapel","davismemorial","DavisMemorialchapel.com","831-724-4751","609 Main Street","","Watsonville","CA",95076,"Stewart Services","",50,"2010-04-01 14:45:00","2010-04-01 14:45:00","human","","",05411
239,"Halley-Olsen-Murphy Funerals & Cremations - Lancaster","homlancaster","HOMLancaster.com","661-942-1139","44802 Date Avenue","","Lancaster","CA",93534,"Stewart Services","",50,"2010-04-01 14:47:53","2010-04-01 14:47:53","human","","",05461
240,"Halley-Olsen-Murphy Funerals & Cremations - Palmdale","hompalmdale","HOMPalmdale.com","661-947-4155","6150 East Palmdale Boulevard","","Palmdale","CA",93550,"Stewart Services","",50,"2010-04-01 14:49:52","2010-04-01 14:49:52","human","","",05462
241,"Stickel Mortuary","stickelmortuary","SimoleTribute.com","661-824-2328","2201 Inyo Street","","Mojave","CA",93501,"Stewart Services","",50,"2010-04-01 14:52:02","2010-04-01 14:52:02","human","","",05463
242,"El Camino Memorial - Sorrento Valley","elcaminosorrento","SorrentoValleyChapel.com","800-352-2646","5600 Carroll Canyon Road","","San Diego","CA",92121,"Stewart Services","",50,"2010-04-01 14:53:45","2010-04-01 14:53:45","human","","",05481
243,"El Camino Memorial - National City","elcaminonational","NationalCityChapel.com","619-474-6565","607 National City Boulevard","","National City","CA",91950,"Stewart Services","",50,"2010-04-01 14:55:20","2010-04-01 14:55:20","human","","",05483
244,"El Camino Memorial - Imperial Avenue","elcaminoimperial","ImperialAvernueChapel.com","619-264-3168","3953 Imperial Avenue at 40th Street","","San Diego","CA",92113,"Stewart Services","",50,"2010-04-01 14:56:37","2010-04-01 14:56:37","human","","",05484
245,"El Camino Memorial - Encinitas","elcaminoencinitas","EncinitasChapel.com","760-753-1143","340 Melrose Avenue","","Encinitas","CA",92024,"Stewart Services","",50,"2010-04-01 14:58:05","2010-04-01 14:58:05","human","","",05485
246,"El Camino Memorial - La Mesa","elcaminolamesa","LaMesaChapel.com","619-466-3297","8390 Allison Avenue","","La Mesa","CA",91941,"Stewart Services","",50,"2010-04-01 14:59:30","2011-11-01 01:44:51","human","","",05486
247,"El Camino Memorial - Pacific Beach","elcaminopacific","PacificBeachChapel.com","858-488-5553","4710 Cass Street","","San Diego","CA",92109,"Stewart Services","",50,"2010-04-01 15:01:06","2010-04-01 15:01:06","human","","",05487
250,"Neptune Society of Northern California - Livermore","neptunelivermore","Neptune-Society.com","925-454-1974","2177 Las Positas Court","Suite k","Livermore","CA",94551,"Stewart Services","",50,"2010-04-01 15:03:54","2010-04-01 15:03:54","human","","",05511
251,"Neptune Society of Northern California - Belmont","neptunebelmont","Neptune-Society.com","650-592-9880","1645 El Camino Real","","Belmont","CA",94002,"Stewart Services","",50,"2010-04-01 15:05:18","2010-04-01 15:05:18","human","","",05513
252,"Neptune Society of Northern California - Castro Valley","neptunecastro","Neptune-Society.com","510-889-7110","2419 Grove Way","","Castro Valley","CA",94546,"Stewart Services","",50,"2010-04-01 15:07:08","2010-04-01 15:07:08","human","","",05514
253,"Neptune Society of Northern California - Chico","neptunechico","neptune-Society.com","530-345-7200","1353 East 8th Street","","Chico","CA",95928,"Stewart Services","",50,"2010-04-01 15:08:26","2010-04-01 15:08:26","human","","",05515
254,"Neptune Society of Northern California - Marin County","neptunemarin","Neptune-Society.com","415-898-1868","1780 Grant Avenue","","Novato","CA",94945,"Stewart Servies","",50,"2010-04-01 15:10:15","2012-06-04 17:20:25","human","","",05516
255,"Neptune Society of Northern California - Oakland","neptuneoakland","Neptune-Society.com","510-451-0887","490 Grand Avenue","Suite 215","Oakland","CA",94610,"Stewart Services","",50,"2010-04-01 15:12:09","2010-04-01 15:12:09","human","","",05517
256,"Neptune Society of Northern California - Sacramento","neptunesacramento","Neptune-Society.com","916-338-1111","5213 Garfield Avenue","","Sacramento","CA",95841,"Stewart Services","",50,"2010-04-01 15:13:38","2010-04-01 15:13:38","human","","",05518
257,"Neptune Society of Northern California - San Francisco","neptunesanfran","Neptune-Society.com","415-771-0717","One Loraine Court","","San Francisco","CA",94118,"Stewart Services","",50,"2010-04-01 15:15:01","2010-04-01 15:15:01","human","","",05519
258,"Neptune Society of Northern California - Santo Rosa","neptunesantarosa","Neptune-Society.com","707-525-9700","2607 Santa Rosa Avenue","","Santa Rosa","CA",95407,"Stewart Services","",50,"2010-04-01 15:50:11","2010-04-01 15:50:11","human","","",05221
259,"Neptune Society of Northern California - Stockton","neptunestockton","Neptune-Society.com","209-955-4090","1111 West Robinhood Dr.","Suite B-1","Stockton","CA",95207,"Stewart Services
","",50,"2010-04-01 15:58:00","2010-04-01 15:58:36","human","","",05522
260,"Neptune Society of Northern California - Walnut Creek","neptunewalnutcreek","Neptune-Society.com","925-944-5100","1855 Olympic Boulevard","Suite 110","Walnut Creek","CA",94596,"Stewart Services","",50,"2010-04-01 16:00:49","2010-04-01 16:00:49","human","","",05523
261,"Neptune Society of Northern California - Fairfield","neptunefairfield","Neptune-Society.com","707-422-4900","1261 Travis Boulevard","#160","Fairfield","CA",94533,"Stewart Services","",50,"2010-04-01 16:02:07","2010-04-01 16:02:44","human","","",05531
262,"Chapel of the Roses Funerals & Cremations","chapelofroses","ChapeloftheRosesAtascadero.com","805-466-1161","3450 El Camino Real","","Atascadero","CA",93422,"Stewart Services","",50,"2010-04-01 16:07:06","2010-04-01 16:07:06","human","","",05551
263,"Callanan Mortuary","callananmortuary","","800-901-0090","1301 North Western Avenue","","Los Angeles","CA",90027,"Stewart Services","",50,"2010-04-01 16:08:25","2010-04-01 16:08:25","human","","",05561
264,"Stricklin Snively Funerals & Cremations","stricklinsnively","StricklinSnivelyMortuary.com","562-426-3365","1952 Long Beach Boulevard","","Long Beach","CA",90806,"Stewart Services","",50,"2010-04-01 16:09:54","2010-04-01 16:09:54","human","","",05576
265,"Los Osos Valley Funerals & Cremations","losososvalley","LosOsosValleyMortuary.com","805-528-1500","2260 Los Osos Valley Road","","Los Osos","CA",93402,"Stewart Services","",50,"2010-04-01 16:11:44","2010-04-01 16:11:44","human","","",05596
266,"Myrtle Hill Memorial Park","myrtlehill","GardenofMemoriesTampa.com","813-626-3161","4202 East Lake Avenue","","Tampa","FL",33610,"Stewart Services","",50,"2010-04-01 16:13:14","2010-04-01 16:13:14","human","","",09052
267,"Blount & Curry Funeral Home - Oldsmar/West Hillsborough Chapel","blount&currywest","BlountCurryWest.com","813-814-4444","6802 Silvermill Drive","","Tampa","FL",33635,"Stewart Services","",50,"2010-04-01 16:15:09","2010-04-01 16:17:15","human","","",09313
268,"Blount & Curry Funeral Home - Terrace Oaks Chapel","bount&curryterrace","BlountCurryTerraceOaks.com","813-988-9200","12690 North 56th Street","","Tampa","FL",33617,"Stewart Services","",50,"2010-04-01 16:16:37","2010-04-01 16:16:37","human","","",09314
269,"All Faiths Cremation Society","allfaiths","","352-753-2612","2 La Grande Boulevard","","The Villages","FL",32159,"Stewart Services","",50,"2010-04-01 16:18:33","2010-04-01 16:18:33","human","","",09331
270,"All Faiths Funeral Alternatives & Cremation Service","allfaithsfuneral","","407-898-1698","4901 South Orange Avenue","","Orlando","FL",32806,"Stewart Services","",50,"2010-04-01 16:19:51","2010-04-01 16:19:51","human","","",09332
271,"Baldwin-Fairchild Funeral Home - Goldenrod Chapel","baldwin-fairchildgoldenrod","BaldwinFairchild.com","407-677-5091","7520 Aloma Avenue","","Winter Park","FL",32792,"Stewart Services","",50,"2010-04-01 16:22:50","2010-04-01 16:22:50","human","","",09333
272,"Baldwin-Fairchild Funeral Home - East Altamonte Chapel","baldwin-fairchildaltamonte","BaldwinFairchild.com","407-831-2031","994 East Altamonte Drive","","Altamonte Springs","FL",32701,"Stewart Services","",50,"2010-04-01 16:25:47","2010-04-01 16:25:47","human","","",09334
273,"Baldwin-Fairchild Funeral Home - Apopka Chapel","baldwin-fairchildapopka","BaldwinFairchild.com","407-886-1461","601 North Park Avenue","","Apopka","FL",32712,"Stewart Services","",50,"2010-04-01 16:27:14","2010-04-01 16:27:14","human","","",09335
274,"Baldwin-Fairchild Funeral Home - Ivanhoe Chapel","baldwin-fairchildivanhoe","BaldwinFairchild.com","407-898-8111","301 Northeast Ivanhoe Boulevard","","Orlando","FL",32804,"Stewart Services","",50,"2010-04-01 16:29:02","2010-04-01 16:29:02","human","","",09336
275,"Baldwin-Fairchild Funeral Home - Winter Garden Chapel","baldwin-fairchildwinter","BaldwinFairchild.com","407-656-2233","428 East Plant Street","","Winter Garden","FL",34787,"Stewart Services","",50,"2010-04-01 16:30:31","2010-04-01 16:30:31","human","","",09337
276,"Baldwin-Fairchild Funeral Home - Oakland Chapel","baldwin-fairchildoaklawn","BaldwinFairchild.com","407-322-4263","5000 County Road","46A","Sanford","FL",32771,"Stewart Services","",50,"2010-04-01 16:31:56","2010-04-01 16:32:33","human","","",09338
277,"Baldwin-Fairchild Funeral Home - Oviedo Chapel","baldwin-fairchildoviedo","BaldwinFairchild.com","407-366-8999","501 East Mitchell Hammock Road","","Oviedo","FL",32765,"Stewart Services","",50,"2010-04-01 16:34:09","2010-04-01 16:34:09","human","","",09339
278,"Baldwin-Fairchild Funeral Home - Conway Chapel","baldwin-fairchildconway","BaldwinFairchild.com","407-277-6700","1413 South Semoran Boulevard","","Orlando","FL",32807,"Stewart Services","",50,"2010-04-01 16:35:58","2010-04-01 16:35:58","human","BaldwinFairchild.com","",09341
279,"Baldwin-Fairchild Funeral Home - Pine Castle Chapel","baldwin-fairchildpine","BaldwinFairchild.com","407-855-5800","5800 Hansel Avenue","","Orlando","FL",32809,"Stewart Services","",50,"2010-04-01 16:37:25","2010-04-01 16:37:25","human","","",09342
280,"Blount & Curry Funeral Home - MacDill Avenue Chapel","blountcurrymacdill","blountCurryMacDill.com","813-876-2421","605 South MacDill Avenue","","Tampa","FL",33609,"Stewart Services","",50,"2010-04-01 16:39:00","2010-04-01 16:39:00","human","","",09361
281,"Blount & Curry Funeral Home - Carrollwood Chapel","blountcurrycarrollwood","BlountCurryCarrollwood.com","813-968-2231","3207 West Bearss Avenue","","Tampa","FL",33618,"Stewart Services","",50,"2010-04-01 16:40:29","2010-04-01 16:40:29","human","","",09375
282,"Wiegand Brothers Funeral Home and Crematory","wiegandbrothers","WiegandBrothers.com","941-921-5755","7454 South Tamiami Trail","","Sarasota","FL",34231,"Stewart Services","",50,"2010-04-01 16:42:07","2010-04-01 16:42:07","human","","",09376
283,"Kicliter Funeral Home","kicliterfuneral","KicliterFuneralHome.com","941-722-0204","517 8th Avenue West","","Palmetto","FL",34221,"Stewart Services","",50,"2010-04-01 17:44:27","2010-04-01 17:44:27","human","","",09391
284,"Forest Hills Palm City Chapel","foresthills","ForestHillsPalmCityFlorida.com","772-287-8484","2001 Southwest Murphy Road","","Palm City","FL",34990,"Stewart Services","",50,"2010-04-01 17:46:26","2010-04-01 17:46:26","human","","",09401
285,"Beach Memorial Chapel","beachmemorial","BeachMemorial.com","727-360-5577","301 Corey Avenue","","St. Pete Beach","FL",33706,"Stewart Services","",50,"2010-04-01 17:47:33","2010-04-01 17:47:33","human","","",09411
286,"Memorial Park Funeral Home","memorialpark","MemorialParkFuneralHome.com","727-527-1196","5750 49th Street North","","St. Petersburg","FL",33709,"Stewart Services","",50,"2010-04-01 17:49:05","2010-04-01 17:49:05","human","","",09413
287,"Roberts Funeral Home, Downtown Chapel","robertsfuneral","RobertsFuneralHomes.com","352-622-4141","606 Southwest 2nd Avenue","","Ocala","FL",34471,"Stewart Services","",50,"2010-04-01 17:50:26","2010-04-01 17:50:26","human","","",09421
288,"Balwin-Fairchild Funeral Home - West Altamonte Chapel","baldwin-fairchildwaltamonte","BaldwinFairchild.com","407-869-6065","622 West Highway 436","","Altamonte Springs","FL",32714,"Stewart Services","",50,"2010-04-01 17:51:56","2010-04-01 17:51:56","human","","",09441
289,"Sylvan Abbey Funeral Home","sylvanabbey","SylvanAbbey.com","727-796-1992","2853 Sunset Point Road","","Clearwater","FL",33759,"Stewart Services","",50,"2010-04-01 17:53:15","2010-04-01 17:53:15","human","","",09461
290,"Caballero Rivero Woodlawn Funeral Home - Kendall Chapel","caballeroriverowoodlawn","CaballeroRiveroWoodlawn.com","305-238-3672","11655 Southwest 117th Avenue","","Miami","FL",33186,"Stewart Services","",50,"2010-04-01 17:54:47","2012-02-18 20:49:18","human","","",09493
291,"Caballero Rivero Woodlawn Funeral Home - Miami Chapel","caballeromiami","CaballeroRiveroWoodlawn.com","305-445-9508","3344 Southwest 8th Street","","Miami","FL",33135,"Stewart Services
05/15/13 Put a display in the Woodlawn Cemetery Columbaria [ac].","",50,"2010-04-01 17:56:06","2013-05-15 18:57:04","human","","Larry Zimmerman - FDIC",09494
292,"Forest Hills Young & Prill Chapel","foresthillsyoung","YoungandPrill.com","772-223-9300","6801 Southeast Federal Highway","","Stuart","FL",34997,"Stewart Services","",50,"2010-04-01 17:58:02","2010-04-01 17:58:02","human","","",09497
293,"Forest Hills Byrd, Young & Prill Chapel","foresthillsbyrd","ByrdYoungandPrill.com","772-879-9300","1170 Southwest Bayshore Boulevard","","Port St. Lucie","FL",34983,"Stewart Services","",50,"2010-04-01 17:59:28","2010-04-01 17:59:28","human","","",09498
295,"Lakeview Funeral Home","lakeviewfuneral","MylakeviewfuneralHome.com","316-684-8200","12100 East 13th Street North","","Wichita","KS",67206,"Stewart Services","",50,"2010-04-01 18:03:32","2011-05-23 12:59:48","human","smyers@stei.com","Sean Myers - Manager",16312
296,"Overland Park Chapel","overlandparkchapel","OverlandParkChapel.com","913-648-6224, 913-544-0400","8201 Metcalf Avenue","","Overland Park","KS",66204,"Stewart Services","",50,"2010-04-01 18:04:55","2011-05-23 13:08:27","human","jswezy@stei.com","Jeff Swezy - Manager",16313
297,"Lake Lawn Metairie Funeral Home","lakelawn","LakeLawnMetairie.com","504-486-6331","5100 Pontchartrain Boulevard","","New Orleans","LA",70124,"Stewart Services","",50,"2010-04-01 18:07:05","2010-04-01 18:07:05","human","","",18321
299,"Hines-Rinaldi Funeral Home","hinesrinaldi","HinesRinaldiFuneralHome.com","301-622-2290","11800 New Hampshire Avenue","","Silver Spring","MD",20904,"Stewart Services","",50,"2010-04-01 18:09:54","2010-04-01 18:09:54","human","","",20331
300,"Simple Tribute Funeral & Cremation Center","simpletribute","SimpleTribute.com","301-545-0960","Edmonston Crossing Shopping Center","","Rockville","MD",20852,"Stewart Services","",50,"2010-04-01 18:11:59","2010-04-01 18:11:59","human","","",20361
301,"White Chapel Funeral Home","whitechapel","DWNWhitechapel.com","816-452-8419","6600 Northeast Antioch Road","","Gladstone","MO",64119,"Stewart Services","",50,"2010-04-01 18:13:15","2011-05-23 13:29:27","human","ckurowski@stei.com","Courtney Kurowski",25315
302,"Floral Hills Funeral Home","floralhills","FloralHillsFuneralhome.com","816-353-1218","7000 Blue Ridge Boulevard","","Kansas City","MO",64133,"Stewart Services","",50,"2010-04-01 18:14:48","2011-05-23 12:56:03","human","kkinsinger@stei.com","Kirk Kinsinger - Manager",25313
303,"McLaurin at Pinecrest Funerals & Cremations","mclaurinpinecrest","McLaurinatPinecrest.com","919-553-7143","12830 U.S. Highway 70 West","","Clayton","NC",27520,"Stewart Services","",50,"2010-04-01 18:17:04","2010-04-01 18:17:04","human","","",33331
304,"Cardinal Cremation Service","cardinalcremation","www.cardinalcremationservice.com","877-556-0001","12830 U.S. Highway 70 West","","Clayton","NC",27520,"Stewart Services","",50,"2010-04-01 18:18:30","2012-10-11 01:29:19","human","","",33332
305,"Westlawn-Hillcrest Funeral Home","westlawnhillcrest","WestlawnHillcrest.com","402-556-2500","5701 Center Street","","Omaha","NE",68106,"Stewart Services","",50,"2010-04-01 18:19:36","2011-05-23 13:28:04","human","jfishler@stei.com","Joe Fishler",27321
306,"Finley-Sunset Hills Mortuary","finleysunsethills","FinleySunsetHills.com","503-292-6654","6801 Southwest Sunset Highway","","Portland","OR",97225,"Stewart Services","",50,"2010-04-01 18:21:02","2010-04-01 18:21:02","human","","",37331
307,"Chapel of the Valley - L.B. Hall Funeral Home","chapelvalley","Chapel-Valley.com","541-479-7581","2065 Upper River Road","","Grants Pass","OR",97526,"Stewart Services","",50,"2010-04-01 18:22:46","2010-04-01 18:22:46","human","","",37321
308,"Dunbar Funerals & Cremations","dunbarfunerals","DunbarFunerals.com","803-771-7990","3926 Devine Street","","Columbia","SC",29205,"Stewart Services","",50,"2010-04-01 18:23:59","2010-04-01 18:23:59","human","","",40322
310,"Palmetto Cremation Service","palmettocremation","","864-878-6661","2402 Gentry Memorial Highway","","Pickens","SC",29671,"Stewart Services","",50,"2010-04-01 18:27:00","2010-04-01 18:27:00","human","","",40336
311,"Guardian Cremation Society","guardiancremation","","","5704 James Avenue","","Fort Worth","TX",76134,"Stewart Services","",50,"2010-04-01 18:28:12","2010-04-01 18:28:12","human","","",43331
312,"Bluebonnet Hills Funeral Home","bluebonnethills","BluebonnetHills.com","817-498-5894","5725 Colleyville Boulevard","","Colleyville","TX",76034,"Stewart Services","",50,"2010-04-01 18:29:24","2010-04-01 18:29:24","human","","",43342
313,"Laurel Land Funeral Home","laurellandfortworth","LaurelLandFortWorth.com","817-293-1350","7100 Crowley Road","","Fort Worth","TX",76134,"Stewart Services","",50,"2010-04-01 18:31:11","2010-04-01 18:31:11","human","","",43343
314,"Laurel Land Funeral Home","laurellanddallas","LaurelLandDallas.com","214-371-1336","6000 South R. L. Thornton Freeway","","Dallas","TX",75232,"Stewart Services","",50,"2010-04-01 18:32:49","2010-04-01 18:32:49","human","","",43344
315,"Metrocrest Funeral Home","metrocrest","MetrocrestHilltop.com","972-242-3646","1810 North Perry Road","","Carrollton","TX",75006,"Stewart Services","",50,"2010-04-01 18:34:08","2010-04-01 18:34:08","human","","",43354
316,"Guardian Funeral Home & Cremation Services","guardianfuneral","GuardianCremation.com","817-293-8477","5704 James Avenue","","Fort Worth","TX",76134,"Stewart Services","",50,"2010-04-01 18:35:19","2010-04-01 18:35:19","human","","",43357
317,"Laurel Land Funeral Home","laurelland","LaurelLandFortWorth.com","817-295-5211","201 West Bufford Street","","Burleson","TX",76028,"Stewart Services","",50,"2010-04-01 18:36:33","2010-04-01 18:36:33","human","","",43364
318,"Restland Coppell Chapel","restlandcoppell","RestlandCoppell.com","972-539-1210","400 South Freeport Parkway","","Coppell","TX",75019,"Stewart Services","",50,"2010-04-01 18:37:54","2010-04-01 18:37:54","human","","",43382
319,"Restland Funeral Home","restlandfuneral","RestlandFuneralHome.com","972-238-7111","9220 Restland Road","","Dallas","TX",75243,"Stewart Services","",50,"2010-04-01 18:39:01","2010-04-01 18:39:01","human","","",43801
320,"Everly-Wheatley Funeral Home","everlywheatley","EverlyFuneralHomes.com","703-998-9200 ","1500 West Braddock Road","","Alexandria","VA",22302,"Stewart Services","",50,"2010-04-01 18:40:10","2010-08-31 14:11:05","human","dmarnell@stei.com","Dean Marnell",46311
321,"Everly Funeral Home","everlyfuneral","EverlyFuneralHomes.com","703-385-1110","10565 Main Street","","Fairfax","VA",22030,"Stewart Services","",50,"2010-04-01 18:41:17","2010-08-31 11:54:25","human","nfingado@stei.com","Neva Fingado",46312
322,"Teague Funeral Service","teaguefuneral","TeagueFuneralHome.com","434-977-0005","2260 Ivy Road","","Charlottesville","VA",22903,"Stewart Services","",50,"2010-04-01 18:42:21","2010-04-01 18:42:21","human","","",46322
323,"Kilgore-Green Funeral Home","kilgoregreen","kilgoregreenfuneralhome.com","205-384-9503","1200 Birmingham Avenue","","Jasper","AL",35501,"Stewart Services","",50,"2010-04-06 18:31:50","2010-04-06 18:31:50","human","","",01311
324,"Lathan Funeral Home","lathanjackson","lathanfuneralhomes.com","251-246-2363","Highway 43 BYP","","Jackson","AL",36545,"Stewart Services","",50,"2010-04-06 18:33:33","2010-04-06 18:33:33","human","","",01321
327,"Pine Crest Funeral Home","pinecrest","pinecrestfuneralhome.com","251-478-5227","1939 Dauphin Island Parkway","","Mobile","AL",36605,"Stewart Services","",50,"2010-04-06 18:38:46","2010-11-11 14:53:28","human","","Richard L Osborn (GM)",01331
328,"Rockco Funeral Home","rockomontevallo","rockofuneralhomes.com","205-665-2135","3715 Highway 25 South","","Montevallo","AL",35115,"Stewart Services","",50,"2010-04-06 18:40:20","2010-04-06 18:40:20","human","","",01334
330,"Valhalla Funeral Home","valhalla","valhallafunerals.com","256-852-8500","700 Winchester Road, NE","","Huntsville","AL",35811,"Stewart Services","",50,"2010-04-06 18:43:32","2010-04-06 18:43:32","human","","",01351
332,"Gross Funeral Home","grossfuneral","grossfuneralhome.com","501-624-1244","120 Wrights Street","","Hot Springs","AR",71913,"Stewart Services","",50,"2010-04-06 18:45:06","2010-04-06 18:45:06","human","","",04311
333,"Griffin Leggett - Forest Hills Funeral Home","griffinleggettalexander","www.griffinleggettforesthills.com","501-455-1067","10200 Highway 5 North","","Alexander","AR",72002,"Stewart Services","",50,"2010-04-06 18:46:50","2012-05-08 13:31:16","human","","",04321
334,"Griffin Leggett - Rest Hills Funeral Home","griffinlittlerock","www.griffinleggettresthills.com","501-835-3515","7724 Landers Road","","North Little Rock","AR",72117,"Stewart Services","",50,"2010-04-06 18:49:21","2012-05-08 13:31:47","human","","",04331
335,"Griffin Leggett Healey & Roth Funeral Home","griffinleggettroth","griffinleggetthealeyroth.com","501-661-9111","5800 West 12th Street","","Little Rock","AR",72204,"Stewart Services","",50,"2010-04-06 18:52:37","2010-04-06 18:52:37","human","","",04351
336,"Griffin Leggett - Conway Funeral Home","griffinconway","griffinleggettconway.com","501-327-5000","1751 Dave Ward Drive","","Conway","AR",72034,"Stewart Services","",50,"2010-04-06 18:53:55","2012-05-16 16:21:22","human","","",04352
337,"Holy Cross Mortuary","holycrossculver","holycrossmortuary.com","310-836-5500","5835 West Slauson Avenue","","Culver City","CA",90230,"Stewart Services","",50,"2010-04-06 18:55:15","2010-04-06 18:55:15","human","","",05371
338,"Calvary Mortuary","calvarymortuary","calvarymortuary.com","323261-3106","4201 Whittier Boulevard","","Los Angeles","CA",90023,"Stewart Services","",50,"2010-04-06 18:57:55","2010-04-06 18:57:55","human","","",05341
339,"Queen of Heaven Mortuary","queenofheaven","queenofheavenmortuary.com","626-964-1291","2161 South Fullerton Road","","Rowland Heights","CA",91748,"Stewart Services","",50,"2010-04-06 18:59:08","2010-04-06 18:59:08","human","","",05421
340,"Palm Memorial Chapel","palmmemorial","palmmemorial.com","559-233-7267","2983 Tulare Street","","Fresno","CA",93721,"Stewart Services","",50,"2010-04-06 19:00:32","2010-04-06 19:00:32","human","","",05331
341,"Funerals La Paz","lapaz","funerarialapazfresno.com","559-237-7700","1022 B Street","","Fresno","CA",93706,"Stewart Services","",50,"2010-04-06 19:02:21","2010-04-06 19:02:21","human","","",05332
342,"All Souls Mortuary","allsouls","allsoulsmortuary.com","562-424-8601","4400 Cherry Avenue","","Long Beach","CA",90807,"Stewart Services","",50,"2010-04-06 19:03:28","2010-04-06 19:03:28","human","","",05311
343,"Mission Hills Catholic Mortuary","missionhills","missionhillsmortuary.com","818-361-7387","11160 Stranwood Avenue","","Mission Hills","CA",91345,"Stewart Services","",50,"2010-04-06 19:04:31","2010-04-06 19:04:31","human","","",05491
344,"Palm Memorial Worden Chapel","palmchowchilla","palmmemorial.com","559-665-3012","140 South 6th Street","","Chowchilla","CA",93610,"Stewart Services","",50,"2010-04-06 19:06:02","2010-04-06 19:06:02","human","","",05333
345,"Palm Memorial Kerman Chapel","palmkerman","palmmemorial.com","559-846-9369","538 South Madera Avenue","","Kerman","CA",93630,"Stewart Services","",50,"2010-04-06 19:07:05","2010-04-06 19:07:05","human","","",05334
346,"Palm Memorial Coalinga Chapel","palmcoalinga","palmmemorial.com","559-935-3338","486 North 5th Street","","Coalinga","CA",93210,"Stewart Services","",50,"2010-04-06 19:08:33","2010-04-06 19:08:33","human","","",05335
347,"Santa Clara Mortuary","santaclara","santaclaramortuary.com","805-485-5757","2370 North H Street","","Oxnard","CA",93036,"Stewart Services","",50,"2010-04-06 19:10:26","2010-04-06 19:10:26","human","","",05501
348,"Mead Mortuary Funerals & Cremations","meadmortuary","meadmortuary.como","760-256-5671","36930 Irwin Road","","Barstow","CA",92311,"Stewart Services","",50,"2010-04-06 19:11:30","2010-04-06 19:11:30","human","","",05321
349,"DeYoung Memorial Chapel (Downtown)","deyoungdowntown","deyoungchapels.com","209-466-8075","601 North California Street","","Stockton","CA",95202,"Stewart Services","",50,"2010-04-06 19:12:58","2012-05-16 16:34:34","human","","",05351
350,"DeYoung Memorial Chapel (North)","deyoungnorth","deyoungchapels.com","209-472-0335","7676 Shoreline Drive","","Stockton","CA",95219,"Stewart Services","",50,"2010-04-06 19:14:02","2012-05-16 16:23:39","human","","",05352
351,"Lombard & Company Funeral Directors","lombardco","lombardcofuneraldirectors.com","916-483-3297","1550 Fulton Avenue","","Sacramento","CA",95825,"Stewart Services","",50,"2010-04-06 19:15:47","2010-04-06 19:15:47","human","","",05402
352,"Palm Memorial Sierra Chapel","palmoakhurst","palmmemorial.com","559-683-4370","49269 Road 426","","Oakhurst","CA",93644,"Stewart Services","",50,"2010-04-06 19:16:55","2010-04-06 19:16:55","human","","",05471
353,"Callanan & Woods-Scovern Funerals & Crematins","callananwoodsscovern","callananwoodsscovern.com","818-242-0258","511 South Central Avenue","","Glendale","CA",91204,"Stewart Services","",50,"2010-04-06 19:18:19","2010-04-06 19:18:19","human","","",05451
354,"Turner Funeral Home","turnerbrooksville","turnerfuneralandcremation.com","352-796-3588","504 East Jefferson Street","","Brooksville","FL",34601,"Stewart Services","",50,"2010-04-06 19:19:38","2010-04-06 19:19:38","human","","",09471
355,"Turner Funeral Home","turnerspringhill","turnerfuneralandcremation.com","352-796-9661","14360 Spring Hill Drive","","Spring Hill","FL",34609,"Stewart Services","",50,"2010-04-06 19:20:33","2010-04-06 19:20:58","human","","",09472
356,"Roberts Funeral Home, Bruce Chapel East","robertseast","robertsfuneralhomes.com","352-732-9944","2739 Southeast Maricamp Road","","Ocala","FL",34471,"Stewart Services","",50,"2010-04-06 19:22:42","2011-11-01 02:57:10","human","","",09351
357,"Roberts Funeral Home, Bruce Chapel West","robertswest","robertsfuneralhomes.com","352-854-2266","6241 Southwest State Road 200","","Ocala","FL",34476,"Stewart Services","",50,"2010-04-06 19:24:49","2010-04-06 19:24:49","human","","",09352
358,"Caballero Rivero Woodlawn Funeral Home-Hialeah Chapel","caballerohialeah","caballeroriverowoodlawn.com","305-888-6792","373-377 West 9th Street","","Hialeah","FL",33010,"Stewart Services","",50,"2010-04-06 19:26:35","2010-04-06 19:26:35","human","","",09495
359,"Caballero Ricero Woodlawn Funeral Home-Westchester Chapel","caballeromiami","caballeroriverowoodlawn.com","305-227-3344","8200 Southeast 40th Street","","Miami","FL",33155,"Stewart Services","",50,"2010-04-06 19:28:14","2010-04-06 19:28:14","human","","",09496
360,"Royal Palm Funeral Home","royalpalm","royalpalmfuneralhome.com","561-848-8659","5601 Greenwood Avenue","","West Palm Beach","FL",33407,"Stewart Services","",50,"2010-04-06 19:29:22","2010-04-06 19:29:22","human","","",09431
361,"Palms Woodlawn Funeral Home","palmswoodlawn","caballeroriverowoodlawn.com","305-247-4218","27100 Old Dixie Highway","","Naranja","FL",33032,"Stewart Services","",50,"2010-04-06 19:30:43","2010-04-06 19:30:43","human","","",09451
362,"Garden of Memories Funeral Home","gardenofmemories","gardenofmemoriestamps.com","813-626-3161","4207 East Lake Avenue","","Tampa","FL",33610,"Stewart Services","",50,"2010-04-06 19:33:36","2010-04-06 19:33:36","human","","",09373
363,"Boza & Roel Funeral Home","bozaroel","bozaroel.com","813-877-7676","4730 North Armenia Avenue","","Tampa","FL",33603,"Stewart Services","",50,"2010-04-06 19:40:12","2010-04-06 19:40:12","human","","",09374
364,"Arlington Park Funeral Home","arlingtonpark","arlingtonparkfuneralhome.com","904-724-6384","6920 Lone Star Road","","jacksonville","FL",32211,"Stewart Services","",50,"2010-04-06 19:44:52","2010-04-06 19:44:52","human","","",09321
366,"Whitley-Garner @ Rosehaven Memorial Park, Funeral & Cremations","whitleygarner","whitleygarner.com","770-942-4246","8640 Rose Avenue","","Douglasville","GA",30134,"Stewart Services

Don ?  don and Don Don #2 lives in Acworth","",50,"2010-04-06 19:47:57","2012-05-29 19:29:52","human","dmcknight@stei.com","Don Mcknight",10331
367,"Andrew J. McGann & Son Funeral Home","andrewmcgann","andrewmcgann.com","773-783-7700","10727 South Pulaski Road","","Chicago","IL",60655,"Stewart Services","",50,"2010-04-06 19:49:06","2010-04-06 19:49:06","human","","",13311
370,"Zimmerman & Sandeman Funeral Home","zimmermanorlandpark","zimmermansaneman.com","708-460-7500","9900 West 143rd Street","","Orland Park","IL",60462,"Stewart Services","",50,"2010-04-06 19:54:18","2011-05-23 13:32:59","human","gsandeman@stei.com","Gregg Sandeman - Manager",13314
371,"St. Bernard Memorial Funeral Home","stbernard","stbernardmemorial.com","504-279-376","701 West Virtue Street","","Chalmette","LA",70043,"Stewart Services","",50,"2010-04-06 19:55:57","2010-04-06 19:55:57","human","","",18311
372,"Greenwood Funeral Home","greenwoodfuneral","greenwoodfuneralhome.net","504-486-0880","5200 Canal Boulevard","","New Orleans","LA",70124,"Stewart Services","",50,"2010-04-06 19:57:03","2010-04-06 19:57:03","human","","",18312
373,"Bounds Funeral Home","bounds","boundsfuneralhome.com","410-749-3281","705 East Main Street","","Salisbury","MD",21804,"Stewart Services","",50,"2010-04-06 19:57:57","2010-04-06 19:57:57","human","","",20311
374,"Fort Lincoln Funeral Home","ftlincoln","fort-lincoln.com","301-864-5090","3401 Bladensbug Road","","Brentwood","MD",20722,"Stewart Services","",50,"2010-04-06 19:59:20","2010-04-06 19:59:20","human","","",20321
375,"Loudon Park Funeral Home","loudonpark","Loudon-Park.com","301-864-5090","3620 Wilkens Avenue","","Baltimore","MD",21229,"Stewart Services","",50,"2010-04-06 20:00:40","2010-04-06 20:00:40","human","","",20351
376,"Memorial Funeral Home","memorialfuneral","memorialfuneralhomeandcemetery.com","573-443-3173","1217 Business Loop 70 West","","Columbia","MO",65202,"Stewart Services","",50,"2010-04-06 20:03:22","2011-05-23 13:05:48","human","joneal@stei.com","Justin O'Neal - Manager",25311
377,"Thacher Funeral Home","thacherfuneralhome","thacherwood.com","660-882-2311","629 East Morgan Street","","Boonville","MO",65233,"Stewart Services

Facility is not regularly staffed.  Contact manager at Memorial Funeral Home.","",50,"2010-04-06 20:04:27","2011-05-23 13:26:56","human","joneal@stei.com","Justin O'Neal - Manager",25312
378,"Longview Funeral Home","longview","longviewfuneralhome.com","816-761-6272","12700 Raytown Road","","Kansas City","MO",64149,"Stewart Services","",50,"2010-04-06 20:05:28","2011-05-23 13:04:21","human","bpark@stei.com","Barry Park - Manager",25314
379,"Church-Archer-Pasley Funeral Home","church","churcharcherpasley.com","816-781-2000","119 East Franklin Street","","Liberty","MO",64068,"Stewart Services","",50,"2010-04-06 20:06:51","2010-04-06 20:06:51","human","","",25317
380,"Noland Road Chapel","nolandroadchapel","nolandroadchapel.com","816-252-8900","509 South Noland Road","","Independence","MO",64050,"Stewart Services","",50,"2010-04-06 20:08:26","2011-05-23 13:07:05","human","kmulcahy@stei.com","Kelly Mulcahy - Manager",25318
381,"Stine & McClure Chapel","stineandmcclure","stineandmcclure.com","816-931-7777","3235 Gillham Plaza","","Kansas City","MO",64109,"Stewart Services","",50,"2010-04-06 20:09:45","2011-05-23 13:10:09","human","jpost@stei.com","Jerry Post - Manager",25319
382,"William Wood Funeral Home","williamwood","thacherwood.com","660-882-2495","517 4th Street","","Boonville","MO",65233,"Stewart Services

Facility is not staffed regularly.  Contact manager at Memorial Funeral Home.","",50,"2010-04-06 20:11:07","2011-05-23 13:31:07","human","joneal@stei.com","Justin O'Neal - Manager",25363
383,"Lakewood Memorial Funeral Home","lakewoodmemorial","lakewoodfuneralhomes.com","601-922-2123","6011 Clinton Boulevard","","Jackson","MS",39209,"Stewart Services","",50,"2010-04-06 20:12:43","2010-04-06 20:12:43","human","","",24311
384,"Lakewood South Memorial Funeral Home","lakewoodsouth","lakewoodfuneralhomes.com","601-922-2123","430 McCluer Road","","Jackson","MS",39212,"Stewart Services","",50,"2010-04-06 20:13:50","2010-04-06 20:13:50","human","","",24312
385,"Catawba Memorial Park, Funerals & Cremations","catawbamemorial","catawbamemorialpark.com","828-322-1210","3060 Highway 70 SE","","Hickory","NC",28602,"Stewart Services","",50,"2010-04-06 20:15:41","2010-04-06 20:15:41","human","","",33311
386,"Garrett Funerals & Cremations","garrettfunerals","garrettfuneralsandcremations.com","828-456-8856","460 North Main Street","","Waynesville","NC",28786,"Stewart Services
02/01/12:  Visited Garrett FH and presented our Prospect Presentation to Chad [ac].","",50,"2010-04-06 20:20:16","2012-02-02 20:47:05","human","","Chad Hamiel",33321
387,"Montlawn Funerals and Cremations","montlawnfunerals","montlawn.com","919-772-1073","2911 South Wilmington Street","","Raleigh","NC",27603,"Stewart Services","",50,"2010-04-06 20:21:33","2010-04-06 20:21:33","human","","",33341
388,"Pollock-Best Funerals & Cremations","pollockbest","pollockbest.com","252-637-5111","2015 Neuse Boulevard","","New Bern","NC",28560,"Stewart Services","",50,"2010-04-06 20:22:39","2010-04-06 20:22:39","human","","",33351
389,"Thomas-Telverton at Evergreen Memorial Park, Funerals & Cremations","thomastelverton","thomasyelverton.com","252-243-4100","2704 Nash Street North","","Wilson","NC",27896,"Stewart Services","",50,"2010-04-06 20:23:56","2010-04-06 20:23:56","human","","",33353
390,"Johnson Funerals & Cremations","johnsonfunerals","www.johnsonfuneralsandcremations.com","252-977-2121","661 English Road","","Rocky Mount","NC",27804,"Stewart Services
09/21/12:  Scott Sanderford convinced them to display and sell our product [ac].","",50,"2010-04-06 20:25:26","2012-09-21 18:03:25","human","mcaison@stei.com","Mel Caison",33365
391,"Johnson Chapel","johnsonchapel","johnsonfuneralsandcremations.com","252-459-2111","226 South Barnes Street","","Nashville","NC",27856,"Stewart Services","",50,"2010-04-06 20:26:30","2010-04-06 20:26:30","human","","",33355
392,"Davis at Floral Garden Funerals & Cremations","davisfloralgarden","davisfuneralsnadcremations.com","336-885-5049","976 Phillips Avenue","","High Point","NC",27262,"Stewart Services","",50,"2010-04-06 20:27:57","2010-04-06 20:27:57","human","","",33356
393,"Cromartie-Miller & Lee Funerals and Cremations","cromartiemiller","cromartiemillerandlee.com","910-892-2077","401 West Cumberland Street","","Dunn","NC",28334,"Stewart Services","",50,"2010-04-06 20:29:17","2010-04-06 20:30:00","human","","",33357
395,"Lincoln Memorial Funeral Home & Crematory","lincolnmemorial","lincolnfh.com","402-423-1515","6800 South 14th Street","","Lincoln","NE",68512,"Stewart Services","",50,"2010-04-06 20:34:04","2011-05-23 13:03:12","human","cklingler@stei.com","Christopher Klingler - Manager",27311
396,"Zellerj Chapel of the Roses","zellerchapel","zellerchapeloftheroses.com","503-287-1155","2107 Northeast Broadway Street","","Portland","OR",97232,"Stewart Services","",50,"2010-04-06 20:35:15","2010-04-06 20:35:15","human","","",37311
397,"Rogue Valley Funeral Alternatives","roguevalley","roguevalleyfunerals.com","688-770-6505","550 Business Park Drive","","Medford","OR",97504,"Stewart Services","",50,"2010-04-06 20:36:20","2010-04-06 20:36:20","human","","",37322
398,"Funeral Alternatives Crematory","funeralalternatives","","541-779-2842","550 Business Park Drive","","Medford","OR",97504,"Stewart Services","",50,"2010-04-06 20:37:23","2010-04-06 20:37:23","human","","",37323
399,"Grants Pass Funeral Alternatives","grantspass","grantspassfunerals.com","541-476-3710","106 Northwest Evelyn Avenue","","Grants Pass","OR",97523,"Stewart Services","",50,"2010-04-06 20:38:35","2010-04-06 20:38:35","human","","",37324
400,"Abbey Funeral","abbeyfuneral","abbeyfuneralhome.com","541-773-7117","2680 North Pacific Highway","","Medford","OR",97501,"Stewart Services","",50,"2010-04-06 20:39:39","2010-04-06 20:39:39","human","","",37325
401,"Kirk & Nice Suburban Chapel At Sunset Memorial Park","kirknicechapel","kirkandnicesuburban.com","215-354-0085","333 County Line Road","","Feasterville","PA",19053,"Stewart Services","",50,"2010-04-06 20:41:00","2010-04-06 20:41:00","human","","",38311
402,"Kirk & Nice Funeral Home","kirknicefuneral","firkandniceinc.com","610-832-2064","80 Stenton Avenue","","Plymouth Meeting","PA",19462,"Stewart Services","",50,"2010-04-06 20:42:14","2010-04-06 20:42:14","human","","",38321
404,"Cannon Funerals & Cremations","cannonfunerals","cannonfunerals.com","864-862-9298","1150 North Main Street","","Fountain Inn","SC",29644,"Stewart Services
02/12: Per Chris Hamiel, Cannon took the AU inventory from Mackay in Greenville [ac].
07/31/12: Per Veronica, their asst., Matthew Armstrong is the manager [ac].","",50,"2010-04-06 20:43:21","2012-07-31 20:00:58","human","","",40311
405,"Cannon Funerals & Cremations - Jones Chapel","cannonjoneschapel","cannonfunerals.com","864-967-1882","603 West Curtis Street","","Simpsonville","SC",29681,"Stewart Services","",50,"2010-04-06 20:44:47","2010-04-06 20:44:47","human","","",40332
406,"Westville Funerals & Cremations","westvillefuneral","westvillefuneralhome.com","864-269-5073","6010 White Horse Road","","Greenville","SC",29611,"Stewart Services","",50,"2010-04-06 20:45:52","2010-04-06 20:45:52","human","","",40333
407,"Dillard Funerals and Cremations","dillardfunerals","dillardfunerals.com","864-878-6371","2402 Gentry Memorial Highway","","Pickens","SC",29671,"Stewart Services","",50,"2010-04-06 20:47:54","2010-04-06 20:47:54","human","","",40334
408,"Palmetto Cremation Service","palmettocremation","","864-878-6661","2402 Gentry Memorial Highway","","Pickens","SC",29671,"Stewart Services","",50,"2010-04-06 20:49:06","2010-04-06 20:49:06","human","","",40336
410,"Dunbar Funerals & Cremations","dunbarirmo","dunbarfunerals.com","803-732-2211","7600 Woodrow Street","","Irmo","SC",29063,"Stewart Services","",50,"2010-04-06 20:51:49","2010-04-06 20:51:49","human","","",40323
411,"Dunbar Funerals and Cremations","dunbarcolumbia","dunbarfunerals.com","803-788-6310","4219 Hard Scrabble Road","","Columbia","SC",29223,"Stewart Services","",50,"2010-04-06 20:52:53","2010-04-06 20:52:53","human","","",40324
412,"Dunbar Funerals & Cremations","dunbarcremations","dunbarfunerals.com","803-771-7990","1527 Garvais Street","","Columbai","SC",29201,"Stewart Services","",50,"2010-04-06 21:04:36","2010-04-06 21:04:36","human","","",40321
415,"Highland West Memorial Park, Funerals & Cremations","highlandwest","highlandmemorialparks.com","865-693-9547","9913 Sherrill Boulevard","","Knoxville","TN",37932,"Stewart Services","",50,"2010-04-06 21:08:40","2010-04-06 21:08:40","human","","",42311
416,"Highland South Memorial Park, Funerals & Cremations","highlandsouth","highlandmemorialparks.com","865-573-7300","9010 East Simpson Road","","Knoxville","TN",37920,"Stewart Services","",50,"2010-04-06 21:09:55","2010-04-06 21:09:55","human","","",42312
417,"Oak Hill Memorial Park, Funerals & Cremations","oakhill","oakhillmemorialpark.com","423-246-4631","800 Truxton Drive","","Kingsport","TN",37660,"Stewart Services","",50,"2010-04-06 21:11:07","2010-04-06 21:11:07","human","","",42313
418,"Highland Memorial Park, Funerals & Cremations","highlandmemorial","highlandmemorialparks.com","865-588-0567","5315 Kingston Pike","","Knoxville","TN",37919,"Stewart Services
Josh Carter was the original contact.
05/12 Kevin Knowles became the managing FD [ac].","",50,"2010-04-06 21:12:17","2012-07-30 14:50:06","human","","Kevin Knowles",42314
419,"Mount Oilvet Funeral Home","mountolivet","nountolivet.com","615-255-4193","1101 Lebanon Road","","Nashville","TN",37210,"Stewart Services","",50,"2010-04-06 21:13:00","2010-04-06 21:13:29","human","","",42321
420,"Cole & Garrett Funeral Home and Cremation Services","colehendersonvill","coleandgarrett.com","615-824-8605","182 West Main Street","","Hendersonville","TN",37075,"Stewart Services","",50,"2010-04-06 21:15:06","2012-02-18 15:34:32","human","","",42331
421,"Cole & Garrett Funeral Home and Cremation Services","colegoodlettsville","coleandgarrett.com","615-859-5231","127 North Main Street","","Goodlettsville","TN",37072,"Stewart Services","",50,"2010-04-06 21:16:20","2010-04-06 21:16:20","human","","",42332
422,"Cole & Garrett Funeral Home and Cremation Services","colewhitehouse","coleandgarrett.com","615-672-3936","212 Highway 76","","White House","TN",37188,"Stewart Services","",50,"2010-04-06 21:17:32","2010-04-06 21:17:32","human","","",42333
423,"Anderson-Clayton Bros. Funeral Home - Kaufman","andersonkaufman","andersonclaytonkaufman.com","972-932-2191","305 North Jackson Street","","Kaufman","TX",75142,"Stewart Services","",50,"2010-04-06 21:19:01","2010-04-06 21:19:01","human","","",43361
424,"Anderson-Clalyton Bros. Funeral Home - Kemp","andersonkemp","andersonclaytonkemp.com","903-498-3371","1226 South Elm Street","","Kemp","TX",75143,"Stewart Services","",50,"2010-04-06 21:20:18","2010-04-06 21:20:18","human","","",43362
425,"Crespo Funeral Home","crespofuneral","crespofunerals.com","713-694-2121","2110 Tidwell Road","","Houston","TX",77093,"Stewart Services","",50,"2010-04-06 21:21:26","2010-04-06 21:21:26","human","","",43363
426,"Roselawn Funeral Home","roselawnfuneral","roselawn-funerals.com","972-287-2121","1000 South Highway 175","","Seagoville","TX",75159,"Stewart Services","",50,"2010-04-06 21:23:08","2010-04-06 21:23:08","human","","",43355
427,"Bright-Holland Funeral Home","brightholland","brighthollandfuneralhome.com","903-784-6623","2601 Lamar Avenue","","Paris","TX",75460,"Stewart Services","",50,"2010-04-06 21:24:21","2010-04-06 21:24:21","human","","",43356
428,"Singing Hills Funeral Home","singinghills","singinghillsfuneralhome.com","214-371-4311","6221 Houston School Road","","Dallas","TX",75241,"Stewart Services","",50,"2010-04-06 21:25:28","2010-04-06 21:25:28","human","","",43345
429,"Anderson-Clayton Bros. Funeral Home-Terrell","andersonclaytonterrell","andersonclaytonterrell.com","972-524-6417","301 West Nash Street","","Terrell","TX",75160,"Stewart Services","",50,"2010-04-06 21:26:44","2010-04-06 21:26:44","human","","",43346
430,"Anderson-Clayton Bros. Funeral Home-Masquite","andersonclaytonmesquite","andersonclaytonmesquite.com","972-285-5489","1111 Military Parkway","","Mesquite","TX",75149,"Stewart Services","",50,"2010-04-06 21:28:00","2010-04-06 21:28:00","human","","",43347
431,"David Clayton & Sons Funeral Home","davidclayton","davidclaytonfuneralhome.com","972-298-7222","200 West Center Street","","Duncanville","TX",75116,"Stewart Services","",50,"2010-04-06 21:29:11","2010-04-06 21:29:11","human","","",43348
432,"Crespo Funeral Home","crespohouston","crespofunerals.com","713-644-3831","4136 Broadway Street","","Houston","TX",77087,"Stewart Services","",50,"2010-04-06 21:30:11","2010-04-06 21:30:11","human","","",43349
433,"SouthPark Funeral Home","southpark","southparkfunerals.com","281-485-2711","1310 North Main Street","","Pearland","TX",77581,"Stewart Services","",50,"2010-04-06 21:31:13","2010-04-06 21:31:13","human","","",43351
434,"Crespo Funeral Home","crespofh","crespofunerals.com","713-225-9567","2516 Navigation Boulevard","","Houston","TX",77003,"Stewart Services","",50,"2010-04-06 21:32:40","2010-04-06 21:32:40","human","","",43352
435,"J.E. Foust & Son Funeral Home","jefoust","jefoust.com","817-481-2525","523 South Main Street","","Grapevine","TX",76051,"Stewart Services","",50,"2010-04-06 21:33:49","2010-04-06 21:33:49","human","","",43353
436,"Emerald Hills Funeral Home","emeraldhills","emeraldhillsfuneralhome.com","817-572-1681","500 Sublett Road","","Kennedale","TX",76060,"Stewart Services","",50,"2010-04-06 21:35:14","2010-04-06 21:35:14","human","","",43311
437,"Pasadena Funeral Chapel","pasadenafuneral","pasadenafuneralchapel.com","713-473-6206","2203 Pasadena Boulevard","","Pasadena","TX",77502,"Stewart Services","",50,"2010-04-06 21:36:28","2010-04-06 21:36:28","human","","",43321
438,"San Jacinto Funeral Home","sanjacinto","sanjacintofunerals.com","713-453-7114","14659 East Freeway","","Houston","TX",77015,"Stewart Services","",50,"2010-04-06 21:37:34","2010-04-06 21:37:34","human","","",43322
439,"Everly Community Funeral Care","everlycommunity","everlycommunity.com","703-532-5161","6161 Leesburg Pike","","Falls Church","VA",22044,"Stewart Services","",50,"2010-04-06 21:38:38","2010-09-29 14:13:13","human","","",46321
440,"Butterworth Funeral Home-Arthur A. Wright Chapel","butterworthfuneral","butterworthfuneralhome.com","206-282-5500","520 West Raye Street","","Seattle","WA",98119,"Stewart Services","",50,"2010-04-06 21:39:47","2010-04-06 21:39:47","human","","",47311
441,"Cremation Society Northwest","cremationsociety","butterworthfuneralhome.com","206-284-7888","520 West Raye Street","","Seattle","WA",98119,"Stewart Services","",50,"2010-04-06 21:40:54","2010-04-06 21:40:54","human","","",47321
442,"Blue Ridge Funeral Home","blueridge","blueridgefuneralhome.com","304-256-8625","5251 Robert C. Byrd Drive","","Beckley","WV",25801,"Stewart Services","",50,"2010-04-06 21:42:14","2010-04-06 21:42:14","human","","",48311
443,"Williams-Blu Ridge Funeral Home","williamsblue","blueridgefuneralhome.com","304-683-3216","147 Virginia Street","","Sophia","WV",25921,"Stewart Services","",50,"2010-04-06 21:43:25","2010-04-06 21:43:25","human","","",48312
444,"Dodd-Payne-Hess Funeral Home","doddpaynehess","doddpaynehessfuneralhome.com","304-574-1131","350 West Maple Avenue","","fayetteville","WV",25840,"Stewart Services","",50,"2010-04-06 21:44:31","2010-04-06 21:44:31","human","","",48313
445,"Calfee Funeral Service","calfeefuneral","calfreefuneralservice.com","304-732-6166","Route 10","","Pineville","WV",24874,"Stewart Services","",50,"2010-04-06 21:45:45","2010-04-06 21:45:45","human","","",48314
446,"Evans Funeral Home","evansfuneral","evans-funeralhome.com","304-682-6289","Route 10 Cook Parkway","","oceana","WV",24870,"Stewart Services","",50,"2010-04-06 21:46:49","2010-04-06 21:46:49","human","","",48315
447,"Bartlett-Burdette-Cox Funeral Home","bartlettburdettecox","barlettburdettecox.com","304-342-0181","513 Tennessee Avenue","","Charleston","WV",25302,"Stewart Services","",50,"2010-04-06 21:48:26","2010-04-06 21:48:26","human","","",48321
448,"Casdorph & Curry Funeral Home","casdorphcurry","casdorphandcurry.com","304-727-4351","110 B. Street","","St. Albans","WV",25177,"Stewart Services












","",50,"2010-04-06 21:50:36","2010-04-06 21:50:36","human","","",48331
449,"Klingel-Carpenter Mortuary","klingelcarpenter","klingelcarpenter.com","304-525-8121","328 6th Avenue","","Huntington","WV",25701,"Stewart Services","",50,"2010-04-06 21:52:59","2010-04-06 21:52:59","human","","",48341
450,"Tyler Mountain Funeral Home","tylermountain","tylermountainfuneralhome.com","304-776-2651","5233 Rocky Fork Road","","Cross Lanes","WV",25313,"Stewart Services","",50,"2010-04-06 21:54:25","2010-04-06 21:54:25","human","","",48351
451,"Stevens & Grass Funeral Home","stevensgrass","stevensandgrass.com","601-925-2121","4203 Salines Drive","","Malden","WV",25306,"Stewart Services","",50,"2010-04-06 21:55:43","2010-04-06 21:55:43","human","","",48361
452,"Wilson Funeral Home","wilsonfuneral","wilsonfuneralsandcremations.com","304-343-5196","420 Lee Street West","","Charleston","WV",25302,"Stewart Services","",50,"2010-04-06 21:56:51","2010-04-06 21:56:51","human","","",48371
453,"Forest Lawn Memorial Parks","forestlawn","forestlawn.com","1-800-204-3131","1712 South Glendale Avenue","","Glendale","CA",91205,"","",50,"2010-04-14 19:59:21","2010-07-13 17:32:37","human","shauer@forestlawn.com","Sherri Hauer",""
455,"Beyond the Rainbow Pet Hospice & Memorial Center","beyondtherainbow","www.texaspethospice.com/","","","","Ft. Worth","TX","","","","","2010-04-27 17:06:36","2010-11-28 21:38:50","pet","info@texaspethospice.com","Kate Moore",""
458,"Hillside Memorial Park and Mortuary","hillsidememorialparkandmortuary","","310-641-0707","6001 Centinela Ave.","","Los Angeles","CA",90045,"15% cremation / Temple Israel","",50,"2010-05-03 20:19:30","2010-10-01 19:05:32","human","pgoldstein@hillsidememorial.org","Paul Goldstein",""
459,"Cypress Falls Pet Resort & Spa","cypressfalls","","281-378-7170","12043 Spring Cypress Road","","Tomball","TX",77377,"","",50,"2010-06-14 13:57:03","2011-02-10 20:24:55","pet","joan@cfpetresort.com","Joan Kennedy",""
460,"At Garden's Edge Pet Aftercare","atgardensedge","","626-407-3540","511 S. Palm Avenue #8 ","","Alhambra, ","CA",91803,"","","","2010-06-15 11:10:02","2010-08-19 13:47:49","pet","teresa.s@atgardensedge.com","Teresa Wilson-Summerville",""
461,"Forbis and Dick","forbisdick","www.forbisanddick.com","336-275-8408","1118 North Elm St.","","Greensboro","NC",27401,"7 locations","",50,"2010-06-21 14:27:16","2010-10-06 14:00:46","human","mike.mcghee@forbisanddick.com","Mike McGhee",""
462,"Smith Steele Meadows","smithsteele","","706-846-3131","P.O.Box 108","","Manchester","GA",31816,"","","","2010-07-06 17:45:11","2010-07-06 17:45:11","human","smstme@windstream.net","Robbin McInve",""
463,"Bartron Myer Funeral Home","bartronmyer","bartrommyerfuneralhome.com","570-278-8100","382 Church St.","","Montrose","PA","","","","","2010-07-08 14:52:28","2010-07-08 14:52:28","human","greg@bartronmyerfuneralhome.com","Gregory l. Myer",""
464,"Meadow Hill Corporation","meadowhill","www.meadowhillco.com","847-381-9000","P.O. Box 274","","Fox River Grove","IL",60021,"","","","2010-07-19 19:49:52","2010-07-19 19:49:52","human","bob@meadowhillco.com","Bob Vokoun",""
466,"SouthCare Cremation Society","southcare","www.southcarecremation.com","770-420-5557","595 Franklin Rd.","","Marietta","GA",30281,"","","","2010-08-02 15:26:12","2010-08-02 15:40:00","human","dgreiner@southcarecremation.com","Dave Greine",""
467,"Peaceful Paws Pet Cremation","peacefulpaws","","915-245-9154","270 N. EI Camino Real Ste.F50","","Encinitas,","CA",92024,"Mike

Owner- Vivianne","","","2010-08-09 17:21:29","2010-08-09 17:21:29","pet","adrianna.peacefulpawspet@gmail.com","Adrianna ",""
468,"Memorial Gallery","memorialgallery","","","","","","WA","","","","","2010-08-16 21:28:33","2010-08-16 21:28:33","human","","",""
469,"Humane Society Silicon Valley","siliconvalleyhumane","","408-262-2133 ext. 133,","","","","CA","","","",10,"2010-08-17 17:31:07","2010-08-17 17:31:07","pet","bkeenan@hssv.org ","Bridget Keenan",""
470,"Gunderson Funeral Home","gunderson","www.gundersonfh.com","608-221-5420","5203 Monona Dr.","","Madison","WI",53716,"Also met Mike - 6 locations, very nice","","","2010-08-18 14:23:43","2013-02-06 16:47:36","human","pete@gundersonfh.com","Pete Gunderson",""
471,"Tennant Funeral Homes","tennant","www.tennantfuneralhomes.com","970-522-3544","330 S.2nd.St.","","Sterling","CO",80751,"","",20,"2010-08-18 15:05:20","2010-10-28 16:25:03","human","david@tennantfuneralhomes.com","David Tennant",""
472,"Daniels Family Funeral Services","danielsfuneral","www.danielsfuneral.com","505-892-9920","","","","NM","","","","","2010-08-18 21:31:05","2010-08-18 21:31:05","human","bbrane@danielsfuneral.com","Bradley Brane",""
473,"Precious Pet Animal Crematory","preciouspet","www.preciouspetsanimalcrematory.com","(253) 929-8495","3420 C Street NE #306","","Auburn","WA",98002,"","","","2010-08-18 22:14:00","2012-12-06 14:37:56","pet","carrie@preciouspetsanimalcrematory.com","Cearrie",""
478,"Lord and Stephens Funeral Home","lordandstephens","lordandstephens.com","706-546-1587","4355 Lexington Rd","","Athens","GA",30605,"Tom Lord sole owner-spoke with Robbie Smith 8/25/2010
4/30/13  spoke w/Jason Wommack in Bogart,GA [cm] ","",50,"2010-08-26 00:37:05","2013-05-09 18:18:14","human","","Tom Lord",""
479,"Bill Head Funeral Home","billhead","","770-564-2726","6101 Highway 29 ","","Tucker","GA",30084,"2 locations-Duluth Chapel
Lilburn/Tucker Chapel","",50,"2010-08-26 00:48:25","2010-08-26 00:48:25","human","bhfuneralhome@earthlink.net","Keith",""
482,"Bellamy Funeral Home","bellamy","","678-932-8563","4405 Marietta St","","Powder Springs","GA",30127,"Has a 2nd location:3551 Jimmy Lee Smith Pkway,
Hiram, GA 30141","",50,"2010-08-26 00:53:38","2010-08-26 00:53:38","human","bellamy_d@bellsouth.net","",""
484,"Alfonso Dawson Mortuary","alfonsodawsonmortuary","","404-691-3810","3000 Martin Luther King, Jr Dr SW","","Atlanta","GA",30311,"","",50,"2010-08-26 00:56:49","2010-08-26 00:56:49","human","alfonsodawson@aol.com","Mr. Hannah",""
487,"Platt's Funeral Home","platts","","706-733-3636","721 Crawford Ave","","Augusta","GA","","spoke with Tonya 8/25/2010","",50,"2010-08-26 01:01:27","2010-08-26 01:01:27","human","bevans@plattsfuneralhome.com","Bryan Evans",""
488,"Haisten Funerals and Cremations","haisten","","770-914-8833","1745 Zack Hinton Pkwy,S.","","McDonough","GA",30253,"I 75 south ext.216 ga hwy 155 L-go pass 4 lights and on the L

3204230- 3225200-- 3220215-- 3201280--3141315-2822050--","","","2010-08-26 19:52:45","2010-08-26 19:52:45","human","bpurcell@stei.com","Betty Purcell",10321
489,"Thomas Poteet and Son","thomaspoteetandson","","706-364-8484","214 Davis Rd","","Augusta","GA",30907,"Spoke w Buzz 8/26-did not sound too interested, but said to send via email-will call on Monday","",50,"2010-08-27 00:53:22","2010-08-27 00:53:22","human","buzzpoteet@knology.net","Buzz",""
490,"Sosebee Funeral Home","sosebee","","770-479-2131","191 Jarvis St","","Canton","GA",30114,"","",50,"2010-08-27 00:55:56","2010-08-27 00:55:56","human","caseyguyton@sosebeefuneralhome.com","Casey Guyton",""
491,"Harts Mortuary and Crematory","hartsmortuaryandcrematory","","478-746-4321","765 Cherry St","","Macon ","GA",31208,"Spoke with Dee on 8/26-will send info, no contact name","",50,"2010-08-27 00:59:18","2010-08-27 00:59:18","human","hartsmort@gmail.com","",""
493,"Mayes Ward Dobbins","mayeswarddobbins","","770-428-1511","180 Church St NE","","Marietta","GA",30061,"Info sent Monday 8/30","",50,"2010-08-27 01:03:52","2010-08-30 20:15:53","human","terry@mayeswarddobbins.com","Terry Pendley",""
494,"West Georgia Crematory","westgeorgiacrematory","","770-732-6840","P.O. Box 339","","Austell","GA",30168,"Spoke with Jeremy-has to review urns with mgr and he won't be in until Mon morning-Call back on Wed
","",50,"2010-08-27 01:09:15","2010-08-27 01:09:15","human","jeremy@westgeorgiacrematory.com","Jeremy",""
495,"Thomas Funeral Home","thomasfuneralhome","","706-629-2832","535 Red Bud Rd","","Calhoun","GA",30701,"only does 15-20% cremations-many indigent. Doen't think he is interested. Info sent Monday 8/30","",50,"2010-08-30 22:25:18","2010-08-30 22:25:18","human","thomasfuneralhom@bellsouth.net","Bruce",""
496,"Williamson Memorial","williamsonmemorial","","615-794-2289","3009 Columbia Ave","","Franklin","TN","","","",50,"2010-09-01 11:10:16","2010-09-01 11:11:56","human","casey@williamsonmemorial.com","Casey",""
497,"Harpeth Family Funeral Ssrvices","harpethfamilyfuneralservices","","615-690-2990 ext 11","9090 Hwy 100","","Nashville","TN",37221,"Spoke w Tammy- they purchase all urns from Elegant Urns. Will look, but not too interested.  Husband makes decision.  His name is Bill Gregory and his ext is #13","",50,"2010-09-01 12:04:18","2010-09-01 19:49:42","human","cemeteryfuneralsolutions@comcast.net","Tammy",""
498,"Carmichael Funeral Home","carmichaelfuneralhome","","440-435-44367","","","Smyrna","GA",30082,"","",50,"2010-09-01 15:51:36","2010-09-01 19:43:43","human","jimc@carmichaelfuneralhomes.com","Jim",""
499,"London Funeral Home","londonfuneralhome","","931-359-1541","324 W. Church Street","","Lewisburg","TN",37091,"","",50,"2010-09-02 18:16:21","2010-09-02 18:18:32","human","lond1541@bellsouth.net","Sarah Haynes",""
500,"Mountainview Funeral Home","mountainviewfuneralhome","","706-745-3456","","","Blairsville","GA","","Spoke with Bill Meeks (said he would be glad to take a look), but told me to ask for Charles when I called back-Charles checks all emails","",50,"2010-09-02 18:43:55","2010-09-02 18:43:55","human","mountainview@windstream.net","Charles",""
501,"Henry Cochran Funeral Home","henrycochranfuneralhome","","706-632-5968","3911 Appalachian Hwy","","Blue Ridge","GA",30513,"There are 5 differnt locations-this one is in Blue Ridge. There is a partnership of brothers-Max is in Blairsville and Steve is in Blue Ridge.  However, I spoke with Carl who said either he(Carl) or Steve could make decisions re urns. Email sent to Carl","",50,"2010-09-02 19:16:04","2010-09-02 19:16:04","human","kellymesser@tds.net","Carl",""
502,"Heritage Memorial Funeral Home","heritagememorialfuneralhome","","478-329-1400","701 Carl Vinson Pkwy","","Warner Robbins","GA",31093,"","",50,"2010-09-03 15:24:57","2010-09-03 15:24:57","human","a.gale@bellsouth.net","Andrea",""
503,"Gregory B Levett & Sons","gregoryblevettandsons","","770-945-9999","North Gwinnett Chapel","","","GA","","Spoke w Cecile (gatekeepr)-very nice","",50,"2010-09-03 19:42:54","2010-09-03 19:42:54","human","cecilerowe@bellsouth.net","Quinton Barrett",""
504,"Almon Funeral Home and Chapel","almonfuneralhomeandchapel","","770-832-7056","548 Newnan Street","","Carrolton ","GA",30117,"Spoke with Charlie-Bill Dean also trying to sell","",50,"2010-09-03 19:54:55","2010-09-03 19:54:55","human","charlie@almonfuneralhome.com","Charlie Almon",""
505,"Hillside Memorial Chapel and Gardens","hillsidememorialchapelandgardens","","706-754-6256","5495 Highway 197 South","","Clarksville","GA",30523,"","",50,"2010-09-07 14:34:06","2010-09-07 14:34:06","human","hillsidememorialchapel@windstream.net","Sam",""
506,"Ingram Funeral Home and Crematory","ingramfuneralhomeandcrematory","","770-887-2388","210 Ingram Ave","","Cumming","GA",30040,"","",50,"2010-09-07 14:40:31","2010-10-06 19:14:59","human","phillip@ingramfuneralhome.com","Phil Faulkner",""
507,"Vance-Brooks Funeral Home","vancebrooksfuneralhome","","706-323-8152","4048 Macon Rd","","Columbus","GA",31908,"I emailed Sharon and she will get info to Lance Brooks(director)","",50,"2010-09-07 14:47:04","2010-09-10 19:17:32","human","sharon_vancemc@bellsouth.net","Sharon",""
508,"White and Day Colonial Mortuary","whiteanddaycolonialmortuary","","310-792-7575","901 Torrance Blvd","","Redondo Beach","CA",90277,"spoke w Mindy -need to talk to Jean she wks 8-3 T-Fri","",50,"2010-09-09 08:36:01","2010-09-09 08:36:01","human","jmathis@lafuneral.com","Jean Mathis",""
509,"Mountainview Funeral Home","mountainviewfuneralhome","","706-745-3456","119 Murphy Hwy","","Blairsville","GA",30514,"","",50,"2010-09-09 08:40:39","2010-09-09 08:40:39","human","mountainview@windstream.net","Charles",""
512,"Cremation Society of Illinois","cremationillinois","","","736 W.Addison St.","","Chicago","IL",5058,"","","","2010-09-10 13:32:44","2011-06-02 18:29:00","human","","",""
513,"Ralph Buckner Funeral Home and Crematory","ralphbucknerfh","www.ralphbuckner.com","423-472-1152","3000 Commerce Dr NE","","Cleveland, TN","PW",37320,"Becky is his sister-she says she will talk with him-she loves them [sm].
01/30/12:  Cold called on FH, and met Kim Randolph, Co-Owner.  He pointed us to Chari Buckner, she makes product decisions [ac].","",50,"2010-09-10 20:11:33","2012-02-18 15:31:41","human","becky@ralphbuckner.com","Becky Buckner",""
514,"Higgins Hillcrest Chapel","higginshillcrestchapel","","770-253-4723","1 Bullsboro Dr","","Newnan","GA",30263,"","",50,"2010-09-10 20:56:07","2010-09-10 20:56:07","human","higginshillcrestchapel@numail.org","Darlene Higgins",""
515,"Columbia Funeral Home and Crematory","columbiafuneralhomeandcrematory","","206-722-1100","4597 Rainier Ave S.","","Seattle ","WA",98118,"Very nice and Very interested!!","",50,"2010-09-14 21:55:40","2010-09-14 22:02:53","human","hugh@columbiafuneralhome.com","Hugh",""
516,"Curran-Shaffer Funeral Home and Crematory, Inc.","curranshafferfuneralhomeandcrematoryinc","","724-478-1244","100 Owens View Ave","","Apollo","PA",15613,"","",50,"2010-09-14 23:05:09","2010-09-14 23:05:09","human","james.k@curranfuneralhome.com","James",""
517,"Busch Funeral and Crematory Services","buschfuneralandcrematoryservices","","216-741-7700","4334 Pearl Rd","","Cleveland","OH",44109,"VP is Mark Busch, Barb Rogers is his secretary.
There are 6 funeral homes in this group","",50,"2010-09-14 23:20:13","2010-09-14 23:20:13","human","brogers@buschfuneral.com","Barb",""
518,"Cremation Company","cremationcompany","","888-777-2212","3205 John F Kennedy Blvd","","Jersey City","NJ",07306,"Strange guy-do not call-only send email-

PAY UP FRONT!","",50,"2010-09-14 23:31:16","2010-09-14 23:32:29","human","director@cremationcompany.com","Richard Riotto",""
519,"Flintofts Funeral Home and Crematory","flintoftsfuneralhomeandcrematory","","425-392-6444","540 East Sunset Way","","Issaquah","WA",98027,"","",50,"2010-09-15 02:17:05","2010-09-15 02:17:05","human","family@flintofts.com","",""
520,"Meierhoffer Funeral Home and Crematory","meierhofferfuneralhomeandcrematory","","1-816-232-3366","5005 Frederick Blvd","","St Joseph","MI","","Linda is secretary","",50,"2010-09-15 02:23:29","2010-09-15 02:23:29","human","todd.meierhoffer@meierhoffer.com","Todd Meierhoffer",""
521,"Ponders Funeral Home","pondersfuneralhome","","706-226-4002","138 Melrose Dr","","Dalton ","GA",30720,"Does not do email-letter sent 9/15-","",50,"2010-09-15 11:20:24","2010-09-15 11:20:24","human","NONE","Jason Gibson",""
522,"Akins Funeral Home","akinsfuneralhome","","706-632-2267","7871 Blue Ridge Dr","","Blue Ridge","GA",30513,"letter sent 9/15","",50,"2010-09-15 11:34:53","2010-09-15 11:34:53","human","NONE","",""
524,"Vance-Brooks Funeral Home","vancebrooksfuneralhome","","334-298-0668","3738 Hwy 431N","","Phenix City","AL","","Phenix City is:
Vance Memorial Chapel-Sharon is in this location","",50,"2010-09-15 11:55:18","2010-09-15 11:55:18","human","sharon_vancemc@bellsouth.net","Sharon",""
525,"Nelsen Funeral Home and Crematory","nelsenfuneralhomeandcrematory","","804-222-8601","4650 S. Laburnum Ave","","Richmond","VA",23231,"Patti is the secretary ot the owner-Blair Nelsen
Also have a pet crematory-Loving Pets crematory","",50,"2010-09-15 18:24:38","2010-09-15 18:24:38","human","pkrause@nelsencares.com","Patti Krause",""
526,"Loving Pets Crematory","lovingpetscrematory","","804-222-8601","4650 S. Laburnum Ave","","Richmond","VA",23231,"Owner is Blair Nelsen (Patti is his secretary)
also has Nelsen Funeral Home and Crematory","",50,"2010-09-15 18:35:27","2010-09-15 18:35:27","pet","pkrause@nelsencares.com","Patti Krause",""
527,"Bonnie-Watson Funeral Home","bonniewatsonfuneralhome","","2206-242-1787","16445 International Blvd","","SeaTac","WA",98188,"Spoke with Janice-secretary-very nice. He is extremely hard to get hold of","",50,"2010-09-20 16:23:25","2010-09-20 16:26:17","human","rwinter@bonniewatson.com","Rich Winter",""
528,"Weeks Funeral Home","weeksfuneralhome","","360-829-7717","451 Cemetery Rd","","Buckley","WA",98321,"Donna secretary-has no sense of humor!","",50,"2010-09-20 16:40:31","2010-09-20 16:40:31","human","brinkley@blarg.net","Chastin",""
529,"Weeks Funeral Home","weeksfuneralhome","","360-829-7717","451 Cemetery Rd","","Buckley","WA",98321,"Donna secretary-has no sense of humor!","",50,"2010-09-20 16:40:51","2010-09-20 16:40:51","human","brinkley@blarg.net","Chastin",""
530,"Perches Funeral Home","perchesfuneralhome","","915) 772-0755","7580 Alameda Ave ","","El Paso","TX","79915 ","","",50,"2010-09-20 17:44:27","2010-09-20 17:44:27","human","salperches@yahoo.com","Salvador Perches",""
531,"Bunker Family Funerals and Cremation","bunker","","","","","Mesa","AR","","Holly Blackhurst","","","2010-09-22 17:33:33","2010-09-22 17:33:33","human","","Randy Bunker",""
532,"French Funerals Cremations","frenchfuneralscremations","","505-843-6333","","","Albuquerque, ","NM","87125-0063","Referred by Darin Crouch from Passages International.","",50,"2010-09-29 15:57:08","2010-09-29 15:57:08","human","tom.antram@frenchmortuary.com","Tom Antram",""
533,"J.B. Tallent","jbtallentfuneralserviceandcremation","","704-567-1500","1937 Sharon Amity Rd","","Charlotte","NC",28205,"Marianne Kuieck (Nancy's friend referred me.  Her name is pronounced KiKe)","",50,"2010-10-01 02:08:02","2010-10-01 02:11:43","human","jtallentii@aol.com","John Tallent",""
534,"Carmon Funeral Home","carmonfuneralhome","","860-688-2200","807 Bloomfield Ave","","Windsor","CT",06095,"Spoke with Darsie

Placed order for 1 full size, one keepsake and 5 acorns","",50,"2010-10-01 10:42:51","2010-10-06 19:00:47","human","fcarmon@carmonfh.com","Frank Carmon",""
535,"Schoedinger Funeral & Cremation Service","schoedinger","www.schoedinger.com","614-429-5755","229 East State Street","","Columbus","OH",43215,"Also has pet crematorium-""Pet Services""
Very quick to return calls
03/20/12:  Roberta Knauf works on their Pet Services side, and was at the ICCFA Expo.  She worked at a competitor who sold AU product and wants it for Schoedinger [ac].
03/26/12:  Sent Roberta landing page & PP [ac].","",50,"2010-10-05 10:38:28","2012-03-26 18:13:30","human","randy@schoedinger.com","Randy Schoedinger",""
536,"Hankins and Whittington","hankinsandwhittington","","704-333-6116","1111 East Blvd","","Charlotte","NC",28203,"Sheri is the old next door neighbor of Nancy and Mike. Ken Poe is the man who makes the decisions","",50,"2010-10-05 10:41:45","2011-11-16 15:08:20","human","sheri.edgeworth@hankinsandwhittington.com","Nick Bowen",""
537,"The Island Funeral Home","theislandfuneralhome","","843-681-4400","4 Cardinal Rd","","Hilton Head Island","SC",29926,"They also have a pet crematorium "" The Island Pet Crematorium Services""
Send info to Valerie and she will present to the decision makers-
Also, Sherri? -one of the owners- is going to NFDA","",50,"2010-10-05 10:46:05","2010-10-05 10:46:05","human","valerie@theislandfuneralhome.com","Valerie",""
538,"Ratterman & Sons","rattermanandsons","","502-459-3800","3800 Bardstown Rd","","Louisville","KY",40218,"Extremely nice- goes by Mike or Michael","",50,"2010-10-05 10:49:46","2010-10-05 10:50:14","human","michael@ratterman.com","Michael",""
540,"Brackett Funeral Home","brackettfuneralhome","","207-725-5511","29 Federal St","","Brunswick","ME",04011,"Leaving on Oct 20 for Asia for 2 weeks.

Very nice but skeptical saying ""everybody and his brother are selling these""","",50,"2010-10-05 17:24:41","2010-10-05 17:24:41","human","pladner@brackettfuneralhome.com","Peter Ladner",""
541,"Ferguson Funeral Home and Crematory, Inc.","fergusonfuneralhomeandcrematory","","724-929-5300","700 Broad Ave","","Belle Vernon","PA",15012,"","",50,"2010-10-05 20:11:38","2010-10-05 20:11:38","human","shelbyii@comcast.net","Shelby",""
542,"Family Legacy","familylegacy","","615-714-9605","992 Davidson Dr","Suite 100-B","Nashville","TN",37205,"looking for high end urns-took picture, 7 locations- set up landing page after I saw her and sent-10/12","",50,"2010-10-12 23:59:05","2010-10-13 00:00:39","human","cforee@afamilylegacy.com","Cindy Foree",""
543,"Blount and Curry","blountandcurry","","813-876-2421","","","Tampa","FL","","Stewart facility-Loves urns-says ""I can sell these-oh yeah""","",50,"2010-10-18 17:34:49","2010-10-18 17:34:49","human","funeralmanager@yahoo.com","Robert Lytle",""
544,"Bayliff and Son","bayliffandson","","419-645-4501","311 West Main Street","","Cridersville","OH","45806-2299","","",50,"2010-10-19 19:34:37","2010-10-19 19:34:37","human","bayliff@bright.net","Valery Bayliff Futz",""
546,"Coyle Funeral Home","coylefuneralhome","","419-865-1295","1770 S. Reynolds Rd","","Toledo","OH",43614,"Met at NFDA- they contacted us","",50,"2010-10-20 18:47:50","2010-10-20 18:47:50","human","mcoyle-stamos@coylefuneralhome.com","Megan Coyle–Stamos",""
547,"Tom M Wages Funeral Services","wagesfuneralhome","Snellville Chapel Mgr","770-979-3200","3705 Highway 78 West","","Snellville","GA",30039,"Had our product and SOLD everything","",50,"2010-10-21 11:31:16","2010-10-21 11:31:16","human","chris@wagesfuneralhome.com","Chris Banks",""
548,"Alamogordo Funeral Home, Inc","alamogordofuneralhome","","575-434-5253","2301 First Street","","Alamogordo","NM",88310,"Contact via email","",50,"2010-10-21 12:40:42","2010-10-21 12:40:42","human","kenthouse@gwestoffice.net","Kent House/Lisa Durrett House",""
549,"Harmon Wright Mortuary","harmonwrightmortuary","","402-223-2341"," 623 Elk St","","Beatrice","NE",68310,"Met at NFDA 2010- Talked to Clark-interested","",50,"2010-10-22 10:12:18","2010-10-22 10:12:18","human","vaughn@diodecom.net","Vaughn Wright (man)",""
550,"Atlanticos Memorial Garden","atlanticosmemorialgarden","BRAZIL","85 3133 4500","","","","PW","","Av. Padre Antonio Tomas, 342
Aldeota Fortaleza-CE Brasil
60140-160

2 brothers- met at NFDA 2010- very nice/cute
Very Interested. Landing page creted and sent 10/22","",50,"2010-10-22 10:19:25","2012-11-29 23:58:20","human","giovani@atlanticosgarden.com.br","Giovani Garcez or Francisco",""
551,"SereniCare","serenicare","Utah","C-801-580-0076","1316 South 400 East","Suite A3","St. George","UT",84790,"Lowest priced funeral home in area- Has 9 facilities.- Used to selling out of catalog, but will have independent crematios center with large display-

He is a woodworker-loves the product
Met at NFDA 2010","",50,"2010-10-22 10:25:14","2010-10-22 10:25:14","human","mlane@serenicare.com","Lane B Smith (man)",""
552,"Clements Funeral Service","clementsfuneralservice","www.clementsfuneralservice.com","919-286-1224","1105 Broad Street","","Durham","NC",27705,"Met at NFDA 2010 -Cousins- very interested","",50,"2010-10-22 10:32:18","2012-02-18 21:06:55","human","tc8009@aol.com","Tripp or Travis Clements (cousins)",""
553,"Geisen Funeral Home","geisenfuneralhome","","219-663-2500","606 E. 113th Ave","","Crown Point","IN",46307,"met at nfda 2010- has 3 facilities plus
Geisen Pet Loss Ctr","",50,"2010-10-22 10:37:53","2010-10-22 10:37:53","human","geisenfuneral@gmail.com","Jean Lahm (woman)",""
554,"Geisen Pet Loss Center","geisenpetlosscenter","","2219-663-2500","606 E. 113th Ave","","Crown Point","IN",46307,"","",50,"2010-10-22 10:40:08","2010-10-22 10:40:08","pet","geisenfuneral@gmail.com","Jean Lahm",""
555,"'Til We Meet Again","tilwemeetagain","","316-945-0404","Towne West Square","4600 W. Kellogg, #802","Wichita, KS","PW",67209,"Meet at NFDA-
Store in Mall-looking for unusual items-LOves ours,
Opening several stores as well as a boutique in Portland OR","",50,"2010-10-22 10:47:04","2012-05-07 17:06:15","human","nathan@tilwemeetagain.net","Nathan Smith/owner, Traci/buyer",""
556,"Griffin Funeral Company","griffinfuneralcompany","","318-614-5831","7427 Cypress St","","West Monroe","LA",71291,"Introduced at the NFDA be Sandra Costello(insurance agent)-is looking for something different. CAlled-has flu-call back on Friday 10/22-set up landing page and sent email  w apology for being late on 10/22","",50,"2010-10-22 11:02:30","2010-10-22 21:37:36","human","kl.griffin@yahoo.com","Ken Griffin",""
558,"Palmer Bush and Jensen","palmerbushandjensen","","517-484-5349","520 E. Mt. Hope Ave.","","Lansing","MI",48910,"Met at NFDA 2010-Very interested","",50,"2010-10-22 11:10:24","2010-10-22 11:10:24","human","sjensen@palmerbush.com","Sue Jensen",""
559,"Mahar Funeral Home","maharfuneralhome","","802-442-2516","628 Main Street","","Bennington","VT",05201,"Met at NFDA 2010

His wife-Trisha-Loves the urns","",50,"2010-10-22 11:15:22","2010-10-22 11:15:22","human","epmahar@comcast.net","John Mahar",""
560,"A Special Touch Funeral and Cremation Service","aspecialtouchfuneralservice","","925-875-1343","11848 Dublin Blvd","","Dublin","CA",94568,"Met at NFDA 2010","",50,"2010-10-22 11:20:23","2010-10-22 11:25:45","human","sharon@aspecialtouchfuneralservice.com","Sharon Mace",""
561,"Waite and Son Funeral Homes","waiteandsonfuneralhomes","","330-225-1770","3300 Center Rd","","Brunswick","OH",44212,"Met at NFDA 2010","",50,"2010-10-22 11:23:16","2010-10-22 11:23:16","human","dlwbci@aol.com","Darrell Waite",""
562,"Taylor Funeral Home","taylorfuneralhome","","304-927-1540","406 Market Street","","Spencer","WV",25276,"Met at NFDA-clark talked to them and they loved product.  Wife's name is Connie","",50,"2010-10-22 11:30:01","2010-10-22 11:30:24","human","johnt@wirefire.com","John Taylor",""
563,"Wilson St. Pierre Funeral Service & Crematory","wilsonstpierre","","317-632-9431","1234 Prospect Street","","Indianapolis","IN",46203,"Met at NFDA 2010

Called-just ""getting back in the swing"" Send landin-Call next wkg page-10/22","",50,"2010-10-22 11:34:31","2010-10-22 11:34:31","human","pcs@wilsonstpierre.com","Paul St. Pierre",""
564,"Schrader Funeral Homes and Crematory","schraderfuneralhome","","636-227-5511","14960 Manchester Road at Holloway Road",""," Ballwin","MO"," 63011","","",50,"2010-10-22 20:30:37","2010-11-02 14:11:36","human","bjenkins@schrader.com","Bob Jenkins",""
565,"Wilmington Burial & Cremation Service","wilmingtonburialandcremationservice","","910-791-9099","1535 South 41st Street","P.O. Box 4415","Wilmington","NC","28406-4415","Met Doug at the NFDA-Liked products and told us to contact ""Brenda""-Out of town until 10/22","",50,"2010-10-23 12:31:00","2010-10-23 12:31:00","human","wbc@eastnc.twcbc.com","Brenda (Cahill?) /Doug Bevell-President",""
566,"Community Funeral Chapels","communityfuneralchapels","","203-334-9999","","","Bridgeport","CT","","met at NFDA-seemed interested, but did not return my call-sent letter w landing page on 10/23","",50,"2010-10-23 13:00:02","2010-10-23 13:00:02","human","funeraldirector@communityfuneralchapels.com","Brenda Ortiz",""
567,"Bittner Funeral Chapel","bittnerfuneralchapel","","605-996-2133","","","Mitchell","SD","","","",50,"2010-10-23 14:16:09","2010-10-23 14:16:09","human","bittnerfc@midconetwork.com","Michele Bittner",""
568,"Whitaker Funeral Home","whitakerfuneralhome","","803-276-5000","1704 College Street","","Newberry","SC",29108,"Christie loves them!","",50,"2010-10-23 14:31:06","2010-10-23 14:31:06","human","doggett@whitakerfuneralhome.com","Doggettt/ wife is Christie-talk to her",""
569,"A.J. Desmond & Sons","ajdesmondandsons","","","","","Detroit","MI","","Contact via email","",50,"2010-10-23 14:42:35","2010-10-23 14:42:35","human","pscbham@aol.com","Paul Desmond",""
570,"Hogan Bremer Moore","hoganbremermoore","","641-423-2372","","","Mason City","IA","","","",50,"2010-10-23 14:53:46","2010-10-23 14:53:46","human","hoganbremermoore@gmail.com","Dave Moore",""
571,"Horan & McConaty","horanandmcconaty","","John Horan","","","Aurora","CO",80014,"Guy in booth next to us-Jay Henrich-gave name","",50,"2010-10-23 15:10:53","2010-10-23 15:10:53","human","jhoran@horancares.com","",""
572,"Deiters Funeral Home & Crematory","deitersfuneralhome","www.deitersfuneralhome.com","309-745-5999","2075 Washington Rd","","Washington ","IL",61571,"Met Gary Deiters at NFDA 2011 Convention","",50,"2010-10-25 18:09:40","2011-11-01 03:22:59","human","stephanie@deitersfh.com","Stephanie",""
573,"Catawba Memorial Park, Funerals and Cremations","catawbamemorialparkfuneralsandcremations","","828-322-1210","3060 Highway 70 SE","P.O.Box 2924","Hickory","NC",28603,"no urns at present-stewart-under Chris Hammeil","",50,"2010-10-25 18:22:36","2010-10-25 18:22:36","human","wnoble@stei.com","Bill Noble",""
574,"Cremation Service Urns","cremationserviceurns","web store","641-423-2372","","","Mason City","IA","","Wants to put us as a link on his web store-also has funeral home in Iowa-Hogan, Bremer Moore","","","2010-10-27 14:49:44","2010-10-27 14:49:44","human","hoganbremermoore@gmail.com","Dave Moore",""
575,"Thibodaux Funeral Home","thibodauxfuneralhome","","985-446-8826","104 St. Patrick Hwy","","Thibodaux","LA",70301,"Nice guy- wife Mary loved our product as did he.  Said he was being bombarded with callers-but actually liked ours enough-said if I had not heard back from by mid Dec (before Xmas) call him back.","",50,"2010-11-02 14:24:51","2010-11-02 14:24:51","human","stephenkees@gmail.com","Stephen Kees",""
576,"Executive Enterprises","executiveenterprises","","504-818-8685","P.O.Box 4444","","Baton Rouge","LA",70821,"Clark thinks starting his own business-very secretive but interested","",50,"2010-11-02 14:46:45","2010-11-02 14:46:45","human","haroldjscott@yahoo.com","Harold Scott",""
577,"Prince of Peace Catholic Church","princeofpeace","","205-822-9125","4600 Preserve Pkwy","","Hoover","AL",35226,"Catholic church w columbarium and niches-offered contribution (other 50%)","",50,"2010-11-04 10:56:12","2010-11-04 10:56:12","human","espenang@bellsouth.net","Gail",""
578,"Carnes Brothers Funeral Home","carnesbrothersfuneralhome","","409-765-8080","","","Galveston","TX",77550,"","",50,"2010-11-04 17:37:09","2010-11-04 17:39:51","human","rustycarnes@aol.com","Rusty Carnes",""
579,"Brainard Funeral Home","brainardfuneralhome","","715- 845-5525     ","522 Adams Street","","Wausau","MI",54403,"","",50,"2010-11-04 17:51:57","2010-11-04 17:51:57","human","bfh@brainardfuneral.com","Scott Brainard",""
580,"Mackey  Mortuary","mackeymortuary","","864-232-6706","311 Century Dr","","Greenville","SC",29607,"Stewart Facility","",50,"2010-11-04 18:07:06","2010-11-04 18:07:06","human","dmcgee@stei.com","Matt Wesley/ David McGee",""
581,"Wilkerson Funeral Home","wilkersonfuneralhome","","336-349-4341","1909 Richardson Drive","","Reidsville","NC",27320,"very nice; family owned; eating ice cream; met at nfda 2010
10/10/12:  Ted called Clark in Sept explaining that no-one has shown interest in the AU urns,and wants Clark to take them back.  After NFDA in Charlotte, I drove to Reidsville and talked with Drew about situation and picked up display urns [ac].","",20,"2010-11-08 14:16:29","2012-10-10 23:45:02","human","ted@wilkersonfuneral.com","Ted Hopkins",""
582,"Midwest Cremation Service","midwestcremationservice","www.mcsofwi.com","608-635-7270","P.O. Box 220 ","","Poynette","WI","53955-0220","Lg pet crematorium including equine
01/02/13: Katie called asking what happens if their customer orders on line [ac].","",50,"2010-11-11 12:00:10","2013-01-02 21:44:28","pet","info@mcsofwi.com / katielblosser@yahoo.com","Katie Blosser",""
583,"Family Pet Cremation Center","familypetcremationcenter","","336-349-4341","","","","NC","","Ted works at Wilkerson Funeral Home and his brother Don, is opening this pet crematorium tody 11/11-first facitlity in the tristate area!","",20,"2010-11-11 14:06:31","2010-11-11 14:08:51","pet","ted@wilkersonfuneral.com","Ted /Brother DON is the pet crematorium contact",""
584,"Neptune Society of Northern CA","neptunesocietyofnorthernca","","925-451-5998","2419 Grove Way","","Castro Valley","CA",94546,"Stewart facility","",50,"2010-11-15 12:55:26","2010-11-15 12:55:26","human","cmontes@stei.com","Carey Montes",05514
585,"Royal Palm Memorial Gardens, Funeral Home & Crematory","royalpalmmemorialgardensfunerlahomeandcrematory","","","","","","FL","","Stewart Facility under Bob Simpson","",50,"2010-11-19 11:54:21","2010-11-19 11:54:21","human","dmacintosh@stei.com","Don MacIntosh",""
586,"Angel View Pet Cemetery and Crematory","angelview","","508-947-4103","Route 28","471 Wareham Street","Middleboro","MA",02346,"Sherry Silvia - General Manager","","","2010-12-13 21:31:45","2010-12-13 21:32:04","pet","","Bill Morgan",""
587,"Celebrative Art","celebrative","www.celebrativeart.com","419-524-1074","238 West Third St.","","Mansfield","OH",44903,"Tony Durtschi
Kala Minor","","","2010-12-17 16:14:34","2010-12-17 16:14:34","pet","anna@celebrativeart.com","Anna Marie",""
588,"Sweet Dreams In-home Pet Euthanasia","sweetdreams","","770-880-1596","5341 Old Hwy 5","Suite 206, #204","Woodstock","GA",30188,"Betsi's neighbor.  In home pet euthanasia.  Works with Atlanta Pet Cematory and offers clients the urns available through Atlanta Pet Crematory during her visits to clients.  Will be giving our brochures and have a link on her website.","",20,"2010-12-21 14:26:14","2010-12-21 14:26:30","pet","info@sweetdreamsmypet.com","Amy Crowder",""
589,"Grandstrand Funeral Home and Cremation Services","grandstrandfuneralhomeandcremationservices","","651-257-4000","","","Lindstrom","MN",55045,"",50,"","2011-01-12 19:23:49","2011-01-12 19:23:49","human","tom.wilson@grandstrandfh.com","Tom Wilson",""
590,"Downing and Lahey","downingandlahey","","316-682-4553","6555 E. Central","","Wichita","KS",67206,"","",50,"2011-01-27 17:34:03","2011-01-27 17:34:03","human","sterbensb@dlwichita.com","Bob Sterbens",""
591,"Meyer-Boehmer & Reis Funeral Home","meyer-boehmer","","937-223-9119","1733 Brown St.","","Dayton","OH",45409,"","","","2011-02-25 21:41:35","2011-02-25 21:41:35","human","","Darinda Reis",""
594,"Smith Pet Crematory","smithpetcrematory","","","","","","PW","","Made up distributor for demo purposes","","","2011-03-06 23:53:37","2012-02-18 20:35:56","pet","","",""
595,"Hummel Pet Services/Copley OH.","hummelpet","www.hummelpetservices.com","303-2471404","3475 Copley Rd. ","","Copley","OH",44321,"A division of Hummel FHs+crematories
FH has 2 locations
Missy -to see Paul Hummel President was at show
See Candice Bertemes Managing Director","","","2011-03-17 15:12:34","2011-03-17 15:12:34","pet","mjordan@hummelfh.cm","Missy Jordan",""
596,"J.Scott Early Funeral Home","jscottearly","www.earlyfuneralhome.com","905-878-2669","21 James Street","Milton Ontario L9T 2P3,"," Canada","CA","","","","","2011-03-17 18:02:33","2011-03-17 18:02:33","human"," earlyfuneralhome@cogeco.net","Rebecca Hunter",""
597,"Pet and Family Memories HAWAII","petmemorieshawaii","","803-224-6440","1347 Nuuanu Avenue","","Honolulu","HI",96817,"","","","2011-03-21 23:10:07","2011-03-21 23:10:07","pet","cckawamura@aol.com","Cindy Kawamura",""
598,"Pikes Peak Pet","pikespeakpet","www.pikespeakpetcrematory","719-650-9467"," 2523 Durango Dr.","","Colorado Springs","CO",80910,"","","","2011-03-22 15:26:45","2011-03-22 15:29:24","pet","kathy@pikespeakpetcrematory.com","Kathy Dickens",""
599,"Orr Animal Hospital","orr","","770-887-7112","1902 Old Atlanta Road","","Cumming","GA",30041,"","",25,"2011-03-29 17:09:46","2011-03-29 17:09:46","pet","","Chris",""
600,"Eubank Funeral Home","eubankfuneralhome","","903-887-3111","601 Texas Route 198","","Mabank","TX",75147,"Stewart facility - waiting on facility number","","","2011-04-09 18:34:30","2011-04-09 18:34:30","human","mwells@stei.com","",""
601,"Hodges Funeral Home","hodgesfuneralhome","","239-597-5825","525-111th Avenue North","","Naples","FL",34108,"","","","2011-04-12 22:37:02","2011-04-12 22:37:02","human","","Michael C. Whyte","SCI"
602,"National Cremation Society","nationalcremationsociety","","727-536-0494","4945 E. Bay Dr.","","Clearwater","FL",33764,"","","","2011-04-12 22:40:24","2011-04-12 22:40:24","human","bill.hartgrove@sci-us.com","William C. Hartgrove","SCI"
603,"Smith Funeral Home","smithfuneralhome","","800-554-9876","121 North Main St.","","Home town","PW",45332,"Made up distributor","","","2011-05-12 00:51:25","2012-02-18 20:36:36","human","bob@smithfunarel.com","Bob Smith",""
604,"Andrew J. McGann & Son Funeral Home","andrewjmcgannandson","","773-783-7700","10727 S. Pulaski Road","","Chicago","IL",60655,"","","","2011-05-23 12:50:35","2011-05-23 12:51:40","human","smurray@stei.com","Shelly Murray - Manager",13311
605,"Church-Archer-Pasley Funeral Home","churcharcherpasley","","816-781-2000","119 East Franklin St","","Liberty","MO",64068,"","","","2011-05-23 12:54:18","2011-05-23 12:54:18","human","rtymson@stei.com","Ralph Tymson - Manager",25317
606,"Hallinan Funeral Home","hallinanfuneralhome","","708-385-0850","2601 Vermont Street","","Blue Island","IL",60406,"","",50,"2011-05-23 13:01:24","2011-05-23 13:01:24","human","phernandez@stei.com","Phillip Hernandez - Manager",13312
607,"Zimmerman & Sandeman Funeral Home","zimmermansandemanoaklawn","","708-424-0340","5200 West 95th St.","","Oak Lawn","IL",60453,"Stewart Services","",50,"2011-05-23 13:34:36","2011-05-23 13:34:36","human","gsandeman@stei.com","Gregg Sandeman - Manager",13313
608,"Appleton Highland Memorial Park","appletonhighland","","920-733-6505","3131 N Richmond","","Appleton","WI",54911,"","","","2011-06-07 20:17:54","2011-06-07 20:17:54","human","","",49021
609,"Lake View Memorial Park","lakeviewmemorial","","920-236-2828","2786 Algoma Blvd.","","Oshkosh","WI",54901,"","","","2011-06-07 20:19:01","2011-06-07 20:19:01","human","","",49013
610,"Nicolet Memorial Gardens","nicolet","","920-468-0382","2770 Bay Settlement Road","","Green Bay","WI",54311,"","","","2011-06-07 20:20:16","2011-06-07 20:20:16","human","","",49031
611,"West Lawn Memorial Park","westlawnmemorial","","262-886-2400","9000 Washington Ave.","","Racine","WI",53406,"","","","2011-06-07 20:21:18","2011-06-07 20:21:18","human","","",49012
612,"Wisconsin Memorial Park","wisconsinmemorialpark","","262-781-7474","13235 W. Capitol Dr.","","Brookfield","WI",53005,"","","","2011-06-07 20:22:26","2011-06-07 20:22:26","human","","",49011
613,"Sharp Funeral Homes","sharpfuneralhomes","www.sharpfuneralhomes.com","810-629-9321","1000 Silver Lakes","","Fenton","MI",48430,"","","","2011-07-18 18:39:05","2011-07-18 18:39:05","human","mlind@sharpfuneralhomes.com","Martie Lind",""
614,"Hall-Wynne Funeral Service","hallwynnefuneralservice","http://www.hallwynne.com",9196886387,"1113 W. Main St.","","Durham","NC",27701,"Nancy Sparrow
Mike Pool
Mark Higgins","","","2011-07-21 14:40:01","2011-07-21 14:40:01","human","info@hallwynne.com","",""
616,"Perman Funeral Home","permanfuneralhome","http://www.frankrpermanfuneralhome.com/",4124863600,"923 Saxonburg Blvd","","Pittsburgh","PA","15223-1317","","","","2011-07-21 19:12:08","2011-07-21 19:12:08","human","frperman@verizon.net","Frank Perman",""
617,"Hamden Memorial Funeral Home","hamdenmemorialfh","hamdenmemorialfh.com","203-248-5668","1300 Dixwell Ave","","Hamden","CT",06514,"","","","2011-08-06 14:59:39","2011-08-06 14:59:39","human","drosiello@hamdenmemorialfh.com","Dawn Rosiello",""
618,"Bearden Funeral Home","bearden","www.beardenfuneralhome.com","706-265-3159","334 Highway 53 East ","P.O. Box 185","Dawsonville","GA",30534,"Sav. Show 8/21/11","","","2011-08-25 20:52:09","2011-08-25 20:52:09","human","beardenfuneralhome@windstream.net","Ted Bearden",""
619,"Homeward Bound Pet Memorial Center & Crematorium","homewardbound","www.homeward-bound-pet.com","719-636-1036","318 Karen Lane","","Colorado Springs","CO",80907,"","","","2011-09-30 19:01:18","2013-06-04 19:51:45","pet","homewardboundpetcrematorium@gmail.com","Gwen",""
621,"Henderson & Sons Funeral Home","hendersonfuneralhome","http://www.hendersonandsons.com/","706-234-5302","3002 Maple Rd","","Rome","GA",30161,"","","","2011-10-06 09:34:45","2011-10-06 09:34:45","human","","Barry Henderson",""
622,"Coggins Funeral Home","coggins","www.cogginsfuneralhome.com","706-647-9681","321 Hannah's Mill Road","","Thomaston","GA",30286,"Met at NFDA 2011 Convention; became partner 1 day after.","",50,"2011-10-27 15:50:25","2011-11-01 03:16:32","human","kennycoggins@hotmail.com","Kenny Coggins",""
623,"Cremation Society of Alaska","cremationsocietyalaska","www.alaskacremation.com","907-277-2777","7216 Lake Otis Parkway","","Anchorage","AK",99507,"10/25/11: Met Dominic at NFDA 2011 Expo [ac].
11/15/11: Sent Dominic landing page [ac].
12/09/11: Dominic called & ordered 10 acorns [ac].","","","2011-10-31 19:55:41","2011-12-12 18:52:34","human","alaskacremation@gmail.com","Dominic Hasara",""
624,"Messinger Mortuaries","messingermortuary","www.messingermortuary.com","480-945-9521","7601 E. Indian School Road","","Scottsdale","AZ",85251,"4 homes, 2 cemetaries, 2 crematories,1100 calls/yr Paul m. is owner. also have Entrusted Pet-talk to Marlo Hardy, Joe Ashford and Michelle [sm].
Met at NFDA 2011 Convention","","","2011-10-31 20:05:25","2012-11-30 00:06:28","human","derekbeach@gmail.com","Derek Beach",""
626,"Herberger's Elk Grove Funeral Chapel","herbergerselkgrove","www.elkgrovechapel.com","916-686-1888","9101 Elk Grove Blvd.","","Elk Grove","CA",95624,"Met at NFDA 2011 Convention
Family owned since 1931-3rd generation, 3 home, 1200 calls/yr. 70% cremation","","","2011-11-01 02:35:08","2012-05-16 16:20:25","human","belinda@elkgrovechapel.com","Craig Herberger",""
628,"Encore Funeral & Cremation Services","encorefuneralcremation","www.facebook.com/Encoredenver","303-935-5989","2390 S. Kalamath St., Unit A","","Denver","CO",80223,"Met at NFDA 2011 Convention","","","2011-11-01 02:48:11","2011-11-01 02:49:25","human","encorefuneralservice@gmail.com","Rhett Buckley",""
629,"Edwards Cremation & Funeral Services","edwardscremationfuneralsvc","www.edkalis.com","954-566-5564","1108 N. E. 23rd Drive","","Wilton Manors","FL",33305,"Met at NFDA 2011 Convention","","","2011-11-01 03:00:40","2011-11-01 03:00:40","human","ed@edkalis.com","Edward Kalis",""
631,"SouthCare Cremation Society","southcarealpharetta","www.southcarecremation.com","678-735-5500","2260 Old Milton Parkway","","Alpharetta","GA",30009,"Met Renee at NFDA 2011 Convention - she loves product.","","","2011-11-01 03:11:23","2011-11-01 03:11:23","human","rgazaway@southcarecremation.com","Renee Dougherty Gazaway",""
633,"Cecil M Burton Funeral Home & Crematory","cecilmburton","www.cecilmburtonfuneralhome.com","704-480-8383","106 Cherryville Road","","Shelby","NC",28150,"NFDA Show 10/28/11
Sold Acorns 10/31/11
11/14/11: Clark & Allen visited; had to meet with Debbie, Cecil had a death in family and was not available.  Debbie liked product, but was not the decision maker.  Cecil posted email address as cmbfh@yahoo.com, but Debbie had us change it.","","","2011-11-01 14:33:48","2011-11-15 12:10:53","human","cmbfh1@carolina.rr.com","Cecil Burton",""
634,"Grief Support International","gsijapan","http://www.griefsupport.co.jp/","03-5641-5466","#901, 12-17, Nihonhashi-Odenmacho","Chou-ku","Tokyo","PW","103-0011","Met at NFDA 2011 in Chicago.  Loves the product.  Sells to Funeral Homes in Japan and wants to import product into Japan.","","","2011-11-04 03:31:46","2012-11-29 23:57:43","human","ken.hashizume@griefuspport.co.jp","Kenichiro ""Ken"" Hashizume - CEO",""
635,"Pets Are Family Too","petsarefamily","www.petsarefamilytoo.net","800-452-1957","600 Holiday Plaza Dr., Suite 505","","Matteson","IL",60443,"11/11/04 Addition.  This is the pet side of Cremation Society of Illinois.  Lynn Elliott requested that we send a link for their pet side","","","2011-11-04 11:27:45","2011-11-04 11:27:45","pet","","",""
636,"Vertin Family Funeral Homes","vertinfuneralhomes","www.vertin.com","701-640-9454","501 Nebraska Avenue","","Breckenridge, MN","PW",56520,"Met at NFDA 2011 Expo.  Very professional, liked the product.  When asked about the number of calls they handle per year, he responded ""we own over 50 homes across the upper mid-west - we are a quiet company"". [AC]
  I followed up with Bob at Meadow Hills to find out more about Vertin, and he acknowledged they are a great company.  They have relationship with Leaha, their marketing manager.  Bob hinted to stay away from Shannon, ""the owner"", who is short on words and can be a quick NO. [AC]","","","2011-11-04 20:00:01","2012-03-23 18:18:34","human","don@vertin.com","Don Kiffmeyer",""
637,"Mattson Funeral Home","mattsonmn","www.mattsonfuneralhome.com","651-464-3556","343 N. Shore Dr.","","Forest Lake","MN","55025-1213","2011 NFDA-CANA Lead","","","2011-11-07 16:30:45","2011-11-07 16:30:45","human","info@mattsonfuneralhome.com","Kari Eberhardt",""
638,"Miller-Carlin Funeral Homes","millercarlin","www.millercarlin.com","320-252-7004","3013 Roosevelt Rd.","","St. Cloud","MN",56301,"4 Locations, loves the product, Speak to Bill and/or Leslie-owners","","","2011-11-07 16:38:08","2011-11-07 16:38:08","human","","Shannon Vadnie",""
639,"Carter-Ricks Funeral Homes","carterricks","www.cartericksfuneralhome.com","573-898-2181","107 South Fith Street","","Elsberry","MO",63343,"Friends of Bob & Annette Jenkins- NFDA 2011","","","2011-11-07 16:48:10","2011-11-07 16:48:10","human","carterricks@att.net","Larry & Kayla Carter",""
640,"Leavitt Funeral Home","leavitt","www.leavittfuneralhomewadesboro.com","704-694-2524","2036 Morven Rd.","P.O. Box 274","Wadesboro","NC",28170,"Chris spoke w/ Ken. Very interested but are rural with only a 20% cremation rate","","","2011-11-07 17:00:17","2011-11-07 17:00:17","human","kenc_leavitt@windstream.net","Ken Caulder",""
641,"Brunswick Memorial Home","brunswickmemorialhome","www.brunswickmemorialhome.com","732-254-9393","P.O. Box 7149","","East Brunswick","NJ","08816-7149","wouldn't divulge calls/yr. Wife from Ptree city,GA. Mike went to Auburn","","","2011-11-07 17:11:21","2011-11-07 17:11:21","human","mkulbacki@brunswickmemorialhome.com","Micheal Kulbacki",""
642,"Phillips Memorial Home, Inc.","phillipsmemorialhome","www.phollipsmemorial.co","315-769-3549","64 Andrews Street","","Massena","NY",13662,"Met on bus ride to expo, three homes","","","2011-11-07 17:41:26","2011-11-07 17:41:26","human","pmh@twcny.rr.com","David Frary",""
643,"Miller Funeral Homes, Inc.","millerfuneralhomes","www.millerfuneralhomes.com","585-424-3700","3325 Winton Road South","","Rochester","NY",14623,"400 call/yr, 35-40% cremation rate. Josh Miller -owner","","","2011-11-07 17:45:28","2011-11-07 17:45:28","human","joemartin@millerfuneralhomes.com","Joe Martin",""
644,"DeJohn Pet Services","dejohnpetservices","www.dejohncares.com","216-658-9010","28890 Chardon Road","","Willoughby Hills, ","OH",44092,"a division of DeJohn-Flynn-Mylott Funeral Homes and Crematory","","","2011-11-07 17:58:38","2011-11-07 17:58:38","pet","rcapretta@dejohncares.com","Rick Capretta",""
645,"McClendon-Winters","mcclendonwinters","www.mcclendon-winters.com","918-756-1677","1926 E. 9th Street","","Okmulgee","OK","74447-5406","""2 1 satelite 20% cremation rate contact number "" Donna Prior""","","","2011-11-07 18:03:32","2011-11-07 18:03:32","human","nicolewinters@sbcglobal.net","Nicole Winters",""
646,"Panebaker Funeral Home","panebaker","www.panebakerfuneralhome.com","717-637-5194","311 Broadway","","Hanover","PA","17331-2505","1 home","","","2011-11-07 18:07:48","2011-11-07 18:07:48","human","panebakerfh@aol.com","Mike Newman",""
647,"Bartron-Myer Funeral Home, Inc.","bartronmyerinc","www.bartronmyerfuneralhome.com","570-278-8100","382 Church Street","","Montrose","PA",18801,"125 calls/yr  cremation rat ??%. Likes to sell products $100 over cost, but won't do that with artisan products","","","2011-11-07 18:13:22","2011-11-07 18:13:22","human","greg@bartronmyerfuneralhome.com","Gregory L. Myer",""
648,"Hooper-Huddleston & Horner Algood Chapel","hooperhuddlestonhorner","www.hhhfunerals.com","931-526-6111","59 North Jefferson Ave","","Cookeville,","TN","38501-3329","","","","2011-11-07 18:22:42","2011-11-07 18:22:42","human","jillhorner@hhhfunerals.com","Jill Horner",""
649,"O'Connell Family Funeral Homes and Cremation Services, Inc","oconnellfamilyfuneralhomes","www.oconnellfuneralhomes.com","715-684-3434","520 11th Street S.","","Hudson","WI","54016-2149","","","","2011-11-07 18:27:31","2011-11-07 18:27:31","human","info@funeralhomes.com","Micheal O'Connell",""
650,"Proko Funeral Home","proko","www.prokofuneralhome.com","262-654-3533","5111 60th Street","","Kenosha","WI",53144,"","","","2011-11-07 18:30:17","2011-11-07 18:30:17","human","scott@prokofuneralhome.com","Scott J. Pelky",""
651,"Cline & Hansen Funeral Home","clinehansen","www.clinehansenfuneralhome.com","920-596-2500","209 W. Cook Street","","New London","WI","54961-1436","","","","2011-11-07 18:45:50","2011-11-07 18:45:50","human","kent@clinehansenfuneralhome.com","Kent Rusch",""
652,"Davis Funeral Home and Crematory","davisfuneralhomewy","www.thedavisfuneralhome.com","307-856-3217","2203 West Main Street","","Riverton","WY",82501,"330 calls/yr  60%cremation rate","","","2011-11-07 18:49:38","2011-11-07 18:49:38","human","davisfh@wyoming.com","Jamey L. Kirkland",""
653,"Eternalight Memorials","eternalightmemorials","www.eternalightmemorials.com","515-570-4808","18818 Henry Ct.","","Lansing, ","IL",60438,"cremations-green burials. planning to start pets in the future","","","2011-11-07 18:54:47","2011-11-07 18:54:47","human","eternalightmemorials@gmail.com","Nathan C. Harvey",""
654,"Phillips & Meyers","phillipsandmeyers","www.phillipsandmeyers.com","765-647-5311","P.O. Box 203","","brookville","IN",47012,"Loves the urns. Fritz is decision maker","","","2011-11-07 18:59:47","2011-11-07 18:59:47","human","ucme2rip@gmail.com","Marsha",""
657,"Greer's Mortuary","greersmortuary","www.greersmortuary.com","928-289-3335","316 W. Second Street","","Winslow","AZ","86047-3407","2 locations, loves the urns, in Sedona area and would sell very well
10/28/11: Royce came by booth at NFDA Expo [ac].","","","2011-11-07 19:14:36","2012-02-18 20:52:42","human","winslow@greersmortuary.com","Royce Greer",""
658,"Graham-Hitch Mortuary","grahamhitchmortuary","www.graham-hitchmortuary.com","925-846-5624","4167 First Street","","Pleasanton","CA",94566,"Clark met with Wes   ""we will close this deal""
Met at NFDA 2011 Convention - *","","","2011-11-07 19:19:05","2012-05-16 16:14:13","human","wesfisher@grahamhitch.com","Wesley D. Fisher",""
659,"Ducro Services, Inc.","ducroserviceshuman","www.ducro.com","440-992-2191","4524 Elm Ave.","","Ashtabula","OH",44004,"Chris spoke to jeffrey...since 1857. purchase desision maker is J.P. Ducro, owns cemetaries. 300call/yr and 300 call for pets/yr.","","","2011-11-07 19:40:28","2011-11-07 19:40:28","human","jeffrey@ducro.com","Jeffrey@ducro.com",""
660,"Ducro Services, Inc.","ducroservicespet","www.ducro.com","440-992-2191","4524 Elm Avenue","","Ashtabula","OH",44004,"300 calls/ yr. J.P. is purchase decision maker","","","2011-11-07 19:43:14","2011-11-07 19:43:14","pet","jeffrey@ducro.com","Jeffrey Hathy",""
661,"Smith & Thomas Funeral Home","smithandthomasil","","708-216-0199","212 N. 2nd. Ave.","","Maywood","IL",60153,"Cremation growing, wants something better","","","2011-11-08 15:57:43","2011-11-08 15:57:43","human","itwin@att.net","Ilene Johnson",""
662,"Fitzgerald Funeral Home & Crematory LTD.","fitzgeraldfhandcltd","www.fitzgeraldfh.com","815-226-2273","3910 N. Rockton Ave.","","Rockford","IL",61103,"2 Homes, largest in Rockford","","","2011-11-08 16:02:33","2011-11-08 16:02:33","human","brianm@fitzgeraldfuneralhome.com","Brian Michalski",""
663,"Henderson Funeral Home LTD.","hendersonfhltd","www.hendersonfuneralcare.com","309-347-4157","420 Walnut Street","","Pekin","IL",61554,"140 calls/yr...60% cremation","","","2011-11-08 16:11:05","2011-11-08 16:11:05","human","info@hendersonfuneralcare.com","Rodney Wamsley",""
664,"Springdale Cemetary","springdalecemetaryil","www.springdalecemetary.com","309-681-1400","","","Peoria","IL","","","","","2011-11-08 16:16:40","2011-11-08 16:16:40","human","jon@springdalecemetary.com","Jon Austin",""
665,"Broadway Mortuary","cozinememorialgroup","www.cozinememorial.com","316-262-3435","1147 S. Broadway","","Wichita, KS","PW",67211,"see notes on card/ 2 locations
10/29/13: Bill visited booth at NFDA in Austin.  Need to follow up [ac].","","","2011-11-08 16:22:09","2013-10-29 14:43:07","human","wlc@cozinememorial.com","Bill Cozine - Owner",""
666,"Fagen-Miller Funeral Homes","fagenmillerfh","www.fagenmiller.com","219-838-4824","2828 Highway Avenue","","Highland","IN",46322,"4 locations-250 call/yr-45% cremation","","","2011-11-08 16:28:52","2011-11-08 16:28:52","human","fagenmiller@jorsm.com","Steve Clements",""
667,"Langeland Family Funeral Homes","langelandffh","www.langelands.com","262-343-1508","622 S. Burdick Street","","Kalamazoo","MI",49007,"6 locations-1000 calls/yr-50% cremation","","","2011-11-08 16:47:42","2011-11-08 16:47:42","human","obits@langelands.com","Dann A. Klaassen",""
668,"Putnam Funeral Home","putnamfhmi","","517-617-2321","","","Coldwater","MI","","Josh is a student getting ready to go into bus.- Mike Pomante is director","","","2011-11-08 16:53:39","2011-11-08 16:53:39","human","jflemingbbr@yahoo.com","Joshua Fleming",""
669,"Czopek Funeral Home, Inc.","czopekfhinc","www.czopekfuneraldirectors.com","734-285-9000","2157 Oak Street","Corner 22nd Street","Wyandotte","MI",48192,"2 homes-do we have exclusive? No...2011 NFDA","","","2011-11-08 16:58:51","2011-11-08 16:58:51","human","info@czopekfuneraldirectors.com","John Michalak",""
670,"Brainard Funeral Home & Cremation Center","brainardfhcc","www.brainardfuneral.com","715-845-5525","522 Adams St.","","Wausau","WI",54403,"2--11 NFDA - 2 locations","","","2011-11-08 17:02:52","2011-11-08 17:02:52","human","","Carrie Hartleben",""
671,"Lynch & Sons Funeral Directors","lynchsonsfd","www.lynchfuneraldirector.com","248-684-6645","404 E. Liberty Street","","Milford","MI",48381,"3 locations","","","2011-11-08 17:06:17","2011-11-08 17:06:17","human","","Ken Kutzli",""
672,"White Chapel Memorial Cemetary","whitechaplememc","www.whitechapelcemetary.com","248-362-7670","621 W. Long Lake Rd.","","Troy","WI",48098,"2011 NFDA","","","2011-11-08 17:09:17","2011-11-08 17:09:17","human","","David Krall",""
673,"Peeples Funeral Home, Inc.","peeplesfhinc","www.peeplesfuneralhome.net","706-695-4634","208 South Third Ave.","","Chatsworth","GA",30705,"2011 NFDA","","","2011-11-08 17:14:56","2011-11-08 17:14:56","human","","Jerry Herndon",""
674,"McPeek-Hoekstra Funeral Home","mcpeekhoekstrafh","www.mcpeekhoekstra.com","740-587-0161","133 South Prospect Street","","Granville, OH","PW",43023,"Added 11/21/11.  Bill emailed inquiry on products and distribution.  Likes the acorn and the uniqueness of product.","","","2011-11-21 18:42:42","2012-03-23 17:40:15","human","mcpeekhoekstra@roadrunner.com","Bill Hoekstra - Owner",""
675,"McPeek-Hoekstra Pet Crematory","mcpeekhoekstrapc","www.mcpeekhoekstra.com","740-587-0161","133 South Prospect Street","","Granville, OH","PW",43023,"Added 11/21/11.  The Pet site for McPeek-Hoekstra Funeral Home","","","2011-11-21 18:47:15","2012-03-23 17:40:50","pet","mcpeekhoekstra@roadrunner.com","Bill Hoekstra - Owner",""
676,"Lee Thomas Studios","leethomasstudios","","770-373-4501","103 Dixie Dr. Suite B","","Woodstock","GA",30189,"","","","2012-01-10 22:23:42","2012-01-10 22:23:42","human","lee@leethomasstudios.com","Lee Thomas",""
677,"Evergreen Burial Park","evergreenburialpark","www.evergreenburialpark.com","540-342-2593","1307 Summit Avenue, SW ","","Roanoke, VA","PW",24015,"10/26/11: Don sent inquiry to our website asking for information [ac].
01/11/12: I spoke w-Don, created landing page and mailed brochures [ac].","","","2012-01-11 20:27:34","2013-10-01 16:21:20","human","dwilson@evergreenburialpark.com","Don Wilson",""
678,"Mortech Industries New Zealand Ltd","mortechindustries","www.mortech.co.nz","+64 7 848 1692","16/21 Railside Place","Frankton, Hamilton 3204","New Zealand","PW",3204,"10/29/11: Visited our booth at NFDA Expo in Chicago [ac].
01/13/12: Created landing page and emailed [ac].","","","2012-01-13 18:12:49","2012-01-13 19:06:42","human","","Adrian Featherstone",""
679,"Top Dogs Pet Boutique","topdogs","www.TopDogsPetBoutique.com","770-641-8620","900 Mansell Road","","Roswell","GA",30076,"01/17/12: Met Brittany on cold call.  Clark had met owner, Suzette, 5 years ago when she had first opened.
01/17/12: Set up and sent Brittany landing page","","","2012-01-17 19:35:56","2012-01-17 19:41:21","pet","info@topdogs.net","Brittany (Manager - Roswell)",""
680,"Snyder's Memorial Gardens","snydersmemorialgardens","www.snydersmemorialgardens.com","(423) 477-7911","5913 Kingsport Highway","","Gray, TN","PW",37615,"01/31/12:  Visited Snyder's FH from a referral from Gregg ?? @ ?? FH in Johnson City, TN.  David is a one man band since his father passed a year ago.  He agreed to display our acorns only.","","","2012-02-02 15:09:39","2012-02-18 14:58:15","human","info@snydersmemorialgardens.com","David Snyder",""
681,"Morris-Baker Funeral Home","morrisbaker","www.morrisbaker.com","(423) 282-1521","2001 Oakland Avenue","","Johnson City, TN","PW",37601,"01/31/12: Cold called on Morris-Baker and met with Greg Harris, Asst.Mgr. Greg likes urns, and wants us to make appt with his boss, Calvin James [ac].","","","2012-02-02 16:21:13","2012-02-18 14:58:55","human","info@morrisbaker.com","Calvin James",""
682,"Groce Funeral Home & Cremation Service","grocefuneralhome","www.grocefuneralhome.com","828-252-3535","1401 Patton Avenue","","Asheville, NC","PW","28806-1793","02/01/12: Cold called on Groce and met with Dale.  He likes products, currently sells a local wood turners urn - Joey Stevens.  Receptive to having a AU landing page sent to him and for us to follow up [ac].","","","2012-02-02 16:41:59","2012-02-18 20:43:00","human","info@grocefuneralhome.com","Dale Groce",""
683,"Thos. Shepherd & Son Funeral Directors","thosshepherd","www.thosshepherd.com","828-693-3435","125 South Church Street","P. O. Box 765","Hendersonville, NC","PW",28793,"02/01/12: Scott Sanderford referred Shepherd & Son to Clark last summer saying it would be well worth the time to get this account.  We cold called trying to see Melody.  She was busy, so we spoke with Kevin Mukosiej who loved the product.  We got approval to create landing page and send to Kevin in hopes of presenting to Melody in future [ac].","","","2012-02-02 21:23:14","2012-02-18 20:41:28","human","director@thosshepherd.com","Melody Shepherd",""
684,"Service Corporation International","sci","","","","","","TX","","","","","2012-02-03 20:35:08","2012-02-03 20:35:08","human","","Tia Thomas",""
685,"J. Henry Stuhr Funeral Chapel and Crematory","jhenrystuhr","www.jhenrystuhr.com","843-723-2524","232 Calhoun Street","","Charleston, SC","PW",29401,"02/10/12: Met Bob at SCFDA Expo in Columbia, SC.  Bill Simpson brought Bob to our booth.  Created landing page and mailed to Bob and Kate Darby [ac].
02/16/12: Spoke with Kate.  Bob left her in charge of getting the product on board.  She needs to speak with 5 key FD's to get it accepted.  She wants AU to market it through Hecox-Goodwin, and asked that I speak with Julie Lee.  F/U: c/b Kate on 02/22/12 [ac].","","","2012-02-10 20:56:40","2012-02-22 14:15:06","human","bparks@jhenrystuhr.com","Bob Parks",""
686,"Boles Funeral Home & Crematory","bolesfuneralhome","www.bolesfuneralhome.com","(910) 692-6262","425 W. Pennsylvania Avenue","","Southern Pines, NC","PW",28387,"02/08/12: Met James at SCFDA Expo in Columbia, SC [ac].
Added as prospect 02/13/12[ac].","","","2012-02-13 21:52:59","2012-02-18 20:42:01","human","jboles@bolesfuneralhome.com","James Boles - Founder ",""
687,"Joseph A. Strickland Funeral Homes","stricklandfh","www.stricklandfh.com","(706) 376-3901","305 Cleveland Avenue","","Hartwell, GA","PW",30643,"Added as prospect 02/14/12.  Clark ran into Arnold at the Mrs. Bailey's funeral in Hartwell, and Arnold recognized Clark from the show in Savannah, GA last summer.  Arnold liked the urn Clark was carrying for the Baileys [ac].
02/15/12:  Called on Arnold as follow up.  Met Susan who loves the urns.  Arnold likes the urns, but gave a flat NO based on our pricing.  Will consider the acorns.  Need to follow up by phone 02/22/12 [ac].","","","2012-02-14 17:16:06","2012-02-18 20:38:40","human","stricklandfh@hotmail.com","Arnold Strickland",""
688,"The McDougald Funeral Home & Cemeteries","mcdougaldfh","www.mcdougaldfuneralhome.com","864-224-4343","2211 N. Main Street","P.O. Box 499","Anderson, SC","PW",29622,"02/08/12:  Eddie Kerr visited our booth at SCFDA Expo [ac].
Added as prospect 02/15/12 [ac].
02/15/12: Sales call, spoke with Eddie who pointed me to pitch our urns to Doug, III [ac].","","","2012-02-15 11:52:54","2012-02-18 20:58:05","human","info@mcdougaldfuneralhome.com","Eddie Kerr",""
689,"Harris Funeral Home & Cremation Service","harrisfh","www.harrisfuneral.com","864-366-4027","302 North Main Street","P.O. Box 549","Abbeville, SC","PW",29620,"02/08/12: Brad visited our booth at SCFDA Expo per Greg Dunbar's request [ac].
02/15/12: Added as prospect to create landing page.
02/16/12: Called to visit, but Brad busy with 2 families [ac].","","","2012-02-15 12:09:30","2012-02-18 21:00:24","human","","Brad Evans, Owner",""
690,"Gray Funeral Home","grayfh","www.grayfuneralhome.com","864-833-0427","504 East Carolina Avenue","","Clinton, SC","PW",29325,"Added 02/15/12.  Randy Roof and Patsy Deitz visited our booth at SCFDA Expo on 02/07/12.  Spoke with Randy on 02/10/12 and he directed me to Ralph Patterson, the owner [ac].
02/16/12:  Called on Gray FH unannounced, and met with Ralph.  He was not interested in our urns - ""too expensive"".  The cremation rate is less than 10% and they are all about economic issues.  May have an interest in Acorn [ac].","","","2012-02-15 12:25:30","2012-02-18 14:56:58","human","info@grayfuneralhome.com","Ralph Patterson",""
691,"Parker-White-Pruitt Funeral Homes","parkerwhitepruitt","www.parkerwhitepruitt.com","864-369-2461","603 North Main Street","","Honea Path, SC","PW",29654,"02/08/12:  Joe, III visited our booth at SCFDA Expo, and really liked our urns.  They have 2 locations - 2nd is in Ware Shoals,SC [ac].
02/15/12: Added as prospect to create landing page [ac].
02/16/12: Spokw with Joe,Jr. and Joe, III.  They are redoing their cremation marketing and considering our product [ac].","","","2012-02-15 12:41:06","2012-02-18 21:03:00","human","","Joe White",""
692,"Blyth Funeral Home & Cremation Services","blythfh","www.blythfuneralhome.com","864-223-2223","1425 Montague Avenue","P.O. Box 6","Greenwood, SC","PW",29648,"Added 02/15/12.  Susan visited our booth at SCFDA Expo on 02/08/12, and loves product.  She handles pre-need and advised Clark to see Steve [ac].
02/16/12: Called on Blyth unannounced, and I spoke with Earl, one of the FD's.  Susan was busy with a family, and Steve had to meet a family in the field, although, I did speak with him for a moment.  Earl loved the wood urns, and commented that they are not afraid to move high end products.  Need to call for appt w/Steve [ac].","","","2012-02-15 12:48:18","2012-02-18 14:57:25","human","sbarker@blythfuneralhome.com","Susan Barker",""
693,"Heritage Family Management","heritagefamilymgt","www.heritagefamily.com","(423) 543-4559x7902","P. O. Box 730","","Elizabethton, TN","PW",37644,"10/11/11: Clark identified as target prospect [ac].
01/31/12: Visited Elizabethton and presented to Mark.  He was impressed w-product and company.  To meet with Richard Tetrick and should get approval to try us in a couple locations [ac].
Added 02/20/12 to create landing page [ac].","","","2012-02-20 16:07:03","2012-02-20 16:07:03","human","mark@heritagefamily.com","Mark Aaroen",""
694,"Shuler Funeral Home","shulerfh","www.shulerfuneralhome.com","(828) 693-5220","125 Orr's Camp Road","","Hendersonville, NC","PW",28792,"02/08/12: Referral from Thomas McDonald, Triangle Atlantic Casket rep, who I met at SCFDA Expo [ac].
02/16/12: Called on Kenneth.  He immediately mentioned that Jim Altmeyer has an exclusive agreement with Batesville.  He likes the acorn, and thinks their pet crematory can sell our product [ac].
02/20/12: Set up landing page as prospect [ac].","","","2012-02-20 18:27:57","2012-02-20 18:27:57","human","director@shulerfuneralhome.com","Kenneth Brain",""
695,"The Howze Mortuary","howzemortuary","www.thehowzemortuary.com","(864) 834-8051","6714 State Park Road","P.O. Box 369","Travelers Rest, SC","PW",29690,"02/08/12: Met Raymond and Nicole at SCFDA Expo.  Raymond committed to purchasing 1 keepsake urn and 3 acorns at show, but we insisted we would bring to him next week [ac].
02/15/12: Called unannounced and missed Raymond.  Spoke with Steve, who loves product [ac].
02/16/12: Phoned Raymond to try and visit.  Raymond tied up.  Need to arrange earliest time to come back [ac].
02/20/12: Created landing page as a prospect acct [ac].","","","2012-02-20 18:34:33","2012-02-20 18:34:33","human","info@thehowzemortuary.com","Raymond Brown, Owner",""
696,"Hecox Goodwin, LLC","hecoxgoodwin","www.hecoxgoodwin.com","843-376-2166","115 Trigard Lane","","Summerville, SC","PW",29843,"02/22/12: They are a wholesale distributor for the Carolina low country.  Was referred to HG by Kate Darby at Stuhr; they buy all their products through them.  Set up landing page for Julie to see how it works with our FH [ac].","","","2012-02-23 21:02:53","2012-02-23 21:02:53","human","julie@hecoxgoodwin.com","Julie Lee",""
697,"Mayer Funeral Home & Cremoratorium","mayerfh","www.mayerfuneralhome.com","(843) 546-4184","222 St. James Street","P.O. Box 2938","Georgetown, SC","PW",29442,"02/08/12: Pennay vistited our booth at SCFDA Expo.  2nd location in Andrews, SC.  Gave her an AU Acorn and committed to creating landing page and emailing it to her [ac].
02/24/12: Created landing page [ac].","","","2012-02-24 12:50:25","2012-02-24 12:54:08","human","pennay@mayerfuneralhome.com","Pennay Mayer Brown",""
698,"Living Waters Funeral Home & Crematory","livingwatersfh","www.livingwatersfh.com","(864) 439-7141","529 Spartanburg Hwy. S.","","Lyman, SC ","PW",29365,"02/08/12: Met at SCFDA Expo.  Likes our urns [ac].
02/27/12: Created landing page as f-u to expo [ac].","","","2012-02-27 15:47:04","2012-02-27 15:47:04","human","padpatterson@gmail.com","Paula Patterson, Owner",""
699,"Wolfe Funeral Home","wolfefh","www.wolfefuneralhome.com","(803) 547-7575","314 Spratt Street","","Fort Mill, SC","PW",29715,"02/08/12: Met at SCFDA Expo [ac].
02/27/12: Created landing page as f-u to Expo [ac].","","","2012-02-27 16:08:10","2012-02-27 16:08:10","human","laura@wolfefuneralhome.com","Laura Roberts, FD",""
700,"Robinson Funeral Home","robinsonfh","www.robinsonfuneralhomes.com","(864) 859-4001","104 South 1st Street","","Easley, SC","PW",29640,"02/08/12: Steve Culbertson visited our booth at SCFDA Expo [ac].
02/16/12: Cold called on Easley Downtown facility, and spoke with Bannie [ac].
02/27/12: Created landing page to f-u with Chris Robinson [ac].","","","2012-02-27 17:02:42","2012-02-27 17:04:00","human","bannister@robinsonfuneralhomes.com","Bannister Eads, Co-Manager, Downtown",""
701,"Fairchild Sons Funeral Home","fairchildsons","www.fairchildfuneral.com","(516) 746-0585","1201 Franklin Avenue","","Garden City, NY","PW",11530,"Added 03/14/12 as part of follow up to Valerie's online inquiry for information.  Her boss came back from NFDA Expo in Chicago with an engraved acorn and they are revamping their cremation merchandising [ac].","","","2012-03-14 14:51:57","2012-03-14 14:51:57","human","vg@fairchildfuneral.com","Valerie",""
702,"Palm Mortuaries, Cemeteries & Crematories","palmmortuary","www.palmmortuary.com","702-464-8440","800 South Boulder Hwy.","","Henderson, NV","PW",89015,"03/19/12: They visited our booth at ICCFA Expo and asked that we send information to Kelley, the NW GM and Teresa Correa, the Eastern GM [ac].
03/23/12:  Created landing page and emailed PP [ac].
NOTE: They own 7 funeral homes, handle 5000 calls per year and have a 70% cremation rate.  Other website is www.dignitymemorial.com ","","","2012-03-23 01:57:20","2012-03-23 17:31:43","human","joseph.palmer@palmmortuary.com","Joseph Palmer, Manager",""
703,"Joseph Gawler's Sons, Inc.","gawlers","www.josephgawlers.com","202-966-6400","5130 Wisconsin Ave. NW","","Washington","DC",20016,"03/19/12: Gained appt to meet with Terry through referral from Bill Simpson [ac].
03/27/12: Met with Terry and his staff and set them up as distributor.
 - All FS urns must include finial & LP tops and reliquary.
 - Wants to stock Fine Art pieces so they can price at will.","","","2012-03-23 12:01:42","2012-03-30 15:11:19","human","terence.shotkoski@sci-us.com","Terry Shotkoski, President",""
704,"Frank E. Campbell, The Funeral Chapel","frankecampbell","www.frankecampbell.com","212-288-3500","1076 Madison Ave. at 81st Street","","New York ","NY",10028,"03/19/12: Gained appt. to meet through Bill Simpson.  Per Bill: see Dominic Corella, V.P., but be careful with President, Georgia Amato (he can be tough to deal with).  They do about 800 calls per year with 60-70% cremation rate, and get an average of $18k per cremation [ac].","","","2012-03-23 12:15:35","2012-04-02 15:19:15","human","","Dominic Corella, V.P.",""
705,"Florida Cremations Services","floridacremations","www.floridacremationservicesllc.com","786-507-7288","12830 NW 42nd Ave","","Opalocka, FL","PW",33054,"03/19/12:  Visited our booth at ICCFA Expo.  Spanish speaking, but loves the urns [ac].","","","2012-03-23 15:44:02","2012-03-23 15:44:02","human","yolieda.calderon@floridacremationservicesllc.com","Yoleida Calderon, Founder",""
706,"Lake Ridge Chapel & Memorial Designers","lakeridgechapel","www.memorialdesigners.net","806-698-8085","6025 82nd Street","","Lubbock, TX","PW",79424,"03/21/12: Santos was referred to us by Meadow Hill, and visited our booth at ICCFA Expo.  He agreed to stock our product, with the understanding that we will buy it back if it does not sell [ac].
03/23/12: Created landing page and email PP [ac].","","","2012-03-23 17:35:54","2012-03-23 17:35:54","human","santos3@sbcglobal.net","Santos Morena, Owner",""
707,"Local Cremation","localcremation","www.localcremation.com","214-343-4040","8499 Greenville Ave.","Suite 107","Dallas, TX","PW",74231,"03/20/12:  Wendell was referred to us through David at Meadow Hill.  He visited our booth at ICCFA Expo and committed to a display package [ac].
03/23/12: Created landing page and emailed PP to close [ac].","","","2012-03-23 18:04:14","2012-03-23 18:04:14","human","wcox@localcremation.com","Wendell Cox",""
708,"Veterinary Referral Cremation Services","vrcs","www.vrcs.ca","613-732-3845","905 Pembroke Street East","","Pembroke, ON, Can","PW","K8A 3M3","03/20/12: Mike visited our booth at ICCFA Expo and recognized our product.  His predessessor used to sell AU urns, but never told anyone who we were.  VRCS does 500 cremations annually and sells an urn with everyone.  They deal with 70 vets in their area [ac].
03/23/12: Created landing page and emailed PP [ac].","","","2012-03-23 18:22:27","2012-03-23 18:24:05","pet","mike@vrcs.ca","Mike Anyotte",""
709,"Schoedinger Pet Services","schoedingerpet","www.schoedinger.com","(614) 224-6105","229 E. State Street","","Columbus, OH","PW",43215,"03/20/12: Met Roberta at ICCFA seminar.  She recently hired with Schoedinger, but was previously employed with Hillcrest-Flynn Pet and sold AU urns [ac].
03/26/12: Created Schoedinger Pet landing page [ac].
","","","2012-03-26 18:24:31","2012-03-26 18:24:31","pet","rknauf@schoedinger.com","Roberta Knauf",""
710,"Palm Mortuary","palmmortuarylasvagas","","702-464-8550","","","","NV","","","","","2012-04-03 16:42:19","2012-04-03 16:46:50","human","","Kelly Browder",""
711,"Lake Ridge Chaple & Memorial Designers","memorialdesigners","memorialdesigners.net","806-698-8085","6025 82nd. Street","","Lubbock","TX",79424,"","","","2012-04-19 20:57:24","2012-04-19 20:57:24","human","","Santos Moreno",""
712,"Turner and Porter Funeral Directors","turnerporter","www.turnerporter.ca","(905) 828-8000","1981 Dundas St. W","","Mississauga, ON, CA","PW","L5K 1R2","05/08/12: Turner & Porter is Master Craft Casket's largest customer and Bill Simpson gave us the referral.  Clark spoke to Neil and was given permission to send landing page [ac].
05/16/12:  Sent email w-landing page [ac].","","","2012-05-08 15:36:08","2012-05-16 19:22:50","human","neilv@turnerporter.ca","Neil Verburg (sp?)",""
713,"Geo. H. Lewis & Sons Funeral Directors","geohlewis","www.geohlewis.com","(713) 789-3005","1010 Bering Drive","","Houston, TX","PW",77057,"05/09/12: Developed and sent landing page [ac].","","","2012-05-09 16:50:22","2012-05-09 16:50:22","human","billy.wells@dignitymemorial.com","Billy Wells",""
714,"Kingwood Funeral Home","kingwoodfh","www.kingwoodfuneralhome.com","281-358-9005","22800 Highway 59 North","","Kingwood, TX","PW",77339,"05/22/12: added landing page [ac].","","","2012-05-22 14:34:28","2012-05-22 14:35:22","human","marcie.fitzgerald@dignitymemorial.com","Marcie Fitzgerald",""
715,"Devoted Pet Cremations & Memorials","devotedpets","www.devotedpets.com","281-370-7008","P.O.Box 37131","7012 Belgold St.","Houston, TX","PW","77237-0131","05/20/12: Britt & Will Schroeter purchased from Bob Boettinger in 2011.  Will is a FD for SCI at Earthman Hunters Creek Chapel
8303 Katy Freeway
Houston ,TX 77024
SCI Dignity","","","2012-05-23 13:55:43","2012-05-29 19:22:25","pet","devotedpets@aol.com","Britt Schroeter - owner",""
716,"Carriage Services","carriageservices","www.carriageservices.com","(713) 332-8455","3040 Post Oak Boulevard, Suite 300","","Houston, TX","PW",77056,"05/22/12: Clark & I met Jacquelyn on a cold call visit to their headquarters.  Sent landing page to her on 05/23/12 [ac].","","","2012-05-23 13:56:25","2012-05-23 13:56:25","human","jacquelyn.schoenberg@carriageservices.com","Jacquelyn Schoenberg - Vendor Analyst",""
717,"Holy Cross Mortuary","holycross","www.holycrossmortuary.com","310-280-3658","5835 W. Slauson Ave.","","Culver City","CA",90230,"Stewert Facility
Added 06/01/12","",50,"2012-06-04 17:27:07","2012-06-04 17:27:07","human","lglenn@stei.com","Lisa Glenn",05371
718,"Paws To Angels Pet Loss Center & Services","pawstoangels","www.pawstoangels.net","402-507-0585","11718 W. Dodge Road","","Omaha, NE","PW",68154,"07/06/12: Cherie emailed us wanting to be added as a distributor.  I sent her our Partner Program [ac].","","","2012-07-06 20:02:10","2012-07-06 20:02:10","pet","pawstoangelsinfo@cox.net","Cherie Frye",""
719,"Bluebonnet Hills Funeral Home & Memorial Park","bluebonnethills","www.bluebonnethills.com","(817) 498-5894","5725 Colleyville Boulevard","","Colleyville","TX",76034,"Added 07/07/12.  Amanda found us while showing a family the STEI Catalog, and sold one of urns (ac).","SE",50,"2012-07-07 21:36:43","2012-07-07 21:36:43","human","avanston@stei.com","Amanda Vanston - Funeral Arranger",43342
720,"J.Henry Stuhr Funeral Chapels and Crematory","Jhenrystuhr","www.jhenrystuhr.com","843-723-2524","","","","PW","","","","","2012-07-13 13:12:40","2012-11-29 23:56:58","human","","Robert E. Parks",""
721,"Click Funeral Home","clickfh","www.clickfh.com","865-671-6100","11915 Kingston Pike","","Knoxville","TN",37934,"07/29/12 Added as prospect [ac].
08/27/13 Changed to distributor [ac].","",50,"2012-07-30 19:33:53","2013-08-27 16:24:36","human","larry@clickfuneralhome.com","Larry Click",""
722,"David C. Gross Funeral Homes","davidcgross","www.davidcgross.com","727-381-4911","6366 Central Avenue","","St. Petersburg, FL","PW",33707,"08/13/12: Cold called on Michael [ac].","","","2012-08-14 10:51:03","2012-08-14 10:51:03","human","grossandsons.@aol.com","Michael Gross",""
723,"Rose Mortuary - Mann Heritage Chapel","rosemortuarymannheritage","www.rosemortuary.com","(865) 588-8578","6200 Kingston Pike","","Knoxville ","TN",37919,"07/25/12: Cold called on Rose.  Met Adam Starkey, Bob's son.  Came back on 07/26/12 and met Bob [ac]
08/22/12: Calrk & I met with Brian, Bob's other son, and set them up as Partner with Display [ac].","",50,"2012-08-24 15:11:02","2012-08-24 16:07:43","human","rostarkey@rosemortuary.com","Bob Starkey",""
724,"Fuller Funeral Home - Cremation Services","fullernaples","www.fullerfuneralhome.com","(239) 592-1611","1625 Pine Ridge Road","","Naples, FL","PW","","Added 08/28/12 [ac].
Carriage Services Facility #F-523.  This is the headquarters; 3 other facilities in area.
","",50,"2012-08-28 18:42:53","2012-08-28 18:42:53","human","jim.geeslin@carriageservices.com","Jim Geeslin, Managing Partner",""
725,"Dysart-Cofoid Funeral Chapel","dysart-cofoid","www.dcfunerals.com","815-339-2231","P.O. Box 590","208 South McCoy St.","Granville","IL",61326,"10/09/12:  Met at NFDA 2012 Expo in Charlotte.  Committed to a display order [ac].","",50,"2012-10-22 19:25:28","2012-10-22 19:25:28","human","","Bob & Darlene Cofoid",""
726,"vessel ","galleryvessel","www.galleryvessel.com/","(231) 645-4180","3807 East Bodus Road","","Cedar","MI",49621,"12/06/12:  Anne inquired vis our website to market our urns on her website.  Spoke with her about opportunity [ac].
12/10/12:  Sent Anne email & landing page [ac].
01/11/13: Anne purchased a display for her webstore [ac].","",25,"2012-12-10 18:45:45","2013-05-16 17:39:01","human","anne@galleryvessel.com","Anne Noble",""
727,"Nimsgern Funeral & Cremation Service","nimsgern","www.nimsgernfuneral.com","715-439-4100","1025 Margaret Street","","Woodruff, WI","PW",54568,"12/27/12:  Added as prospect per online inquiry [ac].","",25,"2012-12-27 18:05:31","2012-12-27 18:05:31","human","jamie@nimsgernfuneral.com","Jamie Nimsgern",""
728,"John M. Taylor Funeral Home","johnmtaylorfh","www.johnmtaylorfuneralhome.com","410-263-4422","147 Duke of Gloucester Street","","Annapolis","MD",21401,"01/03/13:  Added.  They were not aware of our product until a family pointed it out from the Stewart catalog [ac].","",50,"2013-01-03 21:58:17","2013-01-03 21:58:17","human","mklobert@stei.com","Myelin Klobert - FD",20341
729,"O'Connor Mortuary","oconnormortuary","www.oconnormortuary.com","(949) 581-4300","Laguna Hills Chapel & Crematory","25301 Alicia Parkway","Laguna Hills, CA","PW",92653,"Added 01/10/13 [ac].","","","2013-01-10 18:29:47","2013-01-10 18:34:22","human","chris@oconnormortuary.com","Chris - Manager",""
730,"Crazy Cat People","crazycatpeople","","(912) 306-8642","","","Duluth, GA","PW","","01/14/13:  Added as a prospective client.  Thien emailed us asking if he could sell our product through their web store they are developing [ac].","",25,"2013-01-14 18:08:57","2013-01-14 18:08:57","pet","info@crazycatpeople.com","Thien Dang",""
731,"Southern Cremations & Funerals at Cheatham Hill","southerncremations","www.southerncremations.com","770-919-7100","1861 Dallas Highway SW","","Marietta","GA",30064,"Added 01/17/13 [ac].","",50,"2013-01-17 16:50:36","2013-01-17 17:42:29","human","mcallahan@stei.com","Michelle Callahan - Manager",10341
732,"USMilitaryStuff.com","usmilitarystuff","www.usmilitarystuff.com","","","","","PW","","Added 01/31/13.  This is Spartacraft acting through their website [ac].","",25,"2013-01-31 22:53:32","2013-01-31 22:53:32","human","","Mandy Teague",""
733,"Garnand Funeral Homes","garnand","www.garnandfuneralhomes.com","620-276-3219","412 North 7th Street","","Garden City","KS",67846,"Added 02/05/13 [ac].","",50,"2013-02-05 21:53:55","2013-02-05 21:53:55","human","gardencity@garnandfuneralhomes.com","Darin Bradstreet",""
734,"Eline Funeral Home","elinefh","www.elinefh.com","(410) 239-8163","934 South Main Street","","Hampstead, MD ","PW",21074,"03/01/113: Added as prospect, sent email and landing page [ac].","","","2013-03-01 15:34:36","2013-03-01 15:34:36","human","seline@elinefh.com","Steven Eline",""
735,"Shives Funeral Home","shivesfh","www.shivesfuneralhome.com","803-754-6290","5202 Colonial Drive","","Columbia","SC",29203,"10/08/12: Met @ NFDA in Charlotte
03/04/13: Added as Distributor [ac].","",50,"2013-03-04 14:45:48","2013-03-04 14:45:48","human","rshives@shivesfuneralhome.com","Randolph Shives",""
736,"Rose Pet Memoril Center","rosepetmemoriol","","317-440-6139","9595 volpcriso ct. ","","Indianapolis","IL",46278,"Show 2013 Tampa ICCFA 4/9/13 - 4/13/13
New start up pet chapel and retail
Set up display ","","","2013-04-29 20:34:01","2013-04-29 20:43:18","pet","jane@igpr.org","",""
737,"Berardinelli Family Funeral Services ","berardinelli","www.berardinellifuneralhome.com","(505) 984-8600","1399 Luisa Street","","Santa Fe, NM","PW",87505,"04/12/13:  Visited our booth at ICCFA in Tampa.  Russ has sold our product before in Virginia [ac].
04/30/13:  Added as distributor and sent email with landing page [ac].","",50,"2013-04-30 16:26:46","2013-04-30 16:26:46","human","wecare@berardinellifuneralhome.com","Russ Harmon, Managing Partner",""
738,"A. E. Carter Funeral Home","aecarterfh","www.aecarterfunerlhome.com","706-752-1790","1670 Atlanta Highway","","Madison","GA",30650,"05/01/13: Added as distributor [ac].","",50,"2013-05-01 16:35:01","2013-05-01 16:35:01","human","aecarter@gmail.com","Adam Carter - FD, Owner",""
739,"Taylor & Modeen Funeral Home","taylormodeenfp2","http://taylormodeen.funeralplan2.com/","(561) 744-2030","250 Center Street","","Jupiter, FL","PW",33458,"05/29/13: Added as f-u to sales call by Clark; emailed landing page [ac].","","","2013-05-29 19:07:40","2013-05-29 19:07:40","human","hometaylor@bellsouth.net","Mike Taylor, FD","SIFH"
740,"Heartland Memorial Center","heartlandmemorial","www.heartlandmemorial.com","708-444-2266","7151 183rd Street","","Tinley Park","IL",60477,"06/11/13: Added as distributor [ac].","",50,"2013-06-11 20:35:00","2013-06-11 22:22:48","human","heartlandmemorial@gmail.com","J. C. hirsch",""
741,"The J. F. Floyd Mortuary","floydmortuary","www.floydmortuary.com","(864) 582-5451","235 North Church Street","","Spartanburg","SC",29306,"06/21/13:  Added as distributor [ac].","",50,"2013-06-21 19:22:10","2013-06-21 19:22:10","human","efargis@bellsouth.net","Eddie Fargis",""
742,"Lowe Funeral Home & Crematory","lowefuneralhome","www.lowefuneralhome.com","336-228-8366","2205 South Church Street","","Burlington","NC",27215,"06/27/13: Added.  Referral from Bill Simpson; purchased 2 FA pieces and acorns for display [ac].","",50,"2013-06-27 17:01:40","2013-06-28 19:56:56","human","jim@lowefuneralhome.com","Jim Lowe, President",""
743,"Funeral Choices of Chantilly","funeralchoices","www.funeralchoices.com","703-378-6896","14522L Lee Road","","Chantilly","VA",20151,"07/08/13: Called and ordered 2 acorns for display.  Asked if we had a catalog or if everything is online - wants a brochure [ac].","",50,"2013-07-09 13:31:27","2013-07-09 15:43:59","human","donnia.carmical@funeralchoices.com ","Donnia York-Carmical",""
744,"Mainely Urns","mainelyurns","www.mainelyurns.com","207-512-4081","194 Gray Road","","Cumberland","ME",04021,"08/16/13: Added [ac].","",50,"2013-08-16 18:36:47","2013-08-16 18:36:47","human","michael@mainelyurns.com","Michael Madore, President",""
745,"Pearson's Funeral Home","pearsonfh","www.pearsonfuneralhome.com","(502) 896-0349","149 Breckenridge Lane","","Louisville","KY",40207,"08/22/13 Added as prospective distributor after Clark & Bob Jenkins called on them 08/07/13 [ac].","",50,"2013-08-22 14:16:08","2013-08-22 14:16:08","human","lrobbins@pearsonfuneralhome.com","Larry Robbins - Owner, Mgr.",""
746,"Lauer Family Funeral Homes","lauerfh","www.lauerfh.com","(517) 524-8224","116 South Main Street","","Concord, MI","PW",49237,"08/22/13: Added. Referral from Clark's dad who met Steven while attending a funeral in Michigan [ac].","",50,"2013-08-22 14:52:49","2013-08-22 14:54:00","human","slauer@lauerfh.com","Steven Lauer, Owner",""
747,"Lakes Funeral Home","lakesfh","www.lakesfuneralhome.com","859-986-8416","203 N. Dogwood Drive","","Berea, KY","PW",40403,"08/29/13: Clark called on Lakes, met Janel, but had to exit when family came in; added as prospective distributor, sent landing page email [ac].","","","2013-08-29 20:38:33","2013-08-29 20:38:33","human","janel@lakesfuneralhome.com","Janel Lakes Davenport",""
748,"Reppert Funeral Home and Cremation Service","reppertfh","www.reppertfuneralhome.com","(859) 986-3165","110 N. Broadway","","Berea, KY","PW",40403,"08/29/13 Added as prospect.  Clark cold called on Reppert while in Berea and met Lonnie [ac].","","","2013-08-30 10:55:21","2013-08-30 10:55:21","human","professor1954@hotmail.com","Lonnie Reppert",""
749,"Davis and Powell Funeral Home","davisandpowellfh","www.davisandpowellfuneralhome.com","(859) 986-4220","616 Chestnut Street","","Berea, KY","PW",40403,"08/29/13: Clark cold called on FH and met Jim & Gregory; added as prospect, send landing page email [ac].","","","2013-08-30 11:20:16","2013-08-30 11:20:16","human","info@davisandpowellfuneralhome.com","Jim Davis & Gregory Powell",""
750,"Bellefontaine Cemetery","bellefontainecemetery","www.bellefontainecemetery.org","314-381-0750","4947 W. Florissant Avenue","","St. Louis","MO",63115,"03/12: Met Rick @ ICCFA in Vegas [ac].
09/03/13: Added.  Gracie ordered urn for niche customer, she saw us @ ICCFA in Tampa and has our acorn [ac].","",50,"2013-09-03 20:31:20","2013-09-03 20:31:20","human","gmacdonell@bellefontainecemetery.com","Rick Lay, Mgr / Gracie McDonell",""
751,"Brown-Oglesby Funeral Home","brownoglesbyfh","www.brownoglesbyfuneralhome.com","864-882-2324","101 E. North Second Street","","Seneca, SC","PW",29678,"Cold called on FH, met David; he liked the urns.  His dad, Charles, makes inventory decisions [ac].","","","2013-09-16 21:11:39","2013-09-16 21:11:39","human","","David Oglesby - VP",""
752,"Fox and Weeks Funeral Directors","foxandweeks","www.foxandweeks.com","912-352-7200","7200 Hodgson Memorial Drive","","Savannah, GA","PW",31406,"09/19/13: Clark visited FH.  Met with Steve & Pam Sullivan, Controller. Added as PW, sent email w-landing page [ac]. ","","","2013-09-19 15:18:21","2013-09-19 15:18:21","human","steveweeks@foxandweeks.com","Steve Weeks, Co-President",""
753,"Ponte Vedra Valley","pontevedravalley","www.pontevedravalley.com","904-285-1130","4750 Palm Valley Road","","Ponte Vedra Beach, FL","PW",32082,"09/20/13: Clark cold called on PVV and met Brent; added as prospect and sent landing page [ac].","","","2013-09-23 14:38:46","2013-09-23 14:38:46","human","brent@pontevedravalley.com","Brent Hendrick",""
754,"The Casket Store","thecasketstore","www.thecasketstore.com","904-695-9155","4555 San Juan Avenue","","Jacksonville, FL","PW",32210,"09/20/13: Clark cold called and met Larry.  Was receptive to our product.  They are a store front for funeral merchandise, not a FH.  Need to send landing page [ac].","","","2013-09-23 15:35:24","2013-09-23 15:35:24","human","thecasketstore@gmail.com","Larry Self - Owner",""
755,"Quinn Shalz Family Funeral Home","quinn-shalz","www.quinn-shalz.com","904-249-1100","3600 Third Street South","","Jacksonville Beach, FL","PW",32250,"09/20/113: Clark cold called on FH; met Darlene in parking lot smoking a cigarette.  She loves our product, will look online next week and order [ac].
09/23/13: Added to web database as prospect, emailed landing page [ac].","","","2013-09-23 17:07:42","2013-09-23 17:07:42","human","dsmith@quinn-shalz.com","Darlene Smith - Managing Director",""
756,"Gamble Funeral Service","gamblefuneralservice","www.gamblefuneralservice.com","912-354-1616","410 Stephenson Avenue","","Savannah, GA ","PW",31405,"09/19/13: Clark cold called after not gaining appt [ac].
09/23/13: Added as prospect, sent landing page [ac].","","","2013-09-23 17:32:13","2013-09-23 17:32:13","human","edgamble@gamblefuneralservice.com","Ed Gamble - Owner",""
757,"Chapman Funeral Chapel","chapmanfuneralchapel","www.chapmanfuneralchapel.net","912-264-2444","5951 Golden Isles Parkway","","Brunswick, GA ","AK",31525,"09/18/13: Clark cold called on FH; met Allyson.
09/23/13: Added to web database to create courtesy landing page [ac].","","","2013-09-23 19:09:07","2013-09-23 19:09:07","human","achapmanga05@aol.com","Allyson Chapel",""
758,"Bonaventure Funeral Home","bonaventurefh","www.bonaventurefh.com","912-335-8506","1328 Dean Forest Road","","Savannah, GA","PW",31405,"09/19/13: Clark cold called on FH as a targeted prospect while traveling to Jacksonville; was told to see C.J. Neesmith [ac].
09/23/13 Added to web database; sent email with landing page [ac].","","","2013-09-23 19:29:58","2013-09-23 19:31:48","human","cjneesmith@familiesfirstcare.com","C.J. Neesmith (see First Family Funeral)",""
759,"Hall-Wynne Funeral Services","hallwynne","www.hallwynne.com","919-688-6387","1113 W. Main Street","","Durham, NC","PW",27701,"09/27/13: Added as prospect.  Mark is integral with SIFH [ac].","","","2013-09-27 15:37:43","2013-09-27 15:37:43","human","mark@hallwynne.com","Mark Higgins - Owner/Pres",""
760,"Oakey's Funeral Service & Crematory","oakeys","www.oakeys.com","540-982-2100","318 Church Avenue SW","","Roanoke, VA","PW",24016,"10/02/13: Added as prospect.  A big customer of MasterCraft caskets and a referral from Bill Simpson.  Clark has appt to meet Sam on 10/03/13 [ac].","","","2013-10-02 18:51:40","2013-10-02 18:51:40","human","oakeysfs@oakeys.com","Samuel Oakey - President",""
761,"Thomas McAfee Funeral Homes","thomasmcafee","www.thomasmcafee.com","(864) 232-6733","639 N. Main Street","","Greenville, SC","PW",29602,"10/29/13: Added as prospect.  Met John McAfee & wife, Preston, at SIFH Gala on 10/18/13. John is Mgr of NW location [ac].
","","","2013-10-29 13:21:05","2013-10-29 13:21:05","human","","Thomas McAfee IV - President",""
762,"Usrey Funeral Home","usreyfh","www.usreyfuneralhome.com","256-362-2344","516 North Street East","","Talledega, AL","PW",35160,"10/29/13: Added.  Met Mike at NFDA Expo, likes product [ac].","","","2013-10-29 13:44:11","2013-10-29 13:44:11","human","usrey2344@hotmail.com","Mike Perry - Co-owner/Operator",""
763,"Westford Funeral Home & Cremation Service","westfordfh","www.westfordfuneralhome.com","360-734-1717","1301 Broadway","","Bellingham, WA","PW",98225,"10/29/13 Added as prospect. Clark met Clark at NFDA Expo in Austin [ac].","","","2013-10-29 16:46:34","2013-10-29 16:46:34","human","info@westfordfuneralhome.com","Clark Cotner",""
764,"Porter Loring Mortuaries","porterloring","www.porterloring.com","(210) 227-8221","1101 McCullough Avenue","","San Antonio, TX","PW",78212,"10/29/13: Added as prospect. SIFH. Met at SIGH Gala in Austin [ac].","","","2013-10-29 19:00:48","2013-10-29 19:00:48","human","P13@porterloring.com","Porter Loring",""
765,"Porter Loring Mortuaries","porterloring","www.porterloring.com","(210) 227-8221","1101 McCullough Avenue","","San Antonio, TX","PW",78212,"10/29/13: Added as prospect. SIFH. Met at SIGH Gala in Austin [ac].","","","2013-10-29 19:00:55","2013-10-29 19:00:55","human","P13@porterloring.com","Porter Loring",""
766,"Kilpatrick's Rose-Neath Funeral Homes","rose-neath","www.rose-neath.com","318-222-0348","1815 Marshall","","Shreveport, LA","PW",71161,"10/29/13 Added as prospect [ac].","","","2013-10-29 19:36:44","2013-10-29 19:36:44","human","christinabarnett@rose-neath.com","Warren Williams - FDIC",""
767,"Baue Funeral Homes","baue","www.baue.com","636-940-1000","620 Jefferson Street","","St. Charles, MO","PW",63301,"10/29/13: Added as prospect [ac].","","","2013-10-29 20:55:01","2013-10-29 20:59:10","human","lbaue@baue.com","Lisa Baue",""
